"bsn","district","address_id","latitude","longitude","street","plz","district_id"
"01E10","Mitte","20","52.5525","13.36152","Groninger Str. 25","13347","10"
"01E12","Mitte","21","52.521522","13.4098649","Panoramastr. 1","10178","10"
"01E13","Mitte","22","52.52599","13.40484","Weinmeisterstr. 16","10178","10"
"01P04","Mitte","22","52.52599","13.40484","Weinmeisterstr. 16","10178","10"
"01E16","Mitte","23","52.5090503","13.3897175","Friedrichstr. 200","10117","10"
"01E18","Mitte","24","52.5121824","13.4199374","Rungestr. 18","10179","10"
"01E20","Mitte","25","52.5121658","13.3830179","Wilhelmstr. 88","10117","10"
"01E21","Mitte","26","52.5107363","13.4065068","Wallstr. 15A","10179","10"
"01E25","Mitte","27","52.5100797","13.4016712","Beuthstr. 8","10117","10"
"01P39","Mitte","27","52.5100797","13.4016712","Beuthstr. 8","10117","10"
"01E26","Mitte","28","52.51978","13.38965","Friedrichstr. 95","10117","10"
"01E27","Mitte","29","52.52798","13.31894","Wiebestr. 46","10553","10"
"01E28","Mitte","30","52.5093253","13.3880071","Mauerstr. 77","10117","10"
"01E29","Mitte","31","52.5113602","13.3909322","Kronenstr. 55","10117","10"
"01E30","Mitte","32","52.5013928","13.3565812","Kurfürstenstr. 53","10785","10"
"01E31","Mitte","33","52.50202","13.36934","Lützowstr. 105 ","10785","10"
"01E32","Mitte","34","52.52998","13.36409","Lehrter Str. 17","10557","10"
"01G01","Mitte","35","52.53684","13.40039","Ruppiner Str. 47-48","10115","10"
"01G02","Mitte","36","52.532833","13.3910483","Bergstr. 58","10115","10"
"01G04","Mitte","37","52.52678","13.4018","Gipsstr. 23A","10119","10"
"01G05","Mitte","38","52.52759","13.38033","Hannoversche Str. 20","10115","10"
"01G07","Mitte","39","52.5163654","13.4241201","Singerstr. 8","10179","10"
"01G08","Mitte","40","52.5131795","13.38276","Wilhelmstr. 52","10117","10"
"01P34","Mitte","40","52.5131795","13.38276","Wilhelmstr. 52","10117","10"
"01G10","Mitte","41","52.50737","13.40892","Sebastianstr. 57","10179","10"
"01G11","Mitte","42","52.53006","13.353115","Rathenower Str. 18","10559","10"
"01G15","Mitte","43","52.51827","13.35527","Paulstr. 20B","10557","10"
"01G16","Mitte","44","52.5219744","13.35657","Paulstr. 28","10557","10"
"01G18","Mitte","45","52.5288941","13.3318065","Waldenserstr. 20-21","10551","10"
"01G19","Mitte","46","52.5214","13.34019","Lessingstr. 5","10555","10"
"01G24","Mitte","47","52.55719","13.35717","Ungarnstr. 75","13349","10"
"01G25","Mitte","48","52.55158","13.39611","Ellerbeker Str. 7-8","13357","10"
"01G27","Mitte","49","52.55338","13.38292","Prinzenallee 8","13357","10"
"01G28","Mitte","50","52.54146","13.35783","Tegeler Str. 18-19","13353","10"
"01G29","Mitte","51","52.55775","13.38365","Gotenburger Str. 8","13359","10"
"01G31","Mitte","52","52.5462055","13.362468","Antonstr. 10","13347","10"
"01G32","Mitte","53","52.56107","13.38284","Zechliner Str. 4","13359","10"
"01G35","Mitte","54","52.5416558","13.3777972","Grenzstr. 7","13355","10"
"01G36","Mitte","55","52.56553","13.38891","Kattegatstr. 26","13359","10"
"01G37","Mitte","56","52.54695","13.39407","Ramlerstr. 9-10","13355","10"
"01G38","Mitte","57","52.53795","13.39162","Strelitzer Str. 42","13355","10"
"01G39","Mitte","58","52.54222","13.3969","Demminer Str. 27","13355","10"
"01G40","Mitte","59","52.55575","13.33375","Afrikanische Str. 123-125","13351","10"
"01G41","Mitte","60","52.55099","13.35786","Utrechter Str. 25-27","13347","10"
"01G42","Mitte","61","52.5503747","13.3418855","Guineastr. 17-18","13351","10"
"01G43","Mitte","62","52.5492336","13.3732605","Orthstr. 1","13357","10"
"01S06","Mitte","62","52.5492336","13.3732605","Orthstr. 1","13357","10"
"01G44","Mitte","63","52.5035806","13.3629577","Lützowstr. 83-85","10785","10"
"01G45","Mitte","64","52.5446286","13.3618199","Müllerstr. 158","13353","10"
"01G46","Mitte","65","52.52778","13.39745","Koppenplatz 12","10115","10"
"01G47","Mitte","66","52.5231348","13.3315821","Zinzendorfstr. 15-16","10555","10"
"01K01","Mitte","67","52.5513398","13.3859526","Grüntaler Str. 5","13357","10"
"01K02","Mitte","68","52.54701","13.34782","Lütticher Str. 47-48","13353","10"
"01K03","Mitte","69","52.5388964","13.3943725","Stralsunder Str. 57","13355","10"
"01K04","Mitte","70","52.5247296","13.3162999","Neues Ufer 6","10553","10"
"01K06","Mitte","71","52.5469041","13.3731006","Pankstr. 18-19","13357","10"
"01K07","Mitte","72","52.5304829","13.3916822","Gartenstr. 10-17","10115","10"
"01K08","Mitte","73","52.55628","13.3457","Ofener Str. 6","13349","10"
"01K09","Mitte","74","52.53367","13.34651","Stephanstr. 27","10559","10"
"01K10","Mitte","75","52.5357224","13.3548746","Quitzowstr. 141 ","10559","10"
"01P01","Mitte","76","52.54903","13.37487","Pankstr. 70","13357","10"
"01P03","Mitte","77","52.52504","13.39948","Große Hamburger Str. 27","10115","10"
"01P05","Mitte","78","52.52787","13.33431","Waldenserstr. 27","10551","10"
"01P06","Mitte","79","52.50969","13.3557","Tiergartenstr. 30-31","10785","10"
"01P07","Mitte","80","52.5348952","13.3892121","Bernauer Str. 115-118","13355","10"
"01P11","Mitte","81","52.5104499","13.4084457","Alte Jakobstr. 77","10179","10"
"01P13","Mitte","82","52.540661","13.4011402","Wolliner Str. 25-26","13355","10"
"01P14","Mitte","83","52.5155862","13.4148463","Littenstr. 109","10179","10"
"01P16","Mitte","84","52.52706","13.39025","Linienstr. 122","10115","10"
"01P17","Mitte","85","52.5098893","13.4074507","Alte Jakobstr. 83-84","10179","10"
"01P18","Mitte","86","52.5382523","13.3847728","Ackerstr. 76","13355","10"
"01P22","Mitte","87","52.5276979","13.4066037","Rückerstr. 9","10119","10"
"01P23","Mitte","88","52.5110497","13.4113669","Wallstr. 32","10179","10"
"01P24","Mitte","89","52.54527","13.37185","Gerichtstr. 27","13347","10"
"01P25","Mitte","90","52.50202","13.36934","Lützowstr. 106","10785","10"
"01P33","Mitte","90","52.50202","13.36934","Lützowstr. 106","10785","10"
"01P36","Mitte","91","52.5242005","13.4130166","Alexanderstr. 5","10178","10"
"01P37","Mitte","92","52.5133576","13.4114646","Märkisches Ufer 28-34","10179","10"
"01P38","Mitte","93","52.52537","13.33329","Zwinglistr. 37","10555","10"
"01P40","Mitte","94","52.5264504","13.3470366","Turmstr. 21","10559","10"
"01P42","Mitte","95",,,"Alexanderstr. 1","10178","10"
"01P43","Mitte","96","52.5163603","13.4125839","Klosterstr. 64","10179","10"
"01P44","Mitte","97","52.522867","13.416297","Alexanderstr. 7","10178","10"
"01P45","Mitte","98","52.54202","13.35475","Sprengelstr. 15","13353","10"
"01P46","Mitte","99","52.54391","13.3906","Brunnenstr. 110D","13355","10"
"01S01","Mitte","100","52.5295","13.3954","Bergstr. 5-9","10115","10"
"01S05","Mitte","101","52.5424137","13.3486434","Augustenburger Platz 1","13353","10"
"01S07","Mitte","102","52.52226","13.42328","Berolinastr. 8","10178","10"
"01Y02","Mitte","103","52.5309233","13.4041052","Zehdenicker Str. 17","10119","10"
"01Y04","Mitte","104","52.5366012","13.3955806","Rheinsberger Str. 4-5","10115","10"
"01Y07","Mitte","105","52.50318","13.35549","Derfflingerstr. 7","10785","10"
"01Y08","Mitte","106",,,"Schöningstr. 17","13349","10"
"01Y09","Mitte","107","52.5502136","13.3785621","Böttgerstr. 2-6","13357","10"
"01Y11","Mitte","108","52.5163654","13.4241201","Singerstr. 8A","10179","10"
"01Y12","Mitte","109","52.51935","13.3394","Altonaer Str. 26","10555","10"
"01A01","Mitte","1003","52.54121","13.3583","Tegeler Str. 16","13353","10"
"01A02","Mitte","1003","52.54121","13.3583","Tegeler Str. 16","13353","10"
"01A03","Mitte","1003","52.54121","13.3583","Tegeler Str. 16","13353","10"
"01A04","Mitte","1004","52.5266","13.33421","Turmstr. 75","10551","10"
"01B01","Mitte","1005","52.5237843","13.3576576","Alt-Moabit 10","10557","10"
"01B02","Mitte","1006","52.5226857","13.3379548","Bochumer Str. 8B","10555","10"
"01B03","Mitte","1007","52.55666","13.37961","Osloer Str. 23-26","13359","10"
"01B04","Mitte","1008","52.5578586","13.3529561","Schwyzer Str. 6-8","13349","10"
"01B05","Mitte","1009","52.51238","13.398","Niederwallstr. 6-7","10117","10"
"01E03","Mitte","1010","52.512303","13.419736","Rungestr. 20","10179","10"
"01E08","Mitte","1010","52.512303","13.419736","Rungestr. 20","10179","10"
"02A01","Friedrichshain-Kreuzberg","110","52.49445","13.43236","Forster Str. 15","10999","11"
"02A02","Friedrichshain-Kreuzberg","110","52.49445","13.43236","Forster Str. 15","10999","11"
"02A03","Friedrichshain-Kreuzberg","110","52.49445","13.43236","Forster Str. 15","10999","11"
"02A04","Friedrichshain-Kreuzberg","110","52.49445","13.43236","Forster Str. 15","10999","11"
"02A05","Friedrichshain-Kreuzberg","110","52.49445","13.43236","Forster Str. 15","10999","11"
"02A06","Friedrichshain-Kreuzberg","110","52.49445","13.43236","Forster Str. 15","10999","11"
"02A07","Friedrichshain-Kreuzberg","110","52.49445","13.43236","Forster Str. 15","10999","11"
"02S05","Friedrichshain-Kreuzberg","110","52.49445","13.43236","Forster Str. 15","10999","11"
"02A08","Friedrichshain-Kreuzberg","111","52.4944027","13.4324903","Forster Str. 015 ","10999","11"
"02B01","Friedrichshain-Kreuzberg","112","52.50301","13.45008","Naglerstr. 1-3","10245","11"
"02B02","Friedrichshain-Kreuzberg","113","52.49909","13.40309","Lobeckstr. 76","10969","11"
"02B03","Friedrichshain-Kreuzberg","114","52.50604","13.38927","Kochstr. 9","10969","11"
"02B04","Friedrichshain-Kreuzberg","115","52.500529","13.437771","Wrangelstr. 98","10997","11"
"02B05","Friedrichshain-Kreuzberg","116","52.52161","13.44855","Straßmannstr. 14","10249","11"
"02E01","Friedrichshain-Kreuzberg","117","52.5076038","13.4717015","Neue Bahnhofstr. 16-17","10245","11"
"02E03","Friedrichshain-Kreuzberg","118","52.5128261","13.4586294","Boxhagener Str. 106","10245","11"
"02E04","Friedrichshain-Kreuzberg","119","52.512839","13.45532","Boxhagener Str. 18","10245","11"
"02E05","Friedrichshain-Kreuzberg","120","52.49191","13.38817","Gneisenaustr. 2A","10961","11"
"02E06","Friedrichshain-Kreuzberg","121","52.49884","13.43616","Lübbener Str. 26","10997","11"
"02E07","Friedrichshain-Kreuzberg","122","52.5052531","13.3779788","Bernburger Str. 24-25","10963","11"
"02E10","Friedrichshain-Kreuzberg","123","52.5018","13.4111544","Ritterstr. 12-14","10969","11"
"02E36","Friedrichshain-Kreuzberg","123","52.5018","13.4111544","Ritterstr. 12-14","10969","11"
"02E11","Friedrichshain-Kreuzberg","124","52.48963","13.40086","Gneisenaustr. 41","10961","11"
"02E12","Friedrichshain-Kreuzberg","125","52.48872","13.39634","Bergmannstr. 29","10961","11"
"02E14","Friedrichshain-Kreuzberg","126","52.5024606","13.4409624","Pfuelstr. 3","10997","11"
"02E15","Friedrichshain-Kreuzberg","127","52.4996277","13.4224853","Mariannenstr. 9-10","10999","11"
"02E17","Friedrichshain-Kreuzberg","128",,,"Cuvrystr. 34","10997","11"
"02P16","Friedrichshain-Kreuzberg","128",,,"Cuvrystr. 34","10997","11"
"02E18","Friedrichshain-Kreuzberg","129","52.4934944","13.3887076","Mehringdamm 33","10961","11"
"02E20","Friedrichshain-Kreuzberg","130","52.5037826","13.3961391","Lindenstr. 20-25","10969","11"
"02E21","Friedrichshain-Kreuzberg","131","52.50168","13.43399","Wrangelstr. 31","10997","11"
"02E23","Friedrichshain-Kreuzberg","132","52.5040006","13.4345971","Eisenbahnstr. 21","10997","11"
"02E24","Friedrichshain-Kreuzberg","133","52.5026393","13.4408648","Pfulstr. 5","10997","11"
"02E26","Friedrichshain-Kreuzberg","134","52.5039965","13.4523379","Ehrenbergstr. 11-14","10245","11"
"02E27","Friedrichshain-Kreuzberg","135","52.51477","13.46241","Frankfurter Allee 40","10247","11"
"02E28","Friedrichshain-Kreuzberg","136","52.5049999","13.4482798","Warschauer Str. 36-38","10243","11"
"02E29","Friedrichshain-Kreuzberg","137","52.48977","13.39253","Solmsstr. 30","10961","11"
"02E30","Friedrichshain-Kreuzberg","138","52.505891","13.393171","Charlottenstr. 2","10969","11"
"02P19","Friedrichshain-Kreuzberg","138","52.505891","13.393171","Charlottenstr. 2","10969","11"
"02E32","Friedrichshain-Kreuzberg","139","52.49772","13.38026","Obentrautstr. 72","10963","11"
"02E33","Friedrichshain-Kreuzberg","140","52.50167","13.38641","Stresemannstr. 46","10963","11"
"02E34","Friedrichshain-Kreuzberg","141","52.4897","13.38861","Bergmannstr. 5","10961","11"
"02E35","Friedrichshain-Kreuzberg","142","52.5122875","13.4484908","Gubener Str. 47","10243","11"
"02E37","Friedrichshain-Kreuzberg","143","52.51163","13.45351","Warschauer Str. 70A","10243","11"
"02E38","Friedrichshain-Kreuzberg","144","52.4909582","13.4187993","Urbanstr. 116 ","10967","11"
"02E39","Friedrichshain-Kreuzberg","145","52.50552","13.39035","Friedrichstr. 217 ","10969","11"
"02G01","Friedrichshain-Kreuzberg","146","52.52106","13.43582","Friedenstr. 40-45","10249","11"
"02G02","Friedrichshain-Kreuzberg","147","52.5242081","13.4543236","Hausburgstr. 20","10249","11"
"02G03","Friedrichshain-Kreuzberg","148","52.5186986","13.4576973","Liebigstr. 18A","10247","11"
"02G04","Friedrichshain-Kreuzberg","149","52.5186561","13.4709999","Pettenkoferstr. 20-24","10247","11"
"02G05","Friedrichshain-Kreuzberg","150","52.51663","13.43215","Andreasstr. 50-52","10243","11"
"02G07","Friedrichshain-Kreuzberg","151","52.5143567","13.4488861","Lasdehner Str. 21-23","10243","11"
"02G08","Friedrichshain-Kreuzberg","152","52.511492","13.4718545","Jessnerstr. 24-32","10247","11"
"02G09","Friedrichshain-Kreuzberg","153","52.50898","13.4653","Boxhagener Str. 46","10245","11"
"02G10","Friedrichshain-Kreuzberg","154","52.50705","13.46024","Niemannstr. 3","10245","11"
"02G11","Friedrichshain-Kreuzberg","155","52.4928814","13.476151","Alt-Stralau 34","10245","11"
"02G12","Friedrichshain-Kreuzberg","156","52.5044723","13.3887756","Puttkamerstr. 19","10969","11"
"02G13","Friedrichshain-Kreuzberg","157","52.49041","13.38183","Großbeerenstr. 40","10965","11"
"02G14","Friedrichshain-Kreuzberg","158","52.501885","13.3915311","Friedrichstr. 13","10969","11"
"02S06","Friedrichshain-Kreuzberg","158","52.501885","13.3915311","Friedrichstr. 13","10969","11"
"02G15","Friedrichshain-Kreuzberg","159","52.505264","13.4297669","Wrangelstr. 136","10997","11"
"02G16","Friedrichshain-Kreuzberg","160","52.49381","13.39154","Nostitzstr. 60","10961","11"
"02G18","Friedrichshain-Kreuzberg","161",,,"Mariannenplatz 28","10997","11"
"02G19","Friedrichshain-Kreuzberg","162","52.50303","13.38014","Schöneberger Str. 23","10963","11"
"02G20","Friedrichshain-Kreuzberg","163","52.49488","13.40516","Wilmsstr. 10","10961","11"
"02G21","Friedrichshain-Kreuzberg","164","52.49059","13.3999","Gneisenaustr. 73-74","10961","11"
"02G22","Friedrichshain-Kreuzberg","165","52.4972942","13.4161895","Kohlfurter Str. 20","10999","11"
"02G23","Friedrichshain-Kreuzberg","166","52.49575","13.44495","Görlitzer Ufer 2","10997","11"
"02G24","Friedrichshain-Kreuzberg","167","52.4999227","13.4016232","Alexandrinenstr. 12","10969","11"
"02G26","Friedrichshain-Kreuzberg","168","52.4941982","13.416454","Böckhstr. 5","10967","11"
"02G27","Friedrichshain-Kreuzberg","169","52.498181","13.425491","Manteuffelstr. 79","10999","11"
"02G29","Friedrichshain-Kreuzberg","170","52.5007291","13.4291815","Waldemarstr. 118","10997","11"
"02G31","Friedrichshain-Kreuzberg","171","52.49085","13.38065","Hagelberger Str. 34","10965","11"
"02G32","Friedrichshain-Kreuzberg","172",,,"Hallesche Str. 24","10963","11"
"02G33","Friedrichshain-Kreuzberg","173","52.49312","13.40611","Urbanstr. 15","10961","11"
"02G34","Friedrichshain-Kreuzberg","174","52.51279","13.46783","Scharnweberstr. 19","10247","11"
"02G35","Friedrichshain-Kreuzberg","175","52.4954939","13.4304479","Reichenberger Str. 65","10999","11"
"02K01","Friedrichshain-Kreuzberg","176","52.5152277","13.4368773","Rüdersdorfer Str. 20-28","10243","11"
"02K02","Friedrichshain-Kreuzberg","177","52.4908965","13.4047078","Blücherstr. 46","10961","11"
"02K03","Friedrichshain-Kreuzberg","178","52.49832","13.3841","Tempelhofer Ufer 15","10963","11"
"02K04","Friedrichshain-Kreuzberg","179","52.49178","13.38971","Gneisenaustr. 7","10961","11"
"02K05","Friedrichshain-Kreuzberg","180","52.5256663","13.4259873","Weinstr. 3","10249","11"
"02K06","Friedrichshain-Kreuzberg","181","52.50277","13.45729","Modersohnstr. 53","10245","11"
"02K07","Friedrichshain-Kreuzberg","182","52.5189963","13.4504005","Eckertstr. 16","10249","11"
"02K08","Friedrichshain-Kreuzberg","183","52.49962","13.43555","Skalitzer Str. 55","10997","11"
"02K09","Friedrichshain-Kreuzberg","184","52.4942045","13.4187092","Graefestr. 85-88","10967","11"
"02K10","Friedrichshain-Kreuzberg","185","52.4887982","13.40149","Bergmannstr. 64","10961","11"
"02P02","Friedrichshain-Kreuzberg","186","52.5049982","13.4482775","Warschauer Str. 34-36","10243","11"
"02P03","Friedrichshain-Kreuzberg","187","52.4908051","13.4213181","Boppstr. 4","10967","11"
"02P04","Friedrichshain-Kreuzberg","188","52.5036075","13.402409","Ritterstr. 78","10969","11"
"02P08","Friedrichshain-Kreuzberg","188","52.5036075","13.402409","Ritterstr. 78","10969","11"
"02P05","Friedrichshain-Kreuzberg","189","52.49913","13.38633","Hallesches Ufer 32-38","10963","11"
"02P07","Friedrichshain-Kreuzberg","190","52.50294","13.38938","Friedrichstr. 231","10969","11"
"02P09","Friedrichshain-Kreuzberg","191",,,"Wrangelstr. 128 ","10997","11"
"02P10","Friedrichshain-Kreuzberg","192",,,"Warschauer Str. 39-40","10243","11"
"02P11","Friedrichshain-Kreuzberg","193","52.5251493","13.4250913","Weinstr. 1-3","10249","11"
"02P12","Friedrichshain-Kreuzberg","194","52.52102","13.43206","Strausberger Str. 38","10243","11"
"02P13","Friedrichshain-Kreuzberg","195","52.5138033","13.444594","Marchlewskistr. 40","10243","11"
"02P14","Friedrichshain-Kreuzberg","196","52.50489","13.39391","Besselstr. 13-14","10969","11"
"02P18","Friedrichshain-Kreuzberg","197","52.5104096","13.4542658","Kopernikusstr. 23","10245","11"
"02P20","Friedrichshain-Kreuzberg","198","52.5151916","13.4678217","Voigtstr. 3","10247","11"
"02P22","Friedrichshain-Kreuzberg","199","52.50986","13.44814","Marchlewskistr. 91","10243","11"
"02P23","Friedrichshain-Kreuzberg","200","52.5085511","13.4502106","Revaler Str. 100 ","10245","11"
"02P25","Friedrichshain-Kreuzberg","201","52.52109","13.44924","Petersburger Platz 5","10249","11"
"02P26","Friedrichshain-Kreuzberg","202","52.50799","13.39931","Axel-Springer-Str. 42","10969","11"
"02P27","Friedrichshain-Kreuzberg","203","52.5145803","13.4684161","Frankfurter Allee 077 ","10247","11"
"02P28","Friedrichshain-Kreuzberg","204","52.5144003","13.4689028","Frankfurter Allee 77","10247","11"
"02S01","Friedrichshain-Kreuzberg","205","52.51449","13.4491","Lasdehner Str. 19","10243","11"
"02S02","Friedrichshain-Kreuzberg","206","52.4971018","13.416721","Kohlfurter Str. 22","10999","11"
"02S03","Friedrichshain-Kreuzberg","207","52.51984","13.4346","Palisadenstr. 76-77","10243","11"
"02S04","Friedrichshain-Kreuzberg","208","52.51566","13.43034","Singerstr. 87","10243","11"
"02Y01","Friedrichshain-Kreuzberg","209","52.5140392","13.4346062","Koppenstr. 76","10243","11"
"02Y03","Friedrichshain-Kreuzberg","210","52.51695","13.46306","Rigaer Str. 81-82","10247","11"
"02Y04","Friedrichshain-Kreuzberg","211","52.5153592","13.4557847","Frankfurter Allee 6A","10247","11"
"02Y05","Friedrichshain-Kreuzberg","212","52.5100005","13.4453988","Helsingforser Str. 11-13","10243","11"
"02Y06","Friedrichshain-Kreuzberg","213","52.4899865","13.3967865","Schleiermacherstr. 23","10961","11"
"02Y07","Friedrichshain-Kreuzberg","214","52.49323","13.41596","Dieffenbachstr. 60","10967","11"
"02Y08","Friedrichshain-Kreuzberg","215","52.493579","13.419151","Böckhstr. 16","10967","11"
"03A04","Pankow","216","52.55206","13.40553","Driesener Str.22","10439","12"
"03A05","Pankow","217","52.540662","13.44844","Hanns-Eisler-Str. 78-80","10409","12"
"03K04","Pankow","217","52.540662","13.44844","Hanns-Eisler-Str. 78-80","10409","12"
"03B02","Pankow","218","52.59409","13.40031","Erbeskopfweg 6-10","13158","12"
"03B03","Pankow","219","52.5594883","13.4484335","Gustav-Adolf-Str. 66","13086","12"
"03B09","Pankow","219","52.5594883","13.4484335","Gustav-Adolf-Str. 66","13086","12"
"03B04","Pankow","220","52.55298","13.47542","Buschallee 23A","13088","12"
"03B06","Pankow","221","52.57938","13.39577","Hermann-Hesse-Str. 34-37","13156","12"
"03B07","Pankow","222","52.54575","13.44136","Mandelstr. 6-8","10409","12"
"03B08","Pankow","223","52.54643","13.435","Erich-Weinert-Str. 103","10409","12"
"03E03","Pankow","224","52.5375929","13.4518584","Storkower Str. 99","10407","12"
"03E04","Pankow","225","52.55036","13.41687","Wichertstr. 67","10439","12"
"03E07","Pankow","226","52.54879","13.41465","Schönhauser Allee 73","10437","12"
"03E08","Pankow","227","52.5439305","13.4401417","Erich-Weinert-Str. 145","10409","12"
"03E10","Pankow","228","52.6443842","13.5007464","Röbellweg 97","13125","12"
"03E11","Pankow","229","52.57192","13.40392","Pestalozzistr. 5-8","13187","12"
"03E12","Pankow","230","52.5805425","13.4111217","Rolandstr. 18-19","13156","12"
"03E14","Pankow","231","52.5603101","13.4715562","Neumagener Str. 25","13088","12"
"03E15","Pankow","232","52.536956","13.408361","Kastanienallee 82","10435","12"
"03E16","Pankow","233","52.59342","13.45166","Alt-Blankenburg 5","13129","12"
"03E17","Pankow","234","52.5328594","13.4227815","Immanuelkirchstr. 4","10405","12"
"03E18","Pankow","235","52.53986","13.40719","Oderberger Str. 22","10435","12"
"03E19","Pankow","236","52.5326648","13.4233031","Immanuelkirchstr. 6","10405","12"
"03E20","Pankow","237","52.5283018","13.4124495","Torstr. 33","10119","12"
"03G01","Pankow","238","52.55381","13.43681","Gustav-Adolf-Str. 21","13086","12"
"03G02","Pankow","239","52.53064","13.42364","Heinrich-Roller-Str. 18","10405","12"
"03G03","Pankow","240","52.53768","13.41489","Knaackstr. 67","10435","12"
"03G04","Pankow","241","52.5361475","13.4255896","Christburger Str. 7","10405","12"
"03G05","Pankow","242","52.53371","13.43237","Pasteurstr. 10-12","10407","12"
"03G06","Pankow","243","52.5351035","13.4397928","John-Schehr-Str. 38","10407","12"
"03G08","Pankow","244","52.54145","13.43118","Ella-Kay-Str. 47","10405","12"
"03G09","Pankow","245","52.54663","13.41479","Greifenhagener Str. 58-59","10437","12"
"03G10","Pankow","246","52.61492","13.49606","Bedeweg 1","13125","12"
"03G11","Pankow","247","52.54749","13.40538","Gleimstr. 49","10437","12"
"03G12","Pankow","248","52.54129","13.44553","Pieskower Weg 39","10409","12"
"03G13","Pankow","249","52.59125","13.37612","Kastanienallee 59","13158","12"
"03G14","Pankow","250","52.55572","13.40768","Ibsenstr. 17","10439","12"
"03G15","Pankow","251","52.53452","13.41187","Schönhauser Allee 165","10435","12"
"03S01","Pankow","251","52.53452","13.41187","Schönhauser Allee 165","10435","12"
"03G16","Pankow","252","52.53921","13.41918","Danziger Str. 50","10435","12"
"03G45","Pankow","252","52.53921","13.41918","Danziger Str. 50","10435","12"
"03G17","Pankow","253","52.5551735","13.4575347","Amalienstr. 6","13086","12"
"03G18","Pankow","254","52.5475433","13.461798","Gounodstr. 71","13088","12"
"03G20","Pankow","255","52.5590284","13.4754544","Brodenbacher Weg 31","13088","12"
"03G21","Pankow","256","52.5922623","13.4544218","Alt-Blankenburg 26","13129","12"
"03G22","Pankow","257","52.56546","13.43664","Berliner Str. 66","13089","12"
"12E06","Pankow","257","52.56546","13.43664","Berliner Str. 66","13089","12"
"12P13","Pankow","257","52.56546","13.43664","Berliner Str. 66","13089","12"
"03G23","Pankow","258","52.6096823","13.4797428","Bahnhofstr. 32","13125","12"
"03G24","Pankow","259","52.6198598","13.4867292","Achillesstr. 31","13125","12"
"03G25","Pankow","260","52.55101","13.42173","Scherenbergstr. 7","10439","12"
"03G26","Pankow","261","52.5686808","13.4000248","Wollankstr. 131","13187","12"
"03G27","Pankow","262","52.56831","13.41044","Grunowstr. 17","13187","12"
"03G28","Pankow","263","52.5908898","13.4105767","Charlottenstr. 19","13156","12"
"03G29","Pankow","264","52.6373595","13.4914197","Wiltbergstr. 37-39","13125","12"
"03G32","Pankow","265","52.5805356","13.3949068","Wilhelm-Wolff-Str. 19","13156","12"
"03G33","Pankow","266","52.60417","13.43415","Hauptstr. 66","13127","12"
"07P11","Pankow","266","52.60417","13.43415","Hauptstr. 66","13127","12"
"03G34","Pankow","267","52.5734776","13.4163253","Stiftsweg 3","13187","12"
"03G35","Pankow","268","52.6182582","13.3895489","Hauptstr. 20","13159","12"
"03G36","Pankow","269","52.58294","13.41741","Lindenberger Str. 12","13156","12"
"03G37","Pankow","270","52.55989","13.40756","Brixener Str. 40","13187","12"
"03G38","Pankow","271","52.535141","13.4580741","Syringenplatz 30","10407","12"
"03G39","Pankow","272","52.56527","13.42024","Neumannstr. 65","13189","12"
"03G40","Pankow","273","52.60791","13.42388","Arnouxstr. 18","13127","12"
"03S06","Pankow","273","52.60791","13.42388","Arnouxstr. 18","13127","12"
"03G41","Pankow","274","52.5560121","13.4218178","Eschengraben 40","13189","12"
"03G43","Pankow","275","52.5903","13.36421","Lessingstr. 44","13158","12"
"03G44","Pankow","276","52.55219","13.47502","Sulzfelder Str. 15","13088","12"
"03G46","Pankow","277","52.5407861","13.4227344","Senefelderstr. 6","10437","12"
"03G47","Pankow","278","52.57805","13.41782","Mendelstr. 54","13187","12"
"03S09","Pankow","278","52.57805","13.41782","Mendelstr. 54","13187","12"
"03K01","Pankow","279","52.5314","13.42807","Greifswalder Str. 25","10405","12"
"03K02","Pankow","280","52.55812","13.42333","Neumannstr. 9-11","13189","12"
"03K03","Pankow","281","52.58183","13.41744","Rolandstr. 35","13156","12"
"03K05","Pankow","282","52.5511917","13.4418078","Langhansstr. 120","13086","12"
"03K06","Pankow","283","52.56838","13.40303","Neue Schönholzer Str. 32","13187","12"
"03K07","Pankow","284","52.5290862","13.4460613","Rudi-Arndt-Str. 18","10407","12"
"03K08","Pankow","285","52.55879","13.44729","Gustav-Adolf-Str. 60","13086","12"
"03K09","Pankow","286","52.5630241","13.4076108","Dolomitenstr. 94","13187","12"
"03K10","Pankow","287",,,"Walter-Friedrich-Str. 18","13125","12"
"03K11","Pankow","288","52.54862","13.42345","Gudvanger Str. 16","10439","12"
"03P02","Pankow","289","52.55472","13.43075","Langhansstr. 74B","13086","12"
"03P03","Pankow","290","52.5352904","13.4281656","Christburger Str. 14","10405","12"
"03P04","Pankow","291","52.5530802","13.4569","Parkstr. 22","13086","12"
"03P08","Pankow","292","52.5306589","13.4270419","Greifswalder Str. 18","10405","12"
"03P10","Pankow","293","52.5505386","13.4464768","Behaimstr. 29","13086","12"
"03P11","Pankow","294","52.5522337","13.45935","Albertinenstr. 20","13086","12"
"03P12","Pankow","295","52.58035","13.42252","Galenusstr. 60a","13187","12"
"03P13","Pankow","296","52.57624","13.39997","Boris-Pasternak-Weg 9","13156","12"
"03P14","Pankow","297","52.55343","13.40967","Schönfließer Str. 7","10439","12"
"03P34","Pankow","297","52.55343","13.40967","Schönfließer Str. 7","10439","12"
"03P15","Pankow","298","52.5354501","13.4541181","Storkower Str. 115A","10407","12"
"03P31","Pankow","298","52.5354501","13.4541181","Storkower Str. 115A","10407","12"
"03P17","Pankow","299","52.63594","13.5062","Schwanebecker Chaussee 4","13125","12"
"03P18","Pankow","300","52.5481223","13.4555044","Bizetstr. 064 ","13088","12"
"03P20","Pankow","301","52.5685685","13.4130788","Hadlichstr. 44","13187","12"
"03P21","Pankow","302","52.5684125","13.4134578","Hadlichstr. 2","13187","12"
"03P22","Pankow","303","52.562","13.42301","Neumannstr. 13B","13189","12"
"03P23","Pankow","304","52.618605","13.3905657","Hauptstr. 24-26","13159","12"
"03P24","Pankow","305","52.56186","13.4136","Berliner Str. 100","13189","12"
"03P26","Pankow","306","52.53503","13.41897","Rykestr. 53","10405","12"
"03P27","Pankow","307","52.5647009","13.4154003","Arkonastr. 45","13189","12"
"03P28","Pankow","308","52.5686855","13.4114294","Berliner Str. 12","13187","12"
"03P29","Pankow","309",,,"Storkower Str. 139B","10407","12"
"03P30","Pankow","310","52.5444649","13.4542326","Gürtelstr. 16","10409","12"
"03P32","Pankow","311","52.6385588","13.4904362","Wiltbergstr. 50","13125","12"
"03P33","Pankow","311","52.6385588","13.4904362","Wiltbergstr. 50","13125","12"
"03S03","Pankow","312","52.5267","13.42002","Mendelssohnstr. 10","10405","12"
"03S07","Pankow","313","52.5780967","13.3944715","Hermann-Hesse-Str. 48-52","13156","12"
"03S08","Pankow","314","52.57877","13.41699","Galenusstr. 64","13187","12"
"03S10","Pankow","315","52.62953","13.49149","Ernst-Busch-Str. 29","13125","12"
"03Y03","Pankow","316","52.5458","13.42271","Dunckerstr. 65-66","10439","12"
"03Y04","Pankow","317","52.54663","13.42365","Dunckerstr. 64","10439","12"
"03Y08","Pankow","318","52.5664285","13.40007","Görschstr. 42-44","13187","12"
"03Y10","Pankow","319","52.56669","13.41948","Kissingenstr. 12","13189","12"
"03Y13","Pankow","320","52.5370873","13.4378571","Eugen-Schönhaar-Str. 18","10407","12"
"03Y14","Pankow","321","52.5516","13.45369","Pistoriusstr. 133","13086","12"
"03Y15","Pankow","322","52.5838268","13.4021428","Kuckhoffstr. 2-22","13156","12"
"03Y16","Pankow","323","52.6153928","13.4942178","Achillesstr. 79","13125","12"
"04A01","Charlottenburg-Wilmersdorf","324","52.517122","13.30807","Otto-Suhr-Allee 100","10585","13"
"04A02","Charlottenburg-Wilmersdorf","324","52.517122","13.30807","Otto-Suhr-Allee 100","10585","13"
"04A03","Charlottenburg-Wilmersdorf","324","52.517122","13.30807","Otto-Suhr-Allee 100","10585","13"
"04A07","Charlottenburg-Wilmersdorf","324","52.517122","13.30807","Otto-Suhr-Allee 100","10585","13"
"04A09","Charlottenburg-Wilmersdorf","324","52.517122","13.30807","Otto-Suhr-Allee 100","10585","13"
"04A04","Charlottenburg-Wilmersdorf","325","52.50852","13.30336","Pestalozzistr. 40-41","10627","13"
"04A06","Charlottenburg-Wilmersdorf","326","52.48439","13.31955","Blissestr. 22","10713","13"
"04Y07","Charlottenburg-Wilmersdorf","326","52.48439","13.31955","Blissestr. 22","10713","13"
"04A08","Charlottenburg-Wilmersdorf","327","52.53836","13.28821","Halemweg 24","13627","13"
"04B01","Charlottenburg-Wilmersdorf","328","52.51718","13.31306","Loschmidtstr. 19","10587","13"
"04B02","Charlottenburg-Wilmersdorf","329","52.5116083","13.2913167","Danckelmannstr. 26-28","14059","13"
"04B03","Charlottenburg-Wilmersdorf","330","52.51682","13.30187","Gierkeplatz 1-3","10585","13"
"04B04","Charlottenburg-Wilmersdorf","331","52.51244","13.31317","Bismarckstr. 20","10625","13"
"04B05","Charlottenburg-Wilmersdorf","332","52.53785","13.28699","Halemweg 22","13627","13"
"04B06","Charlottenburg-Wilmersdorf","333","52.4837512","13.3329902","Prinzregentenstr. 32","10715","13"
"04B07","Charlottenburg-Wilmersdorf","334","52.51087","13.31882","Schillerstr. 121","10625","13"
"04B08","Charlottenburg-Wilmersdorf","335","52.48169","13.3332","Prinzregentenstr. 60","10715","13"
"04E01","Charlottenburg-Wilmersdorf","336","52.50752","13.31647","Pestalozzistr. 97","10625","13"
"04E02","Charlottenburg-Wilmersdorf","337","52.51121","13.30518","Wilmersdorfer Str. 39","10627","13"
"04P07","Charlottenburg-Wilmersdorf","337","52.51121","13.30518","Wilmersdorfer Str. 39","10627","13"
"04E03","Charlottenburg-Wilmersdorf","338","52.5064144","13.3333737","Hardenbergplatz 2","10623","13"
"04E04","Charlottenburg-Wilmersdorf","339","52.50388","13.30782","Wilmersdorfer Str. 102","10629","13"
"04E05","Charlottenburg-Wilmersdorf","340","52.50551","13.31972","Bleibtreustr. 6","10623","13"
"04E07","Charlottenburg-Wilmersdorf","341","52.5037228","13.3302486","Kurfürstendamm 21","10719","13"
"04E09","Charlottenburg-Wilmersdorf","342","52.5034576","13.3084205","Mommsenstr. 45","10629","13"
"04E10","Charlottenburg-Wilmersdorf","343","52.50184","13.30543","Waitzstr. 7","10629","13"
"04E12","Charlottenburg-Wilmersdorf","344","52.5172","13.30944","Otto-Suhr-Allee 94","10585","13"
"04E13","Charlottenburg-Wilmersdorf","345","52.50186","13.32312","Kurfürstendamm 207-208","10719","13"
"04E14","Charlottenburg-Wilmersdorf","346","52.48799","13.33217","Berliner Str. 9","10715","13"
"04E15","Charlottenburg-Wilmersdorf","347","52.50529","13.32785","Fasanenstr. 81","10623","13"
"04P20","Charlottenburg-Wilmersdorf","347","52.50529","13.32785","Fasanenstr. 81","10623","13"
"04E17","Charlottenburg-Wilmersdorf","348","52.49988","13.31835","Lietzenburger Str. 102","10707","13"
"04E20","Charlottenburg-Wilmersdorf","349","52.48847","13.31779","Gieselerstr. 30A","10713","13"
"04E21","Charlottenburg-Wilmersdorf","350","52.4969812","13.2998924","Nestorstr. 7","10709","13"
"04E22","Charlottenburg-Wilmersdorf","351","52.48296","13.28064","Hubertusallee 73","14193","13"
"04E24","Charlottenburg-Wilmersdorf","352","52.49993","13.2961","Joachim-Friedrich-Str. 35-36","10711","13"
"04G21","Charlottenburg-Wilmersdorf","352","52.49993","13.2961","Joachim-Friedrich-Str. 35-36","10711","13"
"04E25","Charlottenburg-Wilmersdorf","353","52.4801727","13.3244616","Weimarische Str. 21-25","10715","13"
"04E27","Charlottenburg-Wilmersdorf","354","52.5183281","13.3224946","Salzufer 13-14","10587","13"
"04E28","Charlottenburg-Wilmersdorf","355","52.50591","13.29872","Windscheidstr. 18","10627","13"
"04E30","Charlottenburg-Wilmersdorf","356","52.4857593","13.323079","Wilhelmsaue 22","10715","13"
"04E31","Charlottenburg-Wilmersdorf","357","52.5215195","13.3253","Helmholtzstr. 2 -9","10587","13"
"04E32","Charlottenburg-Wilmersdorf","358","52.5089187","13.2369288","Dickensweg 17-19","14055","13"
"04E33","Charlottenburg-Wilmersdorf","359","52.4874","13.3287","Landhausstr. 26-28","10717","13"
"04E34","Charlottenburg-Wilmersdorf","360","52.51921","13.28073","Fürstenbrunner Weg 6","14059","13"
"04E36","Charlottenburg-Wilmersdorf","361","52.48725","13.29835","Hohenzollerndamm 53","14199","13"
"04E38","Charlottenburg-Wilmersdorf","362","52.49989","13.30885","Kurfürstendamm 170 ","10707","13"
"04E40","Charlottenburg-Wilmersdorf","363","52.52021","13.32865","Franklinstr. 10","10587","13"
"04E41","Charlottenburg-Wilmersdorf","364","52.48688","13.31644","Berliner Str. 53","10713","13"
"04E42","Charlottenburg-Wilmersdorf","365","52.50695","13.31494","Leibnizstr. 33","10625","13"
"04E43","Charlottenburg-Wilmersdorf","366","52.503325","13.3035333","Dahlmannstr. 1A","10629","13"
"04E44","Charlottenburg-Wilmersdorf","367","52.50989","13.26533","Württembergallee 31","14052","13"
"04E45","Charlottenburg-Wilmersdorf","368","52.50172","13.33054","Joachimstaler Str. 17","10719","13"
"04E46","Charlottenburg-Wilmersdorf","369","52.52349","13.308","Treseburger Str. 2","10589","13"
"04E47","Charlottenburg-Wilmersdorf","370","52.5119","13.30605","Bismarckstr. 42-43","10627","13"
"04E48","Charlottenburg-Wilmersdorf","371",,,"Wittelsbacherstr. 16","10707","13"
"04E50","Charlottenburg-Wilmersdorf","372","52.4934","13.32964","Trautenaustr. 5","10717","13"
"04E51","Charlottenburg-Wilmersdorf","373","52.50963","13.30602","Wilmersdorfer Str. 126/127","10627","13"
"04E52","Charlottenburg-Wilmersdorf","373","52.50963","13.30602","Wilmersdorfer Str. 126/127","10627","13"
"04G01","Charlottenburg-Wilmersdorf","374","52.50921","13.31305","Goethestr. 19","10625","13"
"04G02","Charlottenburg-Wilmersdorf","375","52.5094","13.29502","Witzlebenstr. 34","14057","13"
"04G04","Charlottenburg-Wilmersdorf","376","52.50357","13.32014","Bleibtreustr. 43","10623","13"
"04G05","Charlottenburg-Wilmersdorf","377","52.5212469","13.2611029","Spandauer Damm 205-215","14050","13"
"04G06","Charlottenburg-Wilmersdorf","378","52.50259","13.259","Waldschulallee 83-93","14055","13"
"04G07","Charlottenburg-Wilmersdorf","379","52.5150431","13.3151225","Cauerstr. 36-38","10587","13"
"04G08","Charlottenburg-Wilmersdorf","380","52.52631","13.30644","Mierendorffstr. 20-24","10589","13"
"04G09","Charlottenburg-Wilmersdorf","381","52.53967","13.2873","Halemweg 34","13627","13"
"04G11","Charlottenburg-Wilmersdorf","382","52.53903","13.30104","Heckerdamm 221","13627","13"
"04G12","Charlottenburg-Wilmersdorf","383","52.51782","13.29876","Nithackstr. 8","10585","13"
"04G13","Charlottenburg-Wilmersdorf","384","52.514893","13.2938654","Nehringstr. 9-10","14059","13"
"04G14","Charlottenburg-Wilmersdorf","385","52.513329","13.2683992","Leistikowstr. 7-8","14050","13"
"04G15","Charlottenburg-Wilmersdorf","386","52.5089456","13.2369711","Dickensweg 15","14055","13"
"04G17","Charlottenburg-Wilmersdorf","387","52.49541","13.31942","Emser Str. 50","10719","13"
"04G18","Charlottenburg-Wilmersdorf","388","52.4821277","13.335271","Babelsberger Str. 24-25","10715","13"
"04G19","Charlottenburg-Wilmersdorf","389","52.47113","13.31312","Rüdesheimer Str. 24-30","14197","13"
"04G20","Charlottenburg-Wilmersdorf","390","52.494","13.30619","Münstersche Str. 15-17","10709","13"
"04G22","Charlottenburg-Wilmersdorf","391","52.4845252","13.2810941","Delbrückstr. 20A","14193","13"
"04G23","Charlottenburg-Wilmersdorf","392","52.4770849","13.2934322","Reichenhaller Str. 8","14199","13"
"04G24","Charlottenburg-Wilmersdorf","393","52.47841","13.28709","Berkaer Str. 9-10","14199","13"
"04G25","Charlottenburg-Wilmersdorf","394","52.49331","13.32769","Nikolsburger Platz 5","10717","13"
"04G26","Charlottenburg-Wilmersdorf","395","52.4807258","13.3218928","Koblenzer Str. 22-24","10715","13"
"04G27","Charlottenburg-Wilmersdorf","396","52.475327","13.2950561","Friedrichshaller Str. 13","14199","13"
"04K02","Charlottenburg-Wilmersdorf","397","52.50908","13.32082","Goethestr. 8-9","10623","13"
"04K03","Charlottenburg-Wilmersdorf","398","52.49448","13.31872","Sächsische Str. 58","10707","13"
"04K04","Charlottenburg-Wilmersdorf","399","52.49373","13.3216","Pfalzburger Str. 23","10719","13"
"04K05","Charlottenburg-Wilmersdorf","400","52.50227","13.30194","Sybelstr. 20-21","10629","13"
"04K06","Charlottenburg-Wilmersdorf","401","52.5161","13.29812","Schloßstr. 55A","14059","13"
"04K07","Charlottenburg-Wilmersdorf","402","52.4926297","13.304921","Eisenzahnstr. 47-48","10709","13"
"04K08","Charlottenburg-Wilmersdorf","403","52.5052412","13.290548","Kuno-Fischer-Str. 22-26","14057","13"
"04P01","Charlottenburg-Wilmersdorf","404","52.5112258","13.2530212","Insterburgallee 8-10","14055","13"
"04P02","Charlottenburg-Wilmersdorf","405","52.51602","13.25603","Olympische Str. 23","14052","13"
"04P03","Charlottenburg-Wilmersdorf","406","52.50209","13.25939","Waldschulallee 73","14055","13"
"04P04","Charlottenburg-Wilmersdorf","407","52.51128","13.27507","Ahornallee 33","14050","13"
"04P05","Charlottenburg-Wilmersdorf","408","52.51771","13.31551","Guerickestr. 4-6","10587","13"
"04P08","Charlottenburg-Wilmersdorf","409","52.51606","13.30544","Haubachstr. 8","10585","13"
"04P09","Charlottenburg-Wilmersdorf","409","52.51606","13.30544","Haubachstr. 8","10585","13"
"04P10","Charlottenburg-Wilmersdorf","410","52.49619","13.32118","Düsseldorfer Str. 13","10719","13"
"04P11","Charlottenburg-Wilmersdorf","411","52.4859","13.2928","Salzbrunner Str. 41","14193","13"
"04P12","Charlottenburg-Wilmersdorf","412","52.48936","13.30472","Eisenzahnstr. 37","10709","13"
"04P15","Charlottenburg-Wilmersdorf","413","52.52445","13.30899","Nordhauser Str. 30","10589","13"
"04P18","Charlottenburg-Wilmersdorf","414","52.48922","13.32985","Bundesallee 35","10717","13"
"04P21","Charlottenburg-Wilmersdorf","415","52.48889","13.33148","Bundesallee 184-185","10717","13"
"04P22","Charlottenburg-Wilmersdorf","416","52.5187","13.311","Alt-Lietzow 31","10587","13"
"04P23","Charlottenburg-Wilmersdorf","417","52.52466","13.258","Spandauer Damm 220","14052","13"
"04P24","Charlottenburg-Wilmersdorf","418","52.5095204","13.2633757","Badenallee 31-32","14052","13"
"04P25","Charlottenburg-Wilmersdorf","419","52.4965514","13.3297731","Meierottostr. 8-9","10719","13"
"04P27","Charlottenburg-Wilmersdorf","420","52.51861","13.27976","Spandauer Damm 130 ","14050","13"
"04P34","Charlottenburg-Wilmersdorf","421","52.49673","13.29524","Joachim-Friedrich-Str. 48","10711","13"
"04P35","Charlottenburg-Wilmersdorf","422","52.4715","13.30755","Schlangenbader Str.31","14197","13"
"04P36","Charlottenburg-Wilmersdorf","423","52.5223997","13.3236117","Hallerstr. 3-6","10587","13"
"04P37","Charlottenburg-Wilmersdorf","424","52.50963","13.30602","Wilmersdorfer Str. 126-127","10627","13"
"04S01","Charlottenburg-Wilmersdorf","425",,,"Nehringstr. 9","14059","13"
"04S02","Charlottenburg-Wilmersdorf","426","52.51489","13.30717","Richard-Wagner-Str. 30","10585","13"
"04S03","Charlottenburg-Wilmersdorf","427","52.49773","13.2649","Waldschulallee 31","14055","13"
"04S04","Charlottenburg-Wilmersdorf","428","52.49693","13.26373","Maikäferpfad 30","14055","13"
"04S05","Charlottenburg-Wilmersdorf","429","52.4989","13.26508","Waldschulallee 29","14055","13"
"04S06","Charlottenburg-Wilmersdorf","430","52.48448","13.31606","Mannheimer Str. 21-22","10713","13"
"04S07","Charlottenburg-Wilmersdorf","431","52.48869","13.3181","Gieselerstr. 4","10713","13"
"04Y01","Charlottenburg-Wilmersdorf","432","52.51098","13.32182","Schillerstr. 125-127","10625","13"
"04Y02","Charlottenburg-Wilmersdorf","433","52.50343","13.25701","Waldschulallee 95","14055","13"
"04Y03","Charlottenburg-Wilmersdorf","434","52.5023","13.31237","Sybelstr. 2","10629","13"
"04Y04","Charlottenburg-Wilmersdorf","435","52.52888","13.3022","Olbersstr. 38","10589","13"
"04Y05","Charlottenburg-Wilmersdorf","436","52.5106633","13.2579324","Westendallee 45-46","14052","13"
"04Y06","Charlottenburg-Wilmersdorf","437","52.51103","13.26722","Bayernallee 4","14052","13"
"04Y08","Charlottenburg-Wilmersdorf","438","52.4851157","13.2759307","Lassenstr. 16-20","14193","13"
"04Y09","Charlottenburg-Wilmersdorf","439","52.49143","13.28135","Herbertstr. 2-6","14193","13"
"04Y10","Charlottenburg-Wilmersdorf","440","52.4801727","13.3244616","Weimarische Str. 21","10715","13"
"04Y11","Charlottenburg-Wilmersdorf","441","52.48759","13.3225","Gasteiner Str. 23","10717","13"
"05A01","Spandau","442","52.5457431","13.1748128","Remscheider Str. 3/7","13583","14"
"05A02","Spandau","442","52.5457431","13.1748128","Remscheider Str. 3/7","13583","14"
"05A04","Spandau","442","52.5457431","13.1748128","Remscheider Str. 3/7","13583","14"
"05A03","Spandau","443","52.538131","13.2017902","Moritzstr. 17","13597","14"
"05B01","Spandau","444","52.54416","13.23008","Goldbeckweg 8-14","13599","14"
"05B02","Spandau","445","52.53943","13.2418","Nonnendammallee 140-143","13599","14"
"05E01","Spandau","446","52.52309","13.191","Wilhelmstr. 15","13595","14"
"05E02","Spandau","447","52.46338","13.16419","Kladower Damm 221","14089","14"
"05E03","Spandau","448","52.567834","13.191662","Schönwalder Allee 26","13587","14"
"05P03","Spandau","448","52.567834","13.191662","Schönwalder Allee 26","13587","14"
"05P04","Spandau","448","52.567834","13.191662","Schönwalder Allee 26","13587","14"
"05G01","Spandau","449","52.5304","13.20672","Grunewaldstr. 8","13597","14"
"05G02","Spandau","450","52.5584233","13.1991462","Gaismannshofer Weg 2","13587","14"
"05G03","Spandau","451","52.54863","13.19756","Hügelschanze 8-9","13585","14"
"05G04","Spandau","452","52.53861","13.17968","Seegefelder Str. 125","13583","14"
"05G05","Spandau","453","52.5199186","13.1932756","Földerichplatz 5","13595","14"
"05G06","Spandau","454","52.5510968","13.1779174","Westerwaldstr. 19-21","13589","14"
"05G07","Spandau","455","52.54766","13.20683","Lutherstr. 19-20","13585","14"
"05G08","Spandau","456","52.53018","13.19202","Elsflether Weg 26","13581","14"
"05G09","Spandau","457","52.5490985","13.1933997","Askanierring 42","13585","14"
"05S01","Spandau","457","52.5490985","13.1933997","Askanierring 42","13585","14"
"05G10","Spandau","458","52.52596","13.1805185","Seeburger Str. 59","13581","14"
"05G11","Spandau","459","52.54065","13.27277","Jungfernheideweg 33-48","13629","14"
"05G12","Spandau","460","52.50825","13.1742","Daberkowstr. 27","13593","14"
"05G13","Spandau","461","52.54494","13.2325","Daumstr. 12","13599","14"
"05G14","Spandau","462","52.53517","13.14081","Staakener Feldstr. 6-8","13591","14"
"05G15","Spandau","463","52.54049","13.19242","Borkzeile 34","13583","14"
"05G16","Spandau","464","52.5409","13.14635","Heidebergplan 3-4","13591","14"
"05G17","Spandau","465","52.5311","13.15652","Südekumzeile 5","13591","14"
"05G18","Spandau","466","52.5490388","13.1565299","Im Spektefeld 31","13589","14"
"05G19","Spandau","467","52.4552389","13.1383574","Schallweg 31","14089","14"
"05G20","Spandau","468","52.56751","13.1990605","Hakenfelder Str. 32","13587","14"
"05G21","Spandau","469","52.521","13.19029","Adamstr. 24-25","13595","14"
"05S02","Spandau","469","52.521","13.19029","Adamstr. 24-25","13595","14"
"05G22","Spandau","470","52.5227","13.16816","Räcknitzer Steig 12","13593","14"
"05G23","Spandau","471","52.53595","13.15293","Spandauer Str. 86","13591","14"
"05G24","Spandau","472","52.48547","13.17431","Am Kinderdorf 23-37","14089","14"
"05G25","Spandau","473","52.55625","13.16467","Pionierstr. 197","13589","14"
"05S04","Spandau","473","52.55625","13.16467","Pionierstr. 197","13589","14"
"05G26","Spandau","474","52.51289","13.1667","Weinmeisterhornweg 122","13593","14"
"05G27","Spandau","475","52.5438932","13.1996","Flankenschanze 20","13585","14"
"05G28","Spandau","476","52.544051","13.2283811","Grützmacherweg 7","13599","14"
"05G29","Spandau","477","52.472209","13.1274264","Am Flugplatz Gatow 20","14089","14"
"05K01","Spandau","478","52.54895","13.1565","Im Spektefeld 33","13589","14"
"05K02","Spandau","479","52.5259","13.17464","Lutoner Str. 15-19","13581","14"
"05K03","Spandau","480","52.5253081","13.1926918","Wilhelmstr. 10","13595","14"
"05K04","Spandau","481","52.5651662","13.1990333","Am Forstacker 9-11","13587","14"
"05K05","Spandau","482","52.5469","13.17403","Recklinghauser Weg 26-32","13583","14"
"05K06","Spandau","483","52.54571","13.1967","Blumenstr. 13","13585","14"
"05K07","Spandau","484","52.53843","13.26697","Lenther Steig 1-3","13629","14"
"05K08","Spandau","485","52.51098","13.18567","Jaczostr. 53-67","13595","14"
"05K09","Spandau","486","52.5349","13.13491","Brunsbütteler Damm 431-437","13591","14"
"05P01","Spandau","487","52.4597604","13.154198","Neukladower Allee 1","14089","14"
"05P02","Spandau","488","52.54414","13.19216","Hohenzollernring 156-159","13585","14"
"05P05","Spandau","489","52.4533748","13.1191131","Krampnitzer Weg 83-87","14089","14"
"05P06","Spandau","490","52.53759","13.26061","Nonnendammallee 104","13629","14"
"05P08","Spandau","490","52.53759","13.26061","Nonnendammallee 104","13629","14"
"05P10","Spandau","491","52.567834","13.191662","Schönwalder Allee 26-46","13587","14"
"05P13","Spandau","492","52.5187165","13.1831064","Wilhelmstr. 25-30","13593","14"
"05P20","Spandau","492","52.5187165","13.1831064","Wilhelmstr. 25-30","13593","14"
"05P15","Spandau","493","52.55","13.15247","Stadtrandstr. 465","13589","14"
"05P16","Spandau","494","52.5331537","13.2689788","Wohlrabedamm 8","13629","14"
"05P17","Spandau","495","52.53046","13.21434","Pichelswerderstr. 9","13597","14"
"05P18","Spandau","496","52.52737","13.18859","Seecktstr. 2","13581","14"
"05P19","Spandau","497","52.51719","13.1763","Heerstr. 463 ","13593","14"
"05S03","Spandau","498","52.54326","13.24254","Gartenfelder Str. 81","13599","14"
"05Y01","Spandau","499","52.5407884","13.2001433","Galenstr. 40-44","13597","14"
"05Y02","Spandau","500","52.54286","13.20115","Bismarckstr. 54","13585","14"
"05Y03","Spandau","501","52.47244","13.13028","Am Landschaftspark Gatow 40","14089","14"
"05Y04","Spandau","502","52.54559","13.26983","Jungfernheideweg 79","13629","14"
"05Y05","Spandau","503","52.5385673","13.1990294","Münsingerstr. 2","13597","14"
"06A01","Steglitz-Zehlendorf","504","52.4446","13.24675","Hartmannsweilerweg 65","14163","15"
"06A02","Steglitz-Zehlendorf","505","52.42476","13.34742","Gallwitzallee 116","12249","15"
"06A03","Steglitz-Zehlendorf","505","52.42476","13.34742","Gallwitzallee 116","12249","15"
"06A08","Steglitz-Zehlendorf","505","52.42476","13.34742","Gallwitzallee 116","12249","15"
"06A04","Steglitz-Zehlendorf","506","52.4533","13.34514","Immenweg 6","12169","15"
"06A06","Steglitz-Zehlendorf","506","52.4533","13.34514","Immenweg 6","12169","15"
"06A07","Steglitz-Zehlendorf","506","52.4533","13.34514","Immenweg 6","12169","15"
"06A09","Steglitz-Zehlendorf","506","52.4533","13.34514","Immenweg 6","12169","15"
"06B04","Steglitz-Zehlendorf","506","52.4533","13.34514","Immenweg 6","12169","15"
"06A05","Steglitz-Zehlendorf","507","52.42925","13.31652","Goethestr. 9-11","12207","15"
"06B01","Steglitz-Zehlendorf","508","52.441813","13.248755","Hartmannsweilerweg 29","14163","15"
"06B02","Steglitz-Zehlendorf","509","52.41127","13.30571","Lippstädter Str. 9-11","12207","15"
"06B03","Steglitz-Zehlendorf","510","52.43032","13.31715","Ostpreußendamm 40","12207","15"
"06E01","Steglitz-Zehlendorf","511","52.44061","13.23796","Argentinische Allee 23","14163","15"
"06E02","Steglitz-Zehlendorf","512","52.4306","13.3098","Goerzallee 5","12207","15"
"06E05","Steglitz-Zehlendorf","513","52.455083","13.3206629","Kuhligkshofstr. 4","12165","15"
"06P14","Steglitz-Zehlendorf","513","52.455083","13.3206629","Kuhligkshofstr. 4","12165","15"
"06E07","Steglitz-Zehlendorf","514","52.44312","13.29709","Drakestr. 33","12205","15"
"06E08","Steglitz-Zehlendorf","515","52.4222284","13.3360638","Zerbster Str. 9","12209","15"
"06E13","Steglitz-Zehlendorf","516","52.4144103","13.1465939","Charlottenstr. 10","14109","15"
"06E14","Steglitz-Zehlendorf","517","52.46335","13.31587","Forststr. 44","12163","15"
"06G01","Steglitz-Zehlendorf","518","52.4359505","13.2555804","Potsdamer Str. 7","14163","15"
"06G02","Steglitz-Zehlendorf","519","52.4189","13.25839","Claszeile 56","14165","15"
"06G03","Steglitz-Zehlendorf","520","52.43162","13.21262","Wasgenstr. 50","14129","15"
"06G04","Steglitz-Zehlendorf","521","52.4581405","13.2831987","Bachstelzenweg 2-8","14195","15"
"06G05","Steglitz-Zehlendorf","522","52.4151806","13.1466952","Schulstr. 4","14109","15"
"06G06","Steglitz-Zehlendorf","523","52.4432055","13.2760022","Molsheimer Str. 7","14195","15"
"06G07","Steglitz-Zehlendorf","524","52.44543","13.246529","Wilskistr. 78","14163","15"
"06G08","Steglitz-Zehlendorf","525","52.42278","13.26571","Leo-Baeck-Str. 28-30","14167","15"
"06G09","Steglitz-Zehlendorf","526","52.4205","13.18369","Dreilindenstr. 65","14109","15"
"06G10","Steglitz-Zehlendorf","527","52.42255","13.24295","Ludwigsfelder Str. 43-47","14165","15"
"06G11","Steglitz-Zehlendorf","528","52.4257528","13.2252765","Am Rohrgarten 9","14163","15"
"06G12","Steglitz-Zehlendorf","529","52.4551","13.26995","Hüttenweg 40","14195","15"
"06S02","Steglitz-Zehlendorf","529","52.4551","13.26995","Hüttenweg 40","14195","15"
"06G14","Steglitz-Zehlendorf","530","52.46151","13.3354","Sachsenwaldstr. 20-21","12157","15"
"06G15","Steglitz-Zehlendorf","531","52.46486","13.31818","Gritznerstr. 19-23","12163","15"
"06G16","Steglitz-Zehlendorf","532","52.45398","13.31302","Rothenburgstr. 18","12165","15"
"06Y09","Steglitz-Zehlendorf","532","52.45398","13.31302","Rothenburgstr. 18","12165","15"
"06G17","Steglitz-Zehlendorf","533","52.4517754","13.3496046","Hanstedter Weg 11-15","12169","15"
"06G18","Steglitz-Zehlendorf","534","52.4406259","13.2905281","Curtiusstr. 37","12205","15"
"06G20","Steglitz-Zehlendorf","535","52.4370227","13.3510956","Schulstr. 17-21","12247","15"
"06G21","Steglitz-Zehlendorf","536","52.431002","13.341243","Seydlitzstr. 30-34","12249","15"
"06G22","Steglitz-Zehlendorf","537","52.42226","13.31102","Ostpreußendamm 63","12207","15"
"06G23","Steglitz-Zehlendorf","538","52.4416699","13.3130976","Moltkestr. 24-26","12203","15"
"06G24","Steglitz-Zehlendorf","539","52.42546","13.32527","Kastanienstr. 6 -8","12209","15"
"06G25","Steglitz-Zehlendorf","540","52.4335107","13.29316","Kommandantenstr. 83-84","12205","15"
"06G26","Steglitz-Zehlendorf","541","52.4381858","13.3101376","Tietzenweg 108","12203","15"
"06G27","Steglitz-Zehlendorf","542","52.42303","13.34815","Gallwitzallee 136-144","12249","15"
"06G28","Steglitz-Zehlendorf","543","52.43255","13.36236","Halbauer Weg 25","12249","15"
"06G29","Steglitz-Zehlendorf","544","52.4174006","13.3339824","Hildburghauser Str. 135","12209","15"
"06G30","Steglitz-Zehlendorf","545","52.4122498","13.3173756","Mercatorweg 8-10","12207","15"
"06G31","Steglitz-Zehlendorf","546","52.4477826","13.3188377","Haydnstr. 15","12203","15"
"06K01","Steglitz-Zehlendorf","548","52.42589","13.26273","Teltower Damm 87-93","14167","15"
"06K02","Steglitz-Zehlendorf","549","52.45479","13.26097","Am Hegewinkel 2A","14169","15"
"06K03","Steglitz-Zehlendorf","550","52.463848","13.3200702","Lepsiusstr. 24-28","12163","15"
"06K04","Steglitz-Zehlendorf","551","52.42889","13.3466","Dessauerstr. 63","12249","15"
"06K06","Steglitz-Zehlendorf","552","52.4387935","13.3098241","Tietzenweg 101","12203","15"
"06K08","Steglitz-Zehlendorf","553","52.4372496","13.3056278","Dürerstr. 27","12203","15"
"06K09","Steglitz-Zehlendorf","554",,,"Im Gehege 6","14195","15"
"06K10","Steglitz-Zehlendorf","555","52.4528","13.33586","Lauenburger Str. 110 ","12169","15"
"06P01","Steglitz-Zehlendorf","556","52.4347715","13.2645829","Kleinaustr. 4","14169","15"
"06P02","Steglitz-Zehlendorf","557","52.4378736","13.2283083","Salzachstr. 4","14163","15"
"06P04","Steglitz-Zehlendorf","558","52.4559693","13.2741315","Auf dem Grat 3","14195","15"
"06P05","Steglitz-Zehlendorf","559","52.41847","13.25739","Claszeile 60","14165","15"
"06P06","Steglitz-Zehlendorf","560","52.46039","13.30234","Podbielskiallee 78","14195","15"
"06P07","Steglitz-Zehlendorf","561","52.4474067","13.2338091","Quermatenweg 6","14163","15"
"06P08","Steglitz-Zehlendorf","562","52.42172","13.19381","Dreilindenstr. 24-26","14109","15"
"06P09","Steglitz-Zehlendorf","563","52.44188","13.22601","Klopstockstr. 36-42","14129","15"
"06P10","Steglitz-Zehlendorf","564","52.459234","13.3136248","Grunewaldstr. 44","12165","15"
"06P11","Steglitz-Zehlendorf","565","52.4591859","13.3298032","Körnerstr. 11","12169","15"
"06P12","Steglitz-Zehlendorf","566","52.45077","13.33156","Beymestr. 6-7","12167","15"
"06P13","Steglitz-Zehlendorf","567","52.43948","13.30596","Holbeinstr. 21","12203","15"
"06P15","Steglitz-Zehlendorf","568","52.4368926","13.3125501","Tietzenweg 130","12203","15"
"06P18","Steglitz-Zehlendorf","569","52.4198982","13.2834414","Harry-S.-Truman-Allee 3","14167","15"
"06P20","Steglitz-Zehlendorf","570","52.43704","13.26425","Clayallee 328-334","14169","15"
"06P21","Steglitz-Zehlendorf","571","52.43051","13.16298","Zum Heckeshorn 38","14109","15"
"06S01","Steglitz-Zehlendorf","572","52.44346","13.24838","Hartmannsweilerweg 47","14163","15"
"06S03","Steglitz-Zehlendorf","573","52.43515","13.35522","Wedellstr. 26","12247","15"
"06S04","Steglitz-Zehlendorf","574","52.43254","13.30621","Drakestr. 80","12205","15"
"06S05","Steglitz-Zehlendorf","575","52.4555688","13.3150467","Rothenburgstr. 14","12165","15"
"06Y01","Steglitz-Zehlendorf","576","52.43149","13.25463","Beuckestr. 27-29","14163","15"
"06Y02","Steglitz-Zehlendorf","577","52.42846","13.25673","Schönower Str. 8","14165","15"
"06Y03","Steglitz-Zehlendorf","578","52.45916","13.28001","Königin-Luise-Str. 80-84","14195","15"
"06Y04","Steglitz-Zehlendorf","579","52.42057","13.18778","Dreilindenstr. 49","14109","15"
"06Y05","Steglitz-Zehlendorf","580","52.43194","13.21159","Beskidenstr. 3","14129","15"
"06Y06","Steglitz-Zehlendorf","581","52.43293","13.34283","Barbarastr. 9","12249","15"
"06Y07","Steglitz-Zehlendorf","582","52.46219","13.3143884","Gritznerstr. 57","12163","15"
"06Y08","Steglitz-Zehlendorf","583","52.45297","13.33373","Elisenstr. 3-4","12169","15"
"06Y10","Steglitz-Zehlendorf","584","52.43595","13.31215","Ringstr. 2-3","12203","15"
"06Y11","Steglitz-Zehlendorf","585","52.4346011","13.3057902","Drakestr. 72-75","12205","15"
"06Y12","Steglitz-Zehlendorf","586","52.43469","13.32096","Ostpreußendamm 166","12207","15"
"06Y13","Steglitz-Zehlendorf","587","52.45671","13.32644","Heesestr. 15","12169","15"
"07A01","Tempelhof-Schöneberg","588","52.398","13.40412","Lutherstr. 18","12305","17"
"07A02","Tempelhof-Schöneberg","588","52.398","13.40412","Lutherstr. 18","12305","17"
"07A04","Tempelhof-Schöneberg","588","52.398","13.40412","Lutherstr. 18","12305","17"
"07A05","Tempelhof-Schöneberg","589","52.50343","13.34102","Nürnberger Str. 63","10787","17"
"07A06","Tempelhof-Schöneberg","590","52.47538","13.32137","Offenbacher Str. 5A","14197","17"
"07G16","Tempelhof-Schöneberg","590","52.47538","13.32137","Offenbacher Str. 5A","14197","17"
"07B01","Tempelhof-Schöneberg","591","52.4892717","13.351258","Klixstr. 6-7","10823","17"
"07B02","Tempelhof-Schöneberg","592","52.4991672","13.3647624","Steinmetzstr. 79","10783","17"
"07B03","Tempelhof-Schöneberg","593","52.4847776","13.3810928","Dudenstr. 35-37","10965","17"
"07E01","Tempelhof-Schöneberg","594","52.503297","13.3423863","Ansbacher Str. 16","10787","17"
"07E21","Tempelhof-Schöneberg","594","52.503297","13.3423863","Ansbacher Str. 16","10787","17"
"07E02","Tempelhof-Schöneberg","595","52.5022192","13.3461742","Keithstr. 6","10787","17"
"07E05","Tempelhof-Schöneberg","596","52.4989386","13.3516833","Motzstr. 5","10777","17"
"07E07","Tempelhof-Schöneberg","597","52.48489","13.36598","Kolonnenstr. 26","10829","17"
"07E08","Tempelhof-Schöneberg","598","52.4952856","13.3410724","Viktoria-Luise-Platz 9","10777","17"
"07E09","Tempelhof-Schöneberg","599","52.4736628","13.3324026","Handjerystr. 22","12159","17"
"07E11","Tempelhof-Schöneberg","600","52.47572","13.35607","Priesterweg 4","10829","17"
"07E15","Tempelhof-Schöneberg","601","52.458","13.39339","Colditzstr. 23","12099","17"
"07E16","Tempelhof-Schöneberg","602","52.4841306","13.3458463","Dominicusstr. 3","10823","17"
"07E17","Tempelhof-Schöneberg","603","52.4536","13.38765","Ullsteinstr. 114-142","12109","17"
"07E18","Tempelhof-Schöneberg","604","52.47113","13.32389","Stubenrauchstr. 60","12161","17"
"07E19","Tempelhof-Schöneberg","605","52.4850008","13.3462976","Belziger Str. 69-71","10823","17"
"07E20","Tempelhof-Schöneberg","606","52.5012842","13.344611","Kleiststr. 23-26","10787","17"
"07E24","Tempelhof-Schöneberg","607","52.43768","13.37648","Lankwitzer Str. 38","12107","17"
"07E25","Tempelhof-Schöneberg","608","52.48369","13.35521","Feurigstr. 54","10827","17"
"07E26","Tempelhof-Schöneberg","609","52.4666569","13.3306047","Rheinstr. 45-46","12161","17"
"07G01","Tempelhof-Schöneberg","610","52.49539","13.35693","Pallasstr. 15","10781","17"
"07G02","Tempelhof-Schöneberg","611","52.49823","13.34251","Welserstr. 16-22","10777","17"
"07G03","Tempelhof-Schöneberg","612","52.495036","13.3482358","Luitpoldstr. 38","10781","17"
"07G05","Tempelhof-Schöneberg","613","52.4849334","13.3695195","Kolonnenstr. 30","10829","17"
"07G06","Tempelhof-Schöneberg","614","52.48047","13.33924","Mettestr. 8","10825","17"
"07Y02","Tempelhof-Schöneberg","614","52.48047","13.33924","Mettestr. 8","10825","17"
"07G07","Tempelhof-Schöneberg","615","52.45809","13.36325","Reglinstr. 29","12105","17"
"07G10","Tempelhof-Schöneberg","616","52.4843271","13.3561539","Feurigstr. 57","10827","17"
"07G12","Tempelhof-Schöneberg","617","52.4941773","13.3432676","Hohenstaufenstr. 49","10779","17"
"07G13","Tempelhof-Schöneberg","618","52.49282","13.36249","Steinmetzstr. 46-50","10783","17"
"07G14","Tempelhof-Schöneberg","619","52.489578","13.3435344","Berchtesgadener Str. 10-11","10779","17"
"07G15","Tempelhof-Schöneberg","620","52.46839","13.3329","Illstr. 4-6","12161","17"
"07G17","Tempelhof-Schöneberg","621","52.46934","13.32242","Rheingaustr. 7","12161","17"
"07G18","Tempelhof-Schöneberg","622","52.49235","13.34978","Barbarossaplatz 5","10781","17"
"07G19","Tempelhof-Schöneberg","623","52.46137","13.3926","Felixstr. 26-58","12099","17"
"07G20","Tempelhof-Schöneberg","624","52.45817","13.38069","Friedrich-Wilhelm-Str. 72-74","12103","17"
"07G21","Tempelhof-Schöneberg","625","52.48081","13.38185","Schulenburgring 7-11","12101","17"
"07G22","Tempelhof-Schöneberg","626","52.454","13.37538","Konradinstr. 15-17","12105","17"
"07G23","Tempelhof-Schöneberg","627","52.4487","13.40066","Wolfsburger Weg 13-19","12109","17"
"07G24","Tempelhof-Schöneberg","628","52.4786034","13.3764696","Boelckestr. 58-60","12101","17"
"07K11","Tempelhof-Schöneberg","628","52.4786034","13.3764696","Boelckestr. 58-60","12101","17"
"07G25","Tempelhof-Schöneberg","629","52.44724","13.38376","Königstr. 32","12105","17"
"07G26","Tempelhof-Schöneberg","630","52.40019","13.41799","Wiesbadener Str. 20","12309","17"
"07G27","Tempelhof-Schöneberg","631","52.43886","13.3855","Friedenstr. 23-25","12107","17"
"07G28","Tempelhof-Schöneberg","632","52.41591","13.37327","Prechtlstr. 21-23","12277","17"
"07G29","Tempelhof-Schöneberg","633","52.3862","13.40487","Mellener Str. 38-42","12307","17"
"07G30","Tempelhof-Schöneberg","634","52.39757","13.40197","Halker Zeile 137-149","12305","17"
"07G31","Tempelhof-Schöneberg","635","52.44398","13.40823","Am Hellespont 4-6","12109","17"
"07G32","Tempelhof-Schöneberg","636","52.4049016","13.4025358","Rackebüller Weg 70","12305","17"
"07G34","Tempelhof-Schöneberg","637","52.41209","13.35184","Erbendorfer Weg 13","12279","17"
"07G35","Tempelhof-Schöneberg","638","52.39085","13.41943","Nahariyastr. 13-17","12309","17"
"07G36","Tempelhof-Schöneberg","639","52.41166","13.40863","Dielingsgrund 35","12305","17"
"07G37","Tempelhof-Schöneberg","640","52.43363","13.38389","Körtingstr. 45","12107","17"
"07K01","Tempelhof-Schöneberg","641","52.4928075","13.3565827","Elßholzstr. 34-37","10781","17"
"07K02","Tempelhof-Schöneberg","642","52.39571","13.40258","Barnetstr. 12-14","12305","17"
"07K03","Tempelhof-Schöneberg","643","52.40662","13.34754","Waldsassener Str. 62","12279","17"
"07K04","Tempelhof-Schöneberg","644","52.3983993","13.4039877","Grimmstr. 9-11","12305","17"
"07K05","Tempelhof-Schöneberg","645","52.41397","13.36527","Alt-Marienfelde 52","12277","17"
"07K06","Tempelhof-Schöneberg","646","52.4941437","13.3425288","Hohenstaufenstr. 47-48","10779","17"
"07K07","Tempelhof-Schöneberg","647","52.44692","13.36411","Ringstr. 103-106","12105","17"
"07K09","Tempelhof-Schöneberg","648","52.4859974","13.3507182","Belziger Str. 43-51","10823","17"
"07K10","Tempelhof-Schöneberg","649","52.47618","13.33314","Perelsplatz 6-9","12159","17"
"07K12","Tempelhof-Schöneberg","650","52.4697836","13.3440679","Rubensstr. 63","12157","17"
"07K13","Tempelhof-Schöneberg","651","52.4656569","13.3795832","Alt-Tempelhof 53-57","12103","17"
"07P01","Tempelhof-Schöneberg","652","52.49513","13.35327","Hohenstaufenstr. 2","10781","17"
"07P02","Tempelhof-Schöneberg","653","52.49125","13.35207","Karl-Schrader-Str. 7-8","10781","17"
"07P03","Tempelhof-Schöneberg","654","52.49617","13.34125","Viktoria-Luise-Platz 6","10777","17"
"07P04","Tempelhof-Schöneberg","655","52.41658","13.35104","Tennstedter Str. 1","12249","17"
"07P05","Tempelhof-Schöneberg","656","52.4547894","13.3818116","Viktoriastr. 13","12105","17"
"07P06","Tempelhof-Schöneberg","657","52.41551","13.35947","Malteserstr. 171A","12277","17"
"07P07","Tempelhof-Schöneberg","658","52.5012842","13.344611","Kleiststr. 23 -26","10787","17"
"07P10","Tempelhof-Schöneberg","659","52.4721253","13.3657621","Geneststr. 5","10829","17"
"07P12","Tempelhof-Schöneberg","660","52.47535","13.35593","Priesterweg 6","10829","17"
"07P13","Tempelhof-Schöneberg","661","52.4456996","13.3824074","Machonstr. 54","12105","17"
"07S01","Tempelhof-Schöneberg","662","52.46884","13.34519","Pöppelmannstr. 2","12157","17"
"07S03","Tempelhof-Schöneberg","663","52.41783","13.36458","Hanielweg 7-9","12277","17"
"07S04","Tempelhof-Schöneberg","664","52.46433","13.41815","Holzmannstr. 7","12099","17"
"07Y01","Tempelhof-Schöneberg","665","52.48483","13.36487","Kolonnenstr. 21","10829","17"
"07Y03","Tempelhof-Schöneberg","666","52.4702056","13.3226109","Schwalbacher Str. 3-4","12161","17"
"07Y04","Tempelhof-Schöneberg","667","52.46939","13.32431","Goßlerstr. 13-15","12161","17"
"07Y05","Tempelhof-Schöneberg","668","52.46546","13.39059","Germaniastr. 4-6","12099","17"
"07Y06","Tempelhof-Schöneberg","669","52.45992","13.37992","Kaiserin-Augusta-Str. 19-20","12103","17"
"07Y07","Tempelhof-Schöneberg","670","52.4451542","13.380632","Kaiserstr. 17-21","12105","17"
"07Y08","Tempelhof-Schöneberg","671","52.38563","13.40388","Rehagener Str. 35-37","12307","17"
"07Y09","Tempelhof-Schöneberg","672","52.39199","13.40659","Lichtenrader Damm 224","12305","17"
"08A01","Neukölln","673","52.42179","13.45659","Wildhüterweg 5","12353","18"
"08A02","Neukölln","673","52.42179","13.45659","Wildhüterweg 5","12353","18"
"08A05","Neukölln","673","52.42179","13.45659","Wildhüterweg 5","12353","18"
"08G31","Neukölln","673","52.42179","13.45659","Wildhüterweg 5","12353","18"
"08A04","Neukölln","674","52.4666","13.4721","Hänselstr.6","12057","18"
"08B01","Neukölln","675","52.44382","13.4442","Paster-Behrens-Str. 88","12359","18"
"08B02","Neukölln","676","52.43049","13.47466","Rudower Str. 184","12351","18"
"08B04","Neukölln","677","52.4578","13.44983","Haarlemer Str. 23-27","12359","18"
"08B05","Neukölln","678","52.47265","13.42434","Leinestr. 37-46","12049","18"
"08E02","Neukölln","679","52.491453","13.423326","Kottbusser Damm 79","10967","18"
"08E04","Neukölln","680","52.467985","13.444176","Lahnstr. 86","12055","18"
"08G01","Neukölln","681","52.4849039","13.4317919","Donaustr. 120","12043","18"
"08G02","Neukölln","682","52.4864882","13.4267626","Hobrechtstr. 76","12043","18"
"08G03","Neukölln","683","52.4835636","13.4518514","Harzer Str. 73","12059","18"
"08G05","Neukölln","684","52.48442","13.44062","Elbestr. 11","12045","18"
"08G06","Neukölln","685","52.4765033","13.4239608","Weisestr. 20","12049","18"
"08G07","Neukölln","686","52.4804158","13.4312519","Boddinstr. 55","12053","18"
"08G08","Neukölln","687","52.4820988","13.4225053","Karlsgartenstr. 7","12049","18"
"08G09","Neukölln","688","52.4755753","13.4335026","Morusstr. 32","12053","18"
"08G10","Neukölln","689","52.4272063","13.47409","Efeuweg 34","12357","18"
"08K07","Neukölln","689","52.4272063","13.47409","Efeuweg 34","12357","18"
"08G11","Neukölln","690","52.41198","13.48526","Groß-Ziethener Chaussee 73","12355","18"
"08G12","Neukölln","691","52.4717495","13.4359723","Jonasstr. 15","12053","18"
"08G13","Neukölln","692","52.44095","13.44886","Bruno-Taut-Ring 9C","12359","18"
"08G14","Neukölln","693","52.4725","13.43556","Thomasstr. 39","12053","18"
"08G15","Neukölln","694","52.4641738","13.4301098","Mariendorfer Weg 69","12051","18"
"08G16","Neukölln","695","52.42538","13.45705","Hugo-Heimann-Str. 20","12353","18"
"08G17","Neukölln","696","52.47359","13.44439","Richardplatz 14","12055","18"
"08G18","Neukölln","697","52.4779","13.45035","Stuttgarter Str. 35-39","12059","18"
"08G19","Neukölln","698","52.455159","13.43894","Hannemannstr. 69","12347","18"
"08S03","Neukölln","698","52.455159","13.43894","Hannemannstr. 69","12347","18"
"08G20","Neukölln","699","52.47197","13.46714","Dammweg 228","12057","18"
"08G21","Neukölln","700","52.4669","13.4347","Silbersteinstr. 42","12051","18"
"08G22","Neukölln","701","52.42985","13.45178","Johannisthaler Chaussee 328","12351","18"
"08G23","Neukölln","702","52.4625843","13.4395332","Wederstr. 49","12347","18"
"08G24","Neukölln","703","52.45925","13.44063","Rungiusstr. 46","12347","18"
"08G25","Neukölln","704","52.41346","13.50984","Neuhofer Str. 41","12355","18"
"08G26","Neukölln","705","52.4210666","13.4350952","An den Achterhöfen 13","12349","18"
"08G27","Neukölln","706","52.44057","13.47209","Rohrdommelweg 1","12359","18"
"08G28","Neukölln","707","52.4203814","13.5016748","Köpenicker Str. 148","12355","18"
"08G29","Neukölln","708","52.43092","13.44294","Tischlerzeile 34","12351","18"
"08G30","Neukölln","709","52.41829","13.40469","Hornblendeweg 2","12349","18"
"08G32","Neukölln","710","52.4213153","13.4729923","Wutzkyallee 80-84","12353","18"
"08G33","Neukölln","711","52.42424","13.48673","Kornradenstr. 2","12357","18"
"08G34","Neukölln","712","52.42254","13.44504","Hasenhegerweg 12","12353","18"
"08S05","Neukölln","712","52.42254","13.44504","Hasenhegerweg 12","12353","18"
"08G35","Neukölln","713","52.4666","13.4721","Hänselstr. 6","12057","18"
"08G36","Neukölln","714","52.4724989","13.4487708","Drorystr. 3","12055","18"
"08G37","Neukölln","715","52.4011255","13.5019953","Lieselotte-Berger-Str. 65","12355","18"
"08K01","Neukölln","716","52.4297997","13.4642492","Fritz-Erler-Allee 86","12351","18"
"08K02","Neukölln","717","52.4218231","13.4729735","Wutzkyallee 68","12353","18"
"08K03","Neukölln","718","52.45809","13.449","Buschkrugallee 63","12359","18"
"08K04","Neukölln","719","52.41578","13.43231","Gerlinger Str. 22","12353","18"
"08K05","Neukölln","720","52.41759","13.48999","Bildhauerweg 9","12355","18"
"08K06","Neukölln","721","52.44865","13.44389","Onkel-Bräsig-Str. 76-78","12359","18"
"08K08","Neukölln","722","52.487309","13.434226","Rütlistr. 41","12045","18"
"08K10","Neukölln","724","52.4761","13.43129","Kopfstr. 55","12053","18"
"08K11","Neukölln","725","52.448","13.43469","Britzer Damm 164","12347","18"
"08K12","Neukölln","726",,,"Zwillingestr. 21","12057","18"
"08P01","Neukölln","727","52.4796144","13.4223607","Mahlower Str. 23-24","12049","18"
"08P02","Neukölln","728","52.42389","13.4618","Hugo-Heimann-Str. 2","12353","18"
"08P03","Neukölln","729","52.48338","13.42761","Mainzer Str. 47","12053","18"
"08P04","Neukölln","730","52.47794","13.4428","Donaustr. 58","12043","18"
"08P06","Neukölln","731","52.43914","13.45843","Rudower Str. 48","12351","18"
"08P08","Neukölln","732","52.4661244","13.4425722","Karl-Marx-Str. 255 ","12057","18"
"08P09","Neukölln","733","52.46534","13.43654","Delbrückstr. 18","12051","18"
"08P10","Neukölln","734","52.4847665","13.4405471","Elbestr. 28","12045","18"
"08P12","Neukölln","735","52.4735304","13.4570074","Sonnenallee 223 ","12059","18"
"08S01","Neukölln","736","52.47589","13.45117","Sonnenallee 188","12059","18"
"08S04","Neukölln","737","52.422","13.48315","Zwickauer Damm 17-22","12353","18"
"08S06","Neukölln","738","52.4835636","13.4518514","Harzer Str. 73-74","12059","18"
"08S07","Neukölln","739","52.42178","13.42537","Breitunger Weg 1","12349","18"
"08S08","Neukölln","740","52.4426371","13.4441977","Paster-Behrens-Str. 81","12359","18"
"08S09","Neukölln","741","52.42741","13.43451","Buckower Damm 176","12349","18"
"08Y01","Neukölln","742","52.46947","13.43907","Emser Str. 132-137","12051","18"
"08Y02","Neukölln","743","52.4852","13.42649","Karl-Marx-Str. 14","12043","18"
"08Y03","Neukölln","744","52.44553","13.44245","Parchimer Allee 109","12359","18"
"08Y04","Neukölln","745","52.4833781","13.437041","Sonnenallee 79","12045","18"
"08Y05","Neukölln","746","52.41623","13.42658","Haewererweg 35","12349","18"
"08Y06","Neukölln","747","52.40451","13.50678","Elfriede-Kuhr-Str. 17","12355","18"
"08K09","Treptow-Köpenick","723","52.48892","13.4497","Wildenbruchstr. 53","12435","19"
"09A01","Treptow-Köpenick","748","52.44107","13.57814","Luisenstr. 16","12557","19"
"09A02","Treptow-Köpenick","748","52.44107","13.57814","Luisenstr. 16","12557","19"
"09A03","Treptow-Köpenick","748","52.44107","13.57814","Luisenstr. 16","12557","19"
"09A04","Treptow-Köpenick","748","52.44107","13.57814","Luisenstr. 16","12557","19"
"09A05","Treptow-Köpenick","749","52.46818","13.48463","Kiefholzstr. 274","12437","19"
"09A06","Treptow-Köpenick","750","52.4659","13.51817","Zeppelinstr. 76-80","12459","19"
"09K04","Treptow-Köpenick","750","52.4659","13.51817","Zeppelinstr. 76-80","12459","19"
"09A07","Treptow-Köpenick","751","52.44683","13.60192","Birkenstr. 11","12559","19"
"09B03","Treptow-Köpenick","752","52.46634","13.50742","Helmholtzstr. 37","12459","19"
"09E01","Treptow-Köpenick","753","52.4284936","13.5377182","Justus-Von-Liebig-Str. 7","12489","19"
"09E05","Treptow-Köpenick","754","52.37251","13.69508","Wernsdorfer Str. 43","12527","19"
"09E06","Treptow-Köpenick","755","52.43157","13.54447","Ernst-Augustin-Str. 1A","12489","19"
"09E07","Treptow-Köpenick","756","52.469018","13.562107","Köpenicker Str. 325","12555","19"
"09G01","Treptow-Köpenick","757","52.4933369","13.4527706","Bouchestr. 5-10","12435","19"
"09G03","Treptow-Köpenick","758","52.46872","13.47837","Hänselstr. 14","12437","19"
"09G04","Treptow-Köpenick","759","52.46163","13.48872","Radenzer Str. 16","12437","19"
"09G05","Treptow-Köpenick","760","52.44014","13.4979","Springbornstr. 250","12487","19"
"09G06","Treptow-Köpenick","761","52.44696","13.51031","Engelhardstr. 18","12487","19"
"09G07","Treptow-Köpenick","762","52.4550499","13.5142822","Schnellerstr. 31","12439","19"
"09G09","Treptow-Köpenick","763","52.438648","13.5437125","Florian-Geyer-Str. 87","12489","19"
"09G10","Treptow-Köpenick","764","52.418702","13.537785","Köpenicker Str. 31","12524","19"
"09G11","Treptow-Köpenick","765","52.40638","13.5294","Pegasuseck 5","12524","19"
"09G13","Treptow-Köpenick","766","52.41079","13.55406","Sachsenstr. 22","12524","19"
"09S05","Treptow-Köpenick","766","52.41079","13.55406","Sachsenstr. 22","12524","19"
"09G14","Treptow-Köpenick","767","52.40671","13.57427","Schulzendorfer Str. 112","12526","19"
"09G15","Treptow-Köpenick","768","52.40733","13.53679","Mohnweg 20","12524","19"
"09G16","Treptow-Köpenick","769","52.42845","13.5953","Köpenzeile 123","12557","19"
"09G17","Treptow-Köpenick","770","52.4676304","13.5797341","Wongrowitzer Steig 37","12555","19"
"09G18","Treptow-Köpenick","771","52.43946","13.56429","Rudower Str. 201","12557","19"
"09G19","Treptow-Köpenick","772","52.44262","13.58891","Pablo-Neruda-Str. 8","12559","19"
"09G20","Treptow-Köpenick","773","52.41469","13.66739","Odernheimer Str. 28","12559","19"
"09G21","Treptow-Köpenick","774","52.46607","13.50886","Wattstr. 69-70","12459","19"
"09G22","Treptow-Köpenick","775","52.46267","13.52419","Kottmeierstr. 2","12459","19"
"09G23","Treptow-Köpenick","776","52.45624","13.58095","Borgmannstr. 2","12555","19"
"09G24","Treptow-Köpenick","777","52.45072","13.62746","Aßmannstr. 63","12587","19"
"09G25","Treptow-Köpenick","778","52.43884","13.6059","Alfred-Randt-Str. 56","12559","19"
"09G26","Treptow-Köpenick","779","52.43385","13.70158","Fürstenwalder Allee 182","12589","19"
"09G27","Treptow-Köpenick","780","52.4546064","13.6213987","Peter-Hille-Str. 7","12587","19"
"09G29","Treptow-Köpenick","781","52.3760367","13.6482429","Adlergestell 776","12527","19"
"09K01","Treptow-Köpenick","782","52.46431","13.57643","Hoernlestr. 80","12555","19"
"09K02","Treptow-Köpenick","783","52.4354158","13.548246","Radickestr. 43","12489","19"
"09K03","Treptow-Köpenick","784","52.40141","13.5647","Dahmestr. 45","12526","19"
"09K05","Treptow-Köpenick","785","52.45109","13.61894","Aßmannstr. 11","12587","19"
"09K06","Treptow-Köpenick","786","52.4444843","13.4990219","Heubergerweg 37","12487","19"
"09K07","Treptow-Köpenick","787","52.48171","13.47804","Am Plänterwald 17-23","12435","19"
"09K08","Treptow-Köpenick","788","52.44056","13.56727","Glienicker Str. 24 -30","12557","19"
"09K09","Treptow-Köpenick","789","52.41924","13.57607","Walchenseestr. 40","12527","19"
"09P01","Treptow-Köpenick","790","52.452771","13.5339056","Bruno-Bürgel-Weg 9","12439","19"
"09P05","Treptow-Köpenick","791","52.4969637","13.4547903","Eichenstr. 3B","12435","19"
"09P06","Treptow-Köpenick","792","52.42775","13.59542","Köpenzeile 125","12557","19"
"09P07","Treptow-Köpenick","793","52.42378","13.59222","Grüne Trift 169","12557","19"
"09P08","Treptow-Köpenick","794","52.4501247","13.5727251","Lindenstr. 42","12555","19"
"09P09","Treptow-Köpenick","795","52.45181","13.57142","Lindenstr. 1","12555","19"
"09P10","Treptow-Köpenick","796","52.45387","13.56781","Lindenstr. 26","12555","19"
"09P11","Treptow-Köpenick","797","52.428342","13.552864","Adlergestell 333 ","12489","19"
"09P12","Treptow-Köpenick","798","52.44465","13.52864","Adlergestell 133 ","12439","19"
"09P13","Treptow-Köpenick","799","52.4529764","13.6208986","Peter-Hille-Str. 036 ","12587","19"
"09P15","Treptow-Köpenick","800","52.4734358","13.4870696","Köpenicker Landstr. 185A","12437","19"
"09P16","Treptow-Köpenick","801","52.4478","13.53187","Hartriegelstr. 77","12439","19"
"09S03","Treptow-Köpenick","802","52.4712446","13.5161544","Treskowallee 222","12459","19"
"09S04","Treptow-Köpenick","803","52.44782","13.61966","Peter-Hille-Str. 118","12587","19"
"09S06","Treptow-Köpenick","804","52.47692","13.48425","Willi-Sänger-Str. 1","12437","19"
"09Y03","Treptow-Köpenick","805","52.4514","13.52271","Rudower Str. 7","12439","19"
"09Y04","Treptow-Köpenick","806","52.3993265","13.525296","Uranusstr. 15 -17","12524","19"
"09Y05","Treptow-Köpenick","807","52.445252","13.5669719","Oberspreestr. 173","12555","19"
"09Y06","Treptow-Köpenick","808","52.45227","13.63269","Bruno-Wille-Str. 37-45","12587","19"
"09Y10","Treptow-Köpenick","809","52.44833","13.50379","Ellernweg 20-22","12487","19"
"09Y11","Treptow-Köpenick","810","52.4427495","13.5887349","Pablo-Neruda-Str. 6-7","12559","19"
"10A04","Marzahn-Hellersdorf","811","52.5363","13.53885","Martha-Arendsee-Str. 15","12681","20"
"10A06","Marzahn-Hellersdorf","812","52.5433865","13.5863212","Luckenwalder Str. 51","12629","20"
"10A07","Marzahn-Hellersdorf","812","52.5433865","13.5863212","Luckenwalder Str. 51","12629","20"
"10A08","Marzahn-Hellersdorf","812","52.5433865","13.5863212","Luckenwalder Str. 51","12629","20"
"10A09","Marzahn-Hellersdorf","812","52.5433865","13.5863212","Luckenwalder Str. 51","12629","20"
"10B01","Marzahn-Hellersdorf","813","52.5306454","13.5333649","Marzahner Chaussee 231","12681","20"
"10B02","Marzahn-Hellersdorf","814","52.5384928","13.6075737","Peter-Weiss-Gasse 8","12627","20"
"10E01","Marzahn-Hellersdorf","815","52.5534413","13.5446354","Bitterfelder Str. 13","12681","20"
"10E02","Marzahn-Hellersdorf","815","52.5534413","13.5446354","Bitterfelder Str. 13","12681","20"
"10P03","Marzahn-Hellersdorf","815","52.5534413","13.5446354","Bitterfelder Str. 13","12681","20"
"10E04","Marzahn-Hellersdorf","816","52.52596","13.5305","Allee der Kosmonauten 33B","12681","20"
"10G01","Marzahn-Hellersdorf","817","52.5707468","13.5763251","Schorfheidestr. 42","12689","20"
"10G03","Marzahn-Hellersdorf","818","52.56767","13.57023","Wörlitzer Str. 31","12689","20"
"10G04","Marzahn-Hellersdorf","819","52.56593","13.5564","Geraer Ring 2","12689","20"
"10G05","Marzahn-Hellersdorf","820","52.56407","13.57294","Borkheider Str. 27","12689","20"
"10G06","Marzahn-Hellersdorf","821","52.55782","13.5615","Schleusinger Str. 17","12687","20"
"10G07","Marzahn-Hellersdorf","822","52.55335","13.56415","Max-Herrmann-Str. 5","12687","20"
"10G08","Marzahn-Hellersdorf","823","52.55325","13.58137","Parsteiner Ring 24","12679","20"
"10G09","Marzahn-Hellersdorf","824","52.55062","13.56569","Jan-Petersen-Str. 18B","12679","20"
"10G10","Marzahn-Hellersdorf","825","52.5481558","13.5516721","Stolzenhagener Str. 9","12679","20"
"10G11","Marzahn-Hellersdorf","826","52.53976","13.5657","Kienbergstr. 59","12685","20"
"10G12","Marzahn-Hellersdorf","827","52.5377828","13.5517971","Amanlisweg 40","12685","20"
"10G13","Marzahn-Hellersdorf","828","52.52982","13.55966","Cecilienstr. 81","12683","20"
"10G14","Marzahn-Hellersdorf","829","52.5301","13.54212","Murtzaner Ring 37","12681","20"
"10G16","Marzahn-Hellersdorf","830","52.4903906","13.5514837","Dankratweg 19","12683","20"
"10G17","Marzahn-Hellersdorf","831","52.54682","13.58926","Ludwigsfelder Str. 7","12629","20"
"10G18","Marzahn-Hellersdorf","832","52.54256","13.6001","Kastanienallee 118","12627","20"
"10G19","Marzahn-Hellersdorf","833","52.54068","13.62913","Eilenburger Str. 1","12627","20"
"10G22","Marzahn-Hellersdorf","834","52.532645","13.6189736","Schönewalder Str. 9","12627","20"
"10G25","Marzahn-Hellersdorf","835","52.52913","13.6081","Nossener Str. 85","12627","20"
"10G26","Marzahn-Hellersdorf","836","52.5115004","13.6147823","An der Schule 13-17","12623","20"
"10G28","Marzahn-Hellersdorf","837","52.52593","13.59512","Erich-Kästner-Str. 64","12619","20"
"10G29","Marzahn-Hellersdorf","838","52.52118","13.58041","Teterower Ring 79","12619","20"
"10G30","Marzahn-Hellersdorf","839","52.5221017","13.6287867","Feldrain 47","12623","20"
"10G31","Marzahn-Hellersdorf","840","52.50781","13.58507","Adolfstr. 25","12621","20"
"10G32","Marzahn-Hellersdorf","841","52.49407","13.60915","Hultschiner Damm 219","12623","20"
"10G33","Marzahn-Hellersdorf","842","52.48584","13.58006","Ulmenstr. 79-85","12621","20"
"10K01","Marzahn-Hellersdorf","843","52.5555","13.57573","Glambecker Ring 90","12679","20"
"10K02","Marzahn-Hellersdorf","844","52.54322","13.58574","Luckenwalder Str. 53","12629","20"
"10K03","Marzahn-Hellersdorf","845","52.5668096","13.5795045","Golliner Str. 2","12689","20"
"10K04","Marzahn-Hellersdorf","846","52.55821","13.5601","Liebensteiner Str. 24","12687","20"
"10K05","Marzahn-Hellersdorf","847","52.54542","13.59615","Mittenwalder Str. 5","12629","20"
"10K06","Marzahn-Hellersdorf","848","52.49015","13.55783","Alberichstr. 24","12683","20"
"10K07","Marzahn-Hellersdorf","849","52.53489","13.59109","Alte Hellersdorfer Str. 7","12629","20"
"10K08","Marzahn-Hellersdorf","850","52.56993","13.57866","Hohenwalder Str. 2","12689","20"
"10K09","Marzahn-Hellersdorf","851","52.5290467","13.622082","Geithainer Str. 12","12627","20"
"10K10","Marzahn-Hellersdorf","852","52.53699","13.59663","Cottbusser Str. 23","12627","20"
"10P05","Marzahn-Hellersdorf","853","52.4824132","13.6054412","Erich-Baron-Weg 118","12623","20"
"10P09","Marzahn-Hellersdorf","854","52.5326","13.61635","Lichtenhainer Str. 2","12627","20"
"10P10","Marzahn-Hellersdorf","855","52.5292967","13.5469922","Allee der Kosmonauten 123","12681","20"
"10P12","Marzahn-Hellersdorf","856","52.5018703","13.6089484","Elsenstr. 13A","12623","20"
"10P13","Marzahn-Hellersdorf","857","52.51949","13.60077","Wernerstr. 48","12619","20"
"10P14","Marzahn-Hellersdorf","858","52.52505","13.59226","Peter-Huchel-Str. 35","12619","20"
"10P15","Marzahn-Hellersdorf","859","52.54635","13.55993","Landsberger Allee 467B","12679","20"
"10S04","Marzahn-Hellersdorf","860","52.5311569","13.5533375","Ketschendorfer Weg 21","12683","20"
"10S07","Marzahn-Hellersdorf","861","52.53","13.60199","Klingenthaler Str. 32","12627","20"
"10S08","Marzahn-Hellersdorf","862","52.540282","13.629414","Eilenburger Str. 4","12627","20"
"10S10","Marzahn-Hellersdorf","863","52.56973","13.56193","Geraer Ring 54","12689","20"
"10S11","Marzahn-Hellersdorf","864","52.56382","13.56592","Flämingstr. 16-18","12689","20"
"10Y01","Marzahn-Hellersdorf","865","52.55271","13.55658","Sella-Hasse-Str. 25","12687","20"
"10Y02","Marzahn-Hellersdorf","866","52.5119216","13.5491994","Schulstr. 11","12683","20"
"10Y03","Marzahn-Hellersdorf","867","52.5335706","13.5511055","Allee der Kosmonauten 134","12683","20"
"10Y08","Marzahn-Hellersdorf","868","52.54332","13.59106","Kyritzer Str. 103","12629","20"
"10Y11","Marzahn-Hellersdorf","869","52.53434","13.61849","Adele-Sandrock-Str. 73-75","12627","20"
"11A02","Lichtenberg","870","52.50964","13.48535","Harnackstr. 25","10365","21"
"11A06","Lichtenberg","870","52.50964","13.48535","Harnackstr. 25","10365","21"
"11A08","Lichtenberg","870","52.50964","13.48535","Harnackstr. 25","10365","21"
"11A07","Lichtenberg","871","52.5468761","13.4775169","Fritz-Lesch-Str. 35","13053","21"
"11B01","Lichtenberg","872","52.5234","13.51275","Allee der Kosmonauten 18","10315","21"
"11B02","Lichtenberg","873","52.50116","13.48697","Fischerstr. 36","10317","21"
"11B03","Lichtenberg","874","52.50301","13.47466","Marktstr. 2 -3","10317","21"
"11E05","Lichtenberg","875","52.51171","13.48965","Frankfurter Allee 202","10365","21"
"11P06","Lichtenberg","875","52.51171","13.48965","Frankfurter Allee 202","10365","21"
"11E06","Lichtenberg","876","52.4898494","13.5386479","Rheinpfalzallee 82","10318","21"
"11P02","Lichtenberg","876","52.4898494","13.5386479","Rheinpfalzallee 82","10318","21"
"11E08","Lichtenberg","877","52.5235839","13.480018","Möllendorffstr. 48","10367","21"
"11P15","Lichtenberg","877","52.5235839","13.480018","Möllendorffstr. 48","10367","21"
"11E09","Lichtenberg","878","52.4893","13.51051","Wallensteinstr. 22","10318","21"
"11E11","Lichtenberg","879","52.5074532","13.4765465","Wiesenweg 5-9","10365","21"
"11E12","Lichtenberg","880","52.5144232","13.4902693","Alfredstr. 022 ","10365","21"
"11E13","Lichtenberg","881","52.5251295","13.4654505","Franz-Jacob-Str. 2C","10369","21"
"11E14","Lichtenberg","882","52.52331","13.48904","Josef-Orlopp-Str. 45-49","10365","21"
"11G01","Lichtenberg","883","52.52933","13.46695","Franz-Jacob-Str. 33","10369","21"
"11G02","Lichtenberg","884","52.52899","13.48214","Bernhard-Bästlein-Str. 22","10367","21"
"11G03","Lichtenberg","885","52.52237","13.48307","Josef-Orlopp-Str. 20","10367","21"
"11G05","Lichtenberg","886","52.51686","13.49421","Atzpodienstr. 19","10365","21"
"11G06","Lichtenberg","887","52.5114","13.53125","Alt-Friedrichsfelde 66","10315","21"
"11G07","Lichtenberg","888","52.5101","13.48594","Harnackstr. 17","10365","21"
"11G08","Lichtenberg","889","52.5100467","13.5004602","Wönnichstr. 7","10317","21"
"11G09","Lichtenberg","890","52.50818","13.51665","Massower Str. 39","10315","21"
"11G10","Lichtenberg","891","52.56409","13.50024","Barther Str. 27","13051","21"
"11G11","Lichtenberg","892","52.49572","13.51176","Sewanstr. 184 ","10319","21"
"11G12","Lichtenberg","893","52.49199","13.53678","Römerweg 120","10318","21"
"11G13","Lichtenberg","894","52.48925","13.51994","Lisztstr. 6","10318","21"
"11G14","Lichtenberg","895","52.47921","13.53417","Ehrenfelsstr. 36","10318","21"
"11G15","Lichtenberg","896","52.498671","13.519916","Erich-Kurz-Str. 6 -10","10319","21"
"11S04","Lichtenberg","896","52.498671","13.519916","Erich-Kurz-Str. 6 -10","10319","21"
"11G16","Lichtenberg","897","52.50159","13.48054","Nöldnerstr. 44","10317","21"
"11S01","Lichtenberg","897","52.50159","13.48054","Nöldnerstr. 44","10317","21"
"11G17","Lichtenberg","898","52.53738","13.50067","Liebenwalder Str. 22","13055","21"
"11G18","Lichtenberg","899","52.5372064","13.4836641","Sandinostr. 8","13055","21"
"11G19","Lichtenberg","900","52.5437105","13.4880794","Roedernstr. 69-72","13053","21"
"11G21","Lichtenberg","901","52.5521","13.49837","Degnerstr. 71","13053","21"
"11G22","Lichtenberg","902","52.56339","13.51209","Am Breiten Luch 5","13053","21"
"11G23","Lichtenberg","903","52.503","13.50355","Lincolnstr. 67","10315","21"
"11G25","Lichtenberg","904","52.56846","13.50628","Wustrower Str. 28","13051","21"
"11G26","Lichtenberg","905","52.56405","13.51904","Randowstr. 45","13057","21"
"11G28","Lichtenberg","906","52.5691609","13.5317306","Wartiner Str. 23","13057","21"
"11G29","Lichtenberg","907","52.5724","13.52072","Prendener Str. 15","13059","21"
"11K01","Lichtenberg","908","52.50795","13.51556","Massower Str. 37","10315","21"
"11K02","Lichtenberg","909","52.51126","13.48143","Schulze-Boysen-Str. 12","10365","21"
"11K04","Lichtenberg","910","52.53573","13.48743","Sandinostr. 10","13055","21"
"11K05","Lichtenberg","911","52.5702368","13.52104","Prendener Str. 29","13059","21"
"11K06","Lichtenberg","912","52.5158921","13.4803798","Rathausstr. 8","10367","21"
"11K07","Lichtenberg","913","52.5678","13.50702","Wustrower Str. 26","13051","21"
"11K08","Lichtenberg","914","52.4963","13.51493","Sewanstr. 223","10319","21"
"11K09","Lichtenberg","915","52.53952","13.49572","Werneuchener Str. 15","13055","21"
"11K10","Lichtenberg","916","52.5700341","13.4798379","Malchower Chaussee 2","13051","21"
"11K11","Lichtenberg","917","52.55475","13.50438","Malchower Weg 54","13053","21"
"11P01","Lichtenberg","918","52.50976","13.47978","Schulze-Boysen-Str. 28","10365","21"
"11P03","Lichtenberg","919","52.50488","13.51307","Rummelsburger Str. 3","10315","21"
"11P04","Lichtenberg","920","52.48281","13.51442","Ehrlichstr. 63","10318","21"
"11P08","Lichtenberg","921","52.52547","13.48039","Möllendorffstr. 54","10367","21"
"11P09","Lichtenberg","922","52.51642","13.50061","Rüdigerstr. 76","10365","21"
"11P14","Lichtenberg","923","52.5250285","13.4651852","Franz-Jacob-Str. 2","10369","21"
"11S02","Lichtenberg","924","52.52392","13.4769","Alfred-Jung-Str. 19","10369","21"
"11S05","Lichtenberg","925","52.52822","13.50858","Herzbergstr. 79","10365","21"
"11S06","Lichtenberg","926","52.53183","13.47998","Bernhard-Bästlein-Str. 56","10367","21"
"11S07","Lichtenberg","927","52.5217","13.47301","Paul-Junius-Str. 15","10367","21"
"11S08","Lichtenberg","928","52.5627","13.5136","Am Breiten Luch 19","13053","21"
"11S10","Lichtenberg","929","52.5685746","13.4925193","Doberaner Str. 53","13051","21"
"11S12","Lichtenberg","930","52.50286","13.50898","Rummelsburger Str. 21","10315","21"
"11Y02","Lichtenberg","931","52.5280839","13.466717","Franz-Jacob-Str. 8","10369","21"
"11Y05","Lichtenberg","932","52.4918","13.52343","Römerweg 30-32","10318","21"
"11Y09","Lichtenberg","933","52.5691262","13.5493362","Ahrensfelder Chaussee 41","13057","21"
"11Y10","Lichtenberg","934","52.54188","13.49242","Werneuchener Str. 27 -28","13055","21"
"11Y11","Lichtenberg","935","52.5019563","13.4896352","Lückstr. 63","10317","21"
"12A01","Reinickendorf","936",,,"Lindauer Allee 23-25","13407","22"
"12A02","Reinickendorf","936",,,"Lindauer Allee 23-25","13407","22"
"12A05","Reinickendorf","936",,,"Lindauer Allee 23-25","13407","22"
"12A06","Reinickendorf","936",,,"Lindauer Allee 23-25","13407","22"
"12A07","Reinickendorf","936",,,"Lindauer Allee 23-25","13407","22"
"12A08","Reinickendorf","936",,,"Lindauer Allee 23-25","13407","22"
"12A09","Reinickendorf","936",,,"Lindauer Allee 23-25","13407","22"
"12K04","Reinickendorf","936",,,"Lindauer Allee 23-25","13407","22"
"12B01","Reinickendorf","937","52.5612027","13.3712905","Kühleweinstr. 5","13409","22"
"12B02","Reinickendorf","938","52.5979516","13.3304684","Cyclopstr. 1-5","13437","22"
"12B03","Reinickendorf","938","52.5979516","13.3304684","Cyclopstr. 1-5","13437","22"
"12E01","Reinickendorf","939","52.63206","13.28972","Welfenallee 3-7","13465","22"
"12E03","Reinickendorf","940","52.5786854","13.3061594","Soltauer Str. 18-22","13509","22"
"12E04","Reinickendorf","941","52.5835854","13.2850953","Am Borsigturm 13","13507","22"
"12E05","Reinickendorf","942","52.59556","13.28372","Waidmannsluster Damm 7C-7E","13507","22"
"12G01","Reinickendorf","943","52.5785116","13.2849359","Namslaustr. 49-57","13507","22"
"12G02","Reinickendorf","944","52.5622","13.3554","Baseler Str. 2-6","13407","22"
"12G03","Reinickendorf","945","52.5632189","13.3702922","Letteallee 39-41","13409","22"
"12G04","Reinickendorf","946","52.5732","13.3423","Humboldtstr. 8-13","13407","22"
"12G05","Reinickendorf","947","52.57569","13.36622","Büchsenweg 23A","13409","22"
"12G06","Reinickendorf","948","52.5696302","13.3756341","Hausotterplatz 4","13409","22"
"12G07","Reinickendorf","949","52.56864","13.3264","Auguste-Viktoria-Allee 95","13403","22"
"12G09","Reinickendorf","950","52.59299","13.34869","Tornower Weg 26-34","13439","22"
"12G10","Reinickendorf","951","52.5863","13.33039","Rathauspromenade 75","13437","22"
"12G11","Reinickendorf","952","52.5861","13.33753","Wilhelm-Gericke-Str. 7","13437","22"
"12G12","Reinickendorf","953","52.58822","13.30561","Miraustr. 100","13509","22"
"12G13","Reinickendorf","954","52.58822","13.2828","Treskowstr. 26-31","13507","22"
"12K01","Reinickendorf","954","52.58822","13.2828","Treskowstr. 26-31","13507","22"
"12G14","Reinickendorf","955","52.57359","13.28368","Ascheberger Weg 8A","13507","22"
"12G15","Reinickendorf","956","52.5872241","13.2949514","Ziekowstr. 80-88","13509","22"
"12G17","Reinickendorf","957","52.62662","13.23753","Stolpmünder Weg 45","13503","22"
"12G18","Reinickendorf","958","52.5761289","13.2279383","Gerlindeweg 011-23","13505","22"
"12G19","Reinickendorf","959","52.60851","13.31718","Artemisstr. 22-26","13469","22"
"12G20","Reinickendorf","960","52.6175155","13.3393955","Am Vierrutenberg 59-65","13469","22"
"12G21","Reinickendorf","961","52.61528","13.32062","Seebadstr. 42-43","13467","22"
"12G22","Reinickendorf","962","52.61309","13.30379","Freiherr-vom-Stein-Str. 31","13467","22"
"12G23","Reinickendorf","963","52.63826","13.28757","Gollanczstr. 18-24","13465","22"
"12G24","Reinickendorf","964","52.63695","13.27237","Laurinsteig 39-45","13465","22"
"12G26","Reinickendorf","965","52.5952","13.36016","Dannenwalder Weg 163-165","13439","22"
"12G27","Reinickendorf","966","52.60169","13.35807","Senftenberger Ring 27","13435","22"
"12G28","Reinickendorf","967","52.609905","13.335731","Waldshuter Zeile 6","13469","22"
"12G29","Reinickendorf","968","52.57359","13.32554","Kienhorststr. 67-79","13403","22"
"12G30","Reinickendorf","969","52.574","13.30985","Foxweg 15","13403","22"
"12G31","Reinickendorf","970","52.6012","13.34506","Finsterwalder Str. 56","13435","22"
"12G32","Reinickendorf","971","52.59744","13.36465","Wilhelmsruher Damm 90-94","13439","22"
"12G33","Reinickendorf","972","52.6038786","13.359443","Senftenberger Ring 41","13435","22"
"12S03","Reinickendorf","972","52.6038786","13.359443","Senftenberger Ring 41","13435","22"
"12G34","Reinickendorf","973","52.6131288","13.2271414","Schulzendorfer Str. 99","13503","22"
"12K02","Reinickendorf","974","52.60511","13.35859","Senftenberger Ring 49","13435","22"
"12K03","Reinickendorf","975","52.57153","13.31463","Auguste-Viktoria-Allee 37","13403","22"
"12K05","Reinickendorf","976","52.56976","13.36575","Breitkopfstr. 66-80","13409","22"
"12K06","Reinickendorf","977","52.5814739","13.3009471","Sommerfelder Str. 5-7","13509","22"
"12K07","Reinickendorf","978","52.58995","13.33545","Alt-Wittenau 8-12","13437","22"
"12K08","Reinickendorf","979","52.60028","13.34229","Finsterwalder Str. 52-54","13435","22"
"12K09","Reinickendorf","980","52.61574","13.29912","Heidenheimer Str. 53-54","13467","22"
"12K10","Reinickendorf","981","52.62349","13.29375","Frohnauer Str. 74-80","13467","22"
"12S05","Reinickendorf","981","52.62349","13.29375","Frohnauer Str. 74-80","13467","22"
"12K11","Reinickendorf","982","52.61914","13.22771","Kurzebracker Weg 40-46","13503","22"
"12P01","Reinickendorf","983","52.60942","13.31287","Fürst-Bismarck-Str. 8-10","13469","22"
"12P04","Reinickendorf","983","52.60942","13.31287","Fürst-Bismarck-Str. 8-10","13469","22"
"12P02","Reinickendorf","984","52.60041","13.36429","Treuenbrietzener Str. 28","13439","22"
"12P03","Reinickendorf","985","52.6316059","13.2832629","Benediktinerstr. 11-19","13465","22"
"12P06","Reinickendorf","986","52.620403","13.3029482","Falkentaler Steig 10","13467","22"
"12P07","Reinickendorf","987","52.6069246","13.3405666","Wittenauer Str. 114 ","13435","22"
"12P10","Reinickendorf","988","52.61043","13.24916","Keilerstr. 17A","13503","22"
"12P11","Reinickendorf","989","52.60471","13.31549","Bondickstr. 8-9","13469","22"
"12P14","Reinickendorf","990","52.611906","13.2463611","Am Bärensprung 58","13503","22"
"12S01","Reinickendorf","991","52.5842725","13.3048731","Tietzstr. 26-28","13509","22"
"12S02","Reinickendorf","992","52.62034","13.30794","Olafstr. 32-34","13467","22"
"12S07","Reinickendorf","992","52.62034","13.30794","Olafstr. 32-34","13467","22"
"12S04","Reinickendorf","993","52.59434","13.33052","Eichborndamm 276-284","13437","22"
"12S06","Reinickendorf","994","52.58901","13.30389","Miraustr. 120-126","13509","22"
"12Y01","Reinickendorf","995","52.56959","13.35743","Emmentaler Str. 67","13407","22"
"12Y02","Reinickendorf","996","52.57145","13.36873","Reginhardstr. 172","13409","22"
"12Y03","Reinickendorf","997","52.59176","13.28891","Hatzfeldtallee 2-4","13509","22"
"12Y04","Reinickendorf","998","52.5921484","13.2970608","Tile-Brügge-Weg 63","13509","22"
"12Y05","Reinickendorf","999","52.6168336","13.3033817","Fellbacher Str. 18-19","13467","22"
"12Y06","Reinickendorf","1000","52.57508","13.24739","Scharfenberg (Insel) 235Z","13505","22"
"12Y07","Reinickendorf","1001","52.5989977","13.3178651","Place Moliere 4","13469","22"
"12Y08","Reinickendorf","1002","52.59848","13.35224","Königshorster Str. 10","13439","22"
"06G32",,"547","52.449314","13.3429799","Karl-Stieler-Str. 10-11",,"23"
