"bsn","meal","name","phonenumber","remarks","schoolnumber","wwwaddress","institutionprovider_id","address_id"
"01A01",,"1. Schulpraktisches Seminar (S) Mitte","4677779710",,,,"2","1003"
"01A02",,"2. Schulpraktisches Seminar (S) Mitte","4677779710",,,,"2","1003"
"01A03",,"3. Schulpraktisches Seminar (L) Mitte","4677779710",,,,"2","1003"
"01A04",,"Berlin-Kolleg","901838210",,,"http://www.berlin-kolleg.de","2","1004"
"01B01",,"OSZ Banken und Versicherungen","39884110",,,"http://www.osz-banken-versicherungen.de","2","1005"
"01B02","Mittagessenversorgung durch eigene Cafeteria","Staatliche Technikerschule Berlin","3900060",,,"http://www.technikerschule-berlin.de","2","1006"
"01B03",,"OSZ Kommunikations-, Informations- und Medientechnik","493070",,,"http://www.oszkim.de","2","1007"
"01B04",,"OSZ Gesundheit I","4530800",,,"http://www.osz-gesundheit.de","2","1008"
"01B05",,"Staatliche Wirtschaftsfachschule für Hotellerie und Gastronomie Berlin","20613130",,,"http://www.hotelfachschule-berlin.de","2","1009"
"01E03",,"ETI Schauspielschule Berlin","27593109",,,"http://www.eti-schauspielschule-berlin.de","1","1010"
"01E08",,"Games Academy","29779120",,,"http://games-academy.de","1","1010"
"01E10",,"SiliconStudioAcademy-Berlin","45601331",,,"http://www.siliconstudio.de","1","20"
"01E12",,"SSI am Alex Institut für Tourismus und Marketing","28045379",,,"http://www.ssi-berlin.de","1","21"
"01E13",,"Seminar für Waldorfpädagogik Berlin","6187073",,,"http://www.lehrer-seminar-berlin.de","1","22"
"01E16",,"ProInform International Academy Berlin","22334433",,,"http://home.arcor.de/pr/proinform","1","23"
"01E18","Mittagessenversorgung","BEST-Sabel-Touristikakademie","64094985",,,"http://www.best-sabel.de","1","24"
"01E20",,"Pflegeschule am Brandenburger Tor","22489965",,,,"1","25"
"01E21",,"IN.D INSTITUTE OF DESIGN","27595190",,,"http://www.ind-berlin.de","1","26"
"01E25",,"GPB Gesellschaft für Personalentwicklung und Bildung mbH","9339480",,,"http://www.gpb.de","1","27"
"01E26",,"Berlitz Sprachschule Berlin Mitte","2042124",,,"http://www.berlitz.de/berlin","1","28"
"01E27",,"pixelapostel GmbH","667767630",,,"http://www.pixelapostel.de","1","29"
"01E28",,"lingua franca","86398080",,,"http://www.lingua-franca.de","1","30"
"01E29",,"inlingua Sprachcenter Berlin GmbH","88471190",,,"http://www.inlingua-berlin.de","1","31"
"01E30",,"Ecole Voltaire Berlin","4110015",,,"http://www.ecolevoltaire.de","1","32"
"01E31",,"Maskenbildnerschule Hasso von Hugo GmbH","6135620",,,"http://www.maskenbildnerschule.de","1","33"
"01E32",,"Wave Akademie für Digitale Medien","28869519",,,"http://www.wave-akademie.de","1","34"
"01G01",,"Grundschule am Arkonaplatz","48625680",,,"http://www.grundschuleamarkonaplatz.de","2","35"
"01G02",,"Papageno-Grundschule","30881711",,,"http://www.papageno.cidsnet.de","2","36"
"01G04","Mittagessenversorgung durch den Anbieter Sunshine Catering","Kastanienbaum-Grundschule","275816330",,,"http://www.kastanienbaumgrundschule.de","2","37"
"01G05",,"Grundschule Neues Tor","24088330",,,"http://www.neues-tor.de","2","38"
"01G07","Mittagessenversorgung durch den Anbieter Warnhoff","GutsMuths-Grundschule","2408386",,,"http://www.gutsmuths-g.cidsnet.de","2","39"
"01G08","Mittagessenversorgung durch die Technische Jugendfreizeit- u. Bildungsgesellschaft gGmbH","Grundschule am Brandenburger Tor","20629430",,,"http://www.Grundschule-am-Brandenburger-Tor.de","2","40"
"01G10",,"City-Grundschule","28449060",,,"http://www.city-grundschule.de","2","41"
"01G11","Mittagessenversorgung durch den Anbieter LUNA","Kurt-Tucholsky-Grundschule","3974429310",,,"http://www.kurt-tucholsky-grundschule.de","2","42"
"01G15","Mittagessenversorgung","Anne-Frank-Grundschule","20629180",,,"http://anne-frank-grundschule.de","2","43"
"01G16","Mittagessenversorgung durch den Anbieter LUNA","Moabiter Grundschule","30208630",,,"http://www.moabiter-grundschule.de","2","44"
"01G18","Mittagessenversorgung","Carl-Bolle-Grundschule","397457810",,,"http://www.carl-bolle.cidsnet.de","2","45"
"01G19",,"Hansa-Grundschule","39806430",,,"http://www.hansa@hansa.cidsnet.de","2","46"
"01G24",,"Gottfried-Röhl-Grundschule","45081110",,,"http://www.gottfried-roehl-grundschule.de","2","47"
"01G25",,"Rudolf-Wissell-Grundschule","49799940",,,"http://www.rudolf-wissell-grundschule.de","2","48"
"01G27",,"Gesundbrunnen-Grundschule","493015660",,,"http://www.gesundbrunnen-grundschule.de","2","49"
"01G28","Mittagessenversorgung","Brüder-Grimm-Grundschule","4530840",,,"http://brueder-grimm.cidsnet.de","2","50"
"01G29",,"Wilhelm-Hauff-Grundschule","48490810",,,"http://wilhelm-hauff-grundschule.de","2","51"
"01G31",,"Wedding-Grundschule","901844250",,,"http://www.wedding-schule.de","2","52"
"01G32","Frühstück- und Mittagessenversorgung","Carl-Kraemer-Grundschule","4998993",,,"http://www.carl-kraemer.be.schule.de","2","53"
"01G35","Mittagessenversorgung durch den Anbieter 3 Köche","Humboldthain-Grundschule","46777330",,,"http://www.humboldthain-gs.cidsnet.de","2","54"
"01G36",,"Andersen-Grundschule","493015410",,,"http://www.andersen.cidsnet.de","2","55"
"01G37","Mittagessenversorgung durch schuleigene Küche","Heinrich-Seidel-Grundschule","4677669210",,,"http://www.seidel-gs.de","2","56"
"01G38","Mittagessenversorgung durch den Anbieter 3 Köche","Gustav-Falke-Grundschule","467779960",,,"http://www.gustav-falke-g.cidsnet.de","2","57"
"01G39",,"Vineta-Grundschule","467768660",,,"http://www.vineta.cidsnet.de","2","58"
"01G40",,"Möwensee-Grundschule","45979210",,,"http://www.moewensee-schule.de","2","59"
"01G41","Mittagessenversorgung durch Sunshine Catering","Erika-Mann-Grundschule","45085510",,,"http://www.erika-mann-grundschule.com","2","60"
"01G42",,"Anna-Lindh-Schule (Grundschule)","45307530",,,"http://www.annalindh.cidsnet.de","2","61"
"01G43","Mittagessenversorgung","Albert-Gutzmann-Schule (Grundschule)","46905960",,,"http://www.gutzmannschule.de","2","62"
"01G44",,"Allegro-Grundschule","257572710",,,"http://www.allegro-grundschule.de","2","63"
"01G45",,"Leo-Lionni-Grundschule","469799670",,,"http://www.leo-lionni-grundschule.de","2","64"
"01G46","Mittagessenversorgung","46. Schule (Grundschule)","84712109",,,"http://www.schuleamkoppenplatz.de","2","65"
"01G47",,"Miriam-Makeba-Grundschule","39405210",,,"http://Gotzkowsky-Grundschule.de","2","66"
"01K01","Mittagessenversorgung","Willy-Brandt-Schule","901847310",,,"http://www.willy-brandt-oberschule.de","2","67"
"01K02","Mittagessenversorgung","Ernst-Schering-Schule","45308710",,,"http://www.eso.cidsnet.de","2","68"
"01K03","Mittagessenversorgung durch Pfefferwerk Stadtkultur gGmbH","Ernst-Reuter-Schule","467779910",,,"http://www.ernst-reuter-oberschule.de","2","69"
"01K04","Mittagessenversorgung","Heinrich-von-Stephan-Schule (Gemeinschaftsschule)","39063130",,,"http://www.hvstephan.de","2","70"
"01K06","Mittagessenversorgung durch Schülerfirma","Herbert-Hoover-Schule (Integrierte Sekundarschule)","46061730",,,"http://www.herbert-hoover-sekundarschule.de","2","71"
"01K07","Mittagessenversorgung, Cafeteria","Hemingway-Schule","200892210",,,"http://www.hemingway-oberschule.de","2","72"
"01K08","Mittagessenversorgung durch den Anbieter 3 Köche","Schule am Schillerpark (Integrierte Sekundarschule)","45799450",,,"http://www.Schule-am-Schillerpark.de","2","73"
"01K09","Mittagessenversorgung","Hedwig-Dohm-Schule (Integrierte Sekundarschule)","38377131",,,"http://www.hedwig-dohm-os.de","2","74"
"01K10",,"Theodor-Heuss-Schule (Gemeinschaftsschule)","46905340",,,,"2","75"
"01P01",,"Evangelische Schule Berlin-Mitte (Gemeinschaftsschule)","70725482",,,"http://www.esbm.de","1","76"
"01P03","Mittagessenversorgung, koscha","Jüdisches Gymnasium Moses Mendelssohn","7262657100",,,"http://www.josberlin.de","1","77"
"01P04",,"Freie Waldorfschule Berlin Mitte","80097580",,,"http://www.mitte.waldorf.net","1","22"
"01P05",,"Katholische Schule Sankt Paulus (Grundschule)","3954196",,,"http://www.st-paulus-schule.de","1","78"
"01P06",,"Canisius-Kolleg (Gymnasium)","26481105",,,"http://www.canisius.de","1","79"
"01P07",,"Hoffnungstaler Stiftung Lobetal Lazarus-Schulen","467050",,,"http://www.lazarus-diakonie.de","1","80"
"01P11",,"Plan B Altenpflegeschule","2478185770",,,"http://www.planbgmbh.de","1","81"
"01P13",,"Freie Schule am Mauerpark (Grundschule)","42022690",,,"http://www.freieschuleberlin.de","1","82"
"01P14","Mittagessenversorgung","BEST-Sabel-gemeinützige Bildungsgesellschaft","4284910",,,"http://www.best-sabel.de","1","83"
"01P16",,"Berlin Metropolitan School (Integrierte Sekundarschule)","88727390",,,"http://www.metropolitanschool.com/en/home.html","1","84"
"01P17",,"AFBB Akademie für berufliche Bildung gGmbH","2888690",,,,"1","85"
"01P18","Mittagessenversorgung durch den Anbieter Sodexo","Bilinguale Schule Phorms Berlin Mitte","46798630",,,"http://www.berlin-mitte.phorms.de","1","86"
"01P22","Mittagessenversorgung durch eigene Schulküche; Essen für Allergiker","Berlin Cosmopolitan School","68833230",,,"http://www.cosmopolitanschool.de","1","87"
"01P23",,"Evangelische Schule Berlin Zentrum (Gemeinschaftsschule)","24630378",,,"http://www.ev-schule-zentrum.de","1","88"
"01P24",,"IB-GIS mbH -  Medizinische Akademie Berlin","25292090",,,"http://www.med-akademie.de","1","89"
"01P25",,"Private deutsch-russische Lomonossow-Grundschule zu Berlin-Mitte","74785546",,,"http://www.lomonossow-grundschule.de ","1","90"
"01P33",,"BBA-Akademie für Immobilienwirtschaft e.V.","2308550",,,"http://www.bba-campus.de","1","90"
"01P34",,"Techn. Jugendfreizeit-u. Bildungsgesellschaft gGmbH","979913171",,,"http://www.tjfbg.de","1","40"
"01P36",,"BTB Bildungszentrum GmbH","24083200",,,"http://www.btb-bildungszentrum.de","1","91"
"01P37",,"Humanistische Fachschule für Sozialpädagogik","613904646",,,"httw://www.humanischische-fachschule.de","1","92"
"01P38",,"G.A.L.B Förderung gGmbH","40059890",,,"http://www.galb.org","1","93"
"01P39",,"GPB College","47370818",,,"http://www.GPB-Berlin.de","1","27"
"01P40",,"Vivantes-Berufsfachschule für Sozialassistenz","30390652",,,"http://www.vivantes.de","1","94"
"01P42",,"WWV Bildungsakademie gGmbH","5146930",,,,"1","95"
"01P43",,"INHAUS Akademie-Berufsfachschule für Altenpflege","24000640",,,"http://www.inhaus-berlin.de","1","96"
"01P44",,"Nestor-Berufsfachschule für Altenpflege","24045660",,,"http://www.nestor-bildung.de","1","97"
"01P45",,"WeTeK-Fachschule für Sozialpädagogik","44383365",,,"thhp://www.wetek.de","1","98"
"01P46",,"DDA Destiny Diversity Academy GmbH","76236766",,,"http://www.wbstraining.de","1","99"
"01S01",,"Schule am Zille-Park","278794330",,,"http://www.schule-am-zillepark.cidsnet.de","2","100"
"01S05",,"Schule in der Charité","450566592",,,,"2","101"
"01S06","Mittagessenversorgung","Albert-Gutzmann-Schule","46905960",,,"http://www.gutzmannschule.de","2","62"
"01S07",,"Charlotte-Pfeffer-Schule","2465740",,,"http://www.arno-fuchs-schule.cidsnet.de","2","102"
"01Y02","Mittagessenversorgung","John-Lennon-Gymnasium","40500110",,,"http://www.jlgym-berlin.de","2","103"
"01Y04","Mittagessenversorgung durch den Anbieter apetito / Menü-Taxi","Musikgymnasium Carl Philipp Emanuel Bach","40505830",,,"http://www.musikgymnasium-berlin.de","2","104"
"01Y07","Mittagessenversorgung","Französisches Gymnasium","25758910/11",,,"http://www.fg-berlin.de","2","105"
"01Y08","Mittagessenversorgung, Cafeteria","Lessing-Gymnasium","45798510",,,"http://www.lessing-gymnasium-berlin.eu","2","106"
"01Y09","Mittagessenversorgung durch eigene Cafeteria","Diesterweg-Schule (Gymnasium)","46309620",,,"http://www.diesterweg.cidsnet.de","2","107"
"01Y11","Mittagessenversorgung, Cafeteria","Max-Planck-Schule (Gymnasium)","847118830",,,"http://www.mpg-berlin.de","2","108"
"01Y12",,"Gymnasium Tiergarten","398009710",,,"http://gymnasium-tiergarten.de","2","109"
"02A01",,"1. Schulpraktisches Seminar (L) Friedrichshain-Kreuzberg","22502561",,,,"2","110"
"02A02",,"2. Schulpraktisches Seminar (S) Friedrichshain-Kreuzberg","22502561",,,,"2","110"
"02A03",,"3. Schulpraktisches Seminar (L) Friedrichshain-Kreuzberg","22502551",,,,"2","110"
"02A04",,"4. Schulpraktisches Seminar (L) Friedrichshain-Kreuzberg","22502551",,,,"2","110"
"02A05",,"5. Schulpraktisches Seminar (L) Friedrichshain-Kreuzberg","22502551",,,,"2","110"
"02A06",,"6. Schulpraktisches Seminar (L) Friedrichshain-Kreuzberg","22502551",,,"http://seminarsopaed.be.lo-net2.de","2","110"
"02A07",,"7. Schulpraktisches Seminar (L) Friedrichshain-Kreuzberg","22502551",,,,"2","110"
"02A08",,"8. Schulpraktisches Seminar (S) Friedrichshain-Kreuzberg","22502561",,,,"2","111"
"02B01","Mittagessenversorgung","August-Sander-Schule","29362760",,,"http://www.august-sander-schule.de","2","112"
"02B02",,"Hans-Böckler-Schule (OSZ Konstruktionsbautechnik)","61670510",,,"http://www.osz-kt.de","2","113"
"02B03",,"OSZ Bekleidung und Mode","25391511",,,"http://www.osz-bekleidung-mode.de","2","114"
"02B04","Mittagessenversorgung","OSZ Handel I","6112960",,,"http://www.oszhandel.de","2","115"
"02B05","Mittagessenversorgung","Jane-Addams-Schule (OSZ Sozialwesen)","4202760",,,"http://www.osz-soz.de","2","116"
"02E01",,"Handels- & Finanzakademie GmbH","2921473",,,"http://www.hfa.de","1","117"
"02E03",,"Friedländer-Schule","29669413",,,"http://www.friedlaender.de","1","118"
"02E04",,"Berliner Schule für Schauspiel","4279600",,,"http://www.schauspielschule-berlin.de","1","119"
"02E05",,"Schule für Erwachsenenbildung e.V.","6937048",,,"http://www.sfeberlin.de","1","120"
"02E06",,"Shiatsuschule Kreuzberg","6123683",,,"http://www.shiatsu-schule.de","1","121"
"02E07",,"btk Berliner Technische Kunstschule Laureate Academies GmbH","44048018",,,"http://www.htk-berlin.de","1","122"
"02E10",,"DIE ETAGE-Schule für die Darstellenden Künste e.V.","6912095",,,"http://www.dieetage.de","1","123"
"02E11",,"REDUTA Berlin-Schauspielschule","6935549",,,"http://www.reduta-berlin.de","1","124"
"02E12",,"Konservatorium für türkische Musik in Berlin","69504601",,,"http://www.btmk.de","1","125"
"02E14",,"Computer-Bildungszentrum","6124434",,,"http://www.calp.de","1","126"
"02E15",,"TREND-Schule","6146000",,,"http://www.trend-schule.de","1","127"
"02E17",,"BWK Bildungswerk in Kreuzberg","6179290",,,"http://www.bwk-berlin.de","1","128"
"02E18",,"Schule für F.M. Alexander-Technik","69506088",,,"http://www.alexandertechnik-armon.de","1","129"
"02E20",,"Mediadesign Hochschule für Design und Informatik GmbH","39926660",,,"http://www.mediadesign.de","1","130"
"02E21",,"EUROPA-Sprachenschule","6188863",,,,"1","131"
"02E23",,"Michael-Tschechow-Studio Berlin","61108940",,,"http://www.mtsb.de/","1","132"
"02E24",,"Alexander-Technik-Schule","6142418",,,"http://www.alexander-technik-schule.de","1","133"
"02E26",,"DEKRA Medienakademie","290080207",,,"http://www.dekra.de","1","134"
"02E27",,"Sprachenatelier Berlin","27589855",,,"http://www.sprachenatelier-berlin.de","1","135"
"02E28",,"Die Managementschule Berlin","27574893",,,"http://www.bbzev.de","1","136"
"02E29",,"SPRACHwerk","44731949",,,,"1","137"
"02E30",,"FORUM Berufsbildung e.V.","2590080",,,"http://www.forum-berufsbildung.de","1","138"
"02E32",,"EURASIA-Institut","8639837",,,"http://www.eurasia-institute.net","1","139"
"02E33",,"gebaerdenservive.de","67926821",,,"http://gebaerdenservice.de","1","140"
"02E34",,"Sabine Roth-Ballettschule","7069250",,,,"1","141"
"02E35",,"S4G School for Games GmbH","96595244",,,"http://www.school4games.net","1","142"
"02E36",,"AID Berlin Akademie für Illustration und Design Berlin GmbH","91206655",,,"http://www.aidberlin.de","1","123"
"02E37",,"noisy Academy","25933030",,,"http://www.noisy-academy.com","1","143"
"02E38",,"Ulrich Ernitz & Filomena Tinaburri GbR","6158173",,,,"1","144"
"02E39",,"f/16 Schule für Fotografie","34399245",,,"http://www.f16-schule.de","1","145"
"02G01","Mittagessenversorgung","Spartacus-Grundschule","42024930",,,"http://www.grundschule-friedrichshain.de","2","146"
"02G02",,"Hausburg-Grundschule","93956760",,,"http://www.hausburgschule.de","2","147"
"02G03","Mittagessenversorgung durch den Anbieter LUNA","Justus-von-Liebig-Grundschule","447283211",,,"http://www.justus-von-liebig-gs.cidsnet.de","2","148"
"02G04",,"Pettenkofer-Grundschule","3229811911",,,"http://www.pettenkofer-grundschule.de","2","149"
"02G05",,"Blumen-Grundschule","3198702911",,,"http://www.blumen-grundschule.de","2","150"
"02G07","Mittagessenversorgung","Ludwig-Hoffmann-Grundschule","293474211",,,"http://www.ludwig-hoffmann-gs.cidsnet.de","2","151"
"02G08","Mittagessenversorgung durch den Anbieter Thomas Warnhoff GmbH","Grundschule am Traveplatz","48488000",,,"http://www.grundschule-am-traveplatz.de","2","152"
"02G09","Mittagessenversorgung","Zille-Grundschule","48488040",,,"http://www.Zille-Grundschule.de","2","153"
"02G10","Mittagessenversorgung durch den Anbieter Thomas Warnhoff","Modersohn-Grundschule","48488340",,,"http://www.modersohn-schule.de","2","154"
"02G11",,"Thalia-Grundschule","29347830",,,"http://www.thalia-grundschule.cidsnet.de","2","155"
"02G12","Mittagessenversorgung durch Schildkröte GmbH Berlin","Kurt-Schumacher-Grundschule","50585931",,,"http://www.kurt-schumacher-grundschule.de","2","156"
"02G13",,"Charlotte-Salomon-Grundschule","50587511",,,"http://www.charlotte-salomon-grundschule.de","2","157"
"02G14","Mittagessenversorgung","Galilei-Grundschule","50585811",,,"http://www.galilei-grundschule.de","2","158"
"02G15","Mittagessenversorgung","E.-O.-Plauen-Grundschule","61784211",,,"http://www.eoplauen-schule.de","2","159"
"02G16","Mittagessenversorgung durch den Anbieter Greens Unlimited","Lenau-Grundschule","81858811",,,"http://lenau.net","2","160"
"02G18","Mittagessenversorgung","Nürtingen-Grundschule","61784231",,,"http://www.nuertingen-grundschule.de","2","161"
"02G19","Mittagessenversorgung","Fanny-Hensel-Grundschule","50586812",,,"http://www.Fanny-Hensel-Grundschule.de","2","162"
"02G20","Mittagessenversorgung","Bürgermeister-Herz-Grundschule","3198702211",,,"http://www.bmh-schule.de","2","163"
"02G21","Mittagessenversorgung","Reinhardswald-Grundschule","902985911",,,"http://www.reinhardswald-grundschule.cidsnet.de","2","164"
"02G22",,"Jens-Nydahl-Grundschule","50586111",,,"http://www.jng.cidsnet.de","2","165"
"02G23",,"Fichtelgebirge-Grundschule","22502811",,,"http://www.fichtelgebirge-gs.cidsnet.de","2","166"
"02G24","Mittagessenversorgung","Otto-Wels-Grundschule","50585311",,,"http://www.owg-berlin.de","2","167"
"02G26","Mittagessenversorgung","Lemgo-Grundschule","50585711",,,"http://www.lemgo-grundschule.de","2","168"
"02G27","Mittagessenversorgung durch den Anbieter LUNA","Hunsrück-Grundschule","2250 3111",,,"http://www.Hunsrueck-Grundschule.de","2","169"
"02G29","Mittagessenversorgung durch den Anbieter LUNA","Heinrich-Zille-Grundschule","22503611",,,"http://www.Heinrich-Zille-Grundschule.de","2","170"
"02G31","Mittagessenversorgung","Adolf-Glaßbrenner-Grundschule","50587531",,,"http://www.Adolf-Glassbrenner-Schule.cidsnet.de","2","171"
"02G32","Mittagessenversorgung","Clara-Grunwald-Grundschule","81888311",,,"http://www.clara-grunwald.cidsnet.de","2","172"
"02G33",,"Aziz-Nesin-Grundschule","902983731",,,"http://www.aziz-g.cidsnet.de","2","173"
"02G34",,"34. Schule (Grundschule)","2464789211",,,,"2","174"
"02G35",,"Rosa-Parks-Grundschule","22502511",,,"http://www.rosa-parks-grundschule.de","2","175"
"02K01","Mittagessenversorgung","Ellen-Key-Schule","29773060",,,"http://www.eko-online.net","2","176"
"02K02","Mittagessenversorgung","Carl-von-Ossietzky-Schule (Gemeinschaftsschule)","2250277111",,,"http://www.cvo-berlin.de","2","177"
"02K03","Mittagessenversorgung durch den Anbieter LUNA","Hector-Peterson-Schule","50587711",,,"http://www.hpo-berlin.de","2","178"
"02K04","Mittagessenversorgung","Lina-Morgenstern-Schule (Gemeinschaftsschule)","81858711",,,"http://www.lmo.cidsnet.de","2","179"
"02K05","Mittagessenversorgung","Schule am Königstor (Integrierte Sekundarschule)","447283411",,,"http://www.sekundarschule-weinstrasse.cidsnet.de","2","180"
"02K06","Mittagessenversorgung durch den Anbieter LUNA","Emanuel-Lasker-Schule","2910807",,,"http://www.emanuel-lasker-os.cidsnet.de","2","181"
"02K07","Mittagessenversorgung durch den Anbieter LUNA","Georg-Weerth-Schule","24656714",,,"http://www.georg-weerth-schule.de","2","182"
"02K08","Mittagessenversorgung","8. Schule (Integrierte Sekundarschule)","22503511",,,"http://www.schule-skalitzer.de","2","183"
"02K09","Mittagessenversorgung","9. Schule (Integrierte Sekundarschule)","50586011",,,"http://www.wir-sind-graefe.com","2","184"
"02K10","Mittagessenversorgung","10. Schule (Integrierte Sekundarschule)","50585611",,,"http://ferdinand-freiligrath-schule.de","2","185"
"02P02",,"DRK-Bildungswerk Nord gGmbH","2934800",,,"http://www.drk-fsa.de","1","186"
"02P03",,"Islamische Grundschule","69507860",,,"http://www.islamische-grundschule.de","1","187"
"02P04",,"Freie Waldorfschule Kreuzberg","61510100",,,"http://www.fwsk.net","1","188"
"02P05",,"Fachschulen der Stiftung Sozialpädagogisches Institut Berlin","25937390",,,"http://www.stiftung-spi.de","1","189"
"02P07",,"Campus Berufsbildung e.V.","25938643",,,"http://www.campus-bb.de","1","190"
"02P08",,"Sonderschule mit dem Förderschwerpunkt \"Körperliche und motorische Entwicklung\"","61510100",,,"http://www.fwsk.net","1","188"
"02P09",,"Freie Schule Kreuzberg (Grundschule)","69535365",,,"http://freieschulekreuzberg.de","1","191"
"02P10",,"Vitanas Akademie gGmbH","5498860",,,"http://www.vitanas.de","1","192"
"02P11",,"Berlin Bilingual School (BeBiS)","27582915",,,"http://www.berlin-kids-international.de","1","193"
"02P12","Mittagessenversorgung durch den Anbieter Gourmello e.V.","BIP-Kreativitätsgrundschule Berlin Friedrichshain","29035117",,,"http://www.kreaschulzentrum.de","1","194"
"02P13",,"Netzwerk-Schule (Gemeinschaftsschule)","40393340",,,"http://www.netzwerkspielkultur.de/schule","1","195"
"02P14",,"Freie Fachschule für Sozialpädagogik","25927144",,,"http://freie-fachschule-berlin.de","1","196"
"02P16",,"BWK Berufsfachschule für Altenpflege","6179290",,,"http://www.bwk-berlin.de","1","128"
"02P18",,"Pädalogik - Fachschule für Sozialpädagogik","347476172",,,"http://www.paedalogik.de","1","197"
"02P19",,"Forum Berufsbildung","2590080",,,"http://www.forum-berufsbildung.de","1","138"
"02P20",,"Berufsfachschulen der WBS Training Schulen gGmbH","24326902",,,"http://www.wbs-schulen.de","1","198"
"02P22",,"Pro Inklusio-Fachschule für Sozialpädagogik","20078010",,,"http://www.procedo-berlin.com","1","199"
"02P23",,"concept gmbh-Berufsfachschule für Altenpflege","48485850",,,"http://www.concept-berlin.de","1","200"
"02P25",,"Evangelische Schule Berlin-Friedrichshain (Grundschule)","32296700",,,"http://www.ev-schule-friedrichshain.de","1","201"
"02P26",,"VIA-Berufsfachschule für Altenpflege","25373927",,,"http://www.via-berufsfachschule.de","1","202"
"02P27",,"bfw-Berufsfachschule für Altenpflege","42025430",,,"http://www.bfw.de","1","203"
"02P28",,"D&D Bildungsagentur GmbH","31165291",,,"http://www.dd-bildungsagentur.de","1","204"
"02S01",,"Schule am Friedrichshain","293474231",,,"http://www.schule-am-friedrichshain.schule-berlin.net","2","205"
"02S02",,"Gustav-Meyer-Schule","50586131",,,"http://www.gustav-meyer-schule.cidsnet.de","2","206"
"02S03","Mittagessenversorgung durch den Anbieter Sodexo","Margarethe-von-Witzleben-Schule","420249209",,,"http://www.witzleben-schule.de","2","207"
"02S04","Mittagessenversorgung","Bernhard-Rose-Schule","246568211",,,"http://www.bernhard-rose-schule.de","2","208"
"02S05",,"Paul-Dohrmann-Schule","22502511",,,"http://pauldohrmann.cidsnet.de","2","110"
"02S06",,"Liebmann-Schule","50585831",,,"http://www.liebmann-schule.cidsnet.de","2","158"
"02Y01","Mittagessenversorgung durch den Anbieter Sodexo","Andreas-Oberschule","29369020",,,"http://www.andreas-gym.de","2","209"
"02Y03","Mittagessenversorgung durch den Anbieter Menütaxi","Heinrich-Hertz-Oberschule","42262080",,,"http://www.heinrich-hertz-schule.de","2","210"
"02Y04","Mittagessenversorgung durch den Anbieter LUNA","Georg-Friedrich-Händel-Oberschule","2250279011",,,"http://www.haendelgym.de","2","211"
"02Y05","Mittagessenversorgung","Dathe-Oberschule","2936063",,,"http://www.dathe-oberschule.de","2","212"
"02Y06","Mittagessenversorgung","Leibniz-Oberschule","50586711",,,"http://www.leibnizschule-berlin.de","2","213"
"02Y07","keine Mittagessenversorgung, Cafeteria","Robert-Koch-Oberschule","50585731",,,"http://www.Robert-Koch-Oberschule.de","2","214"
"02Y08","Mittagessenversorgung durch den Anbieter LUNA","Hermann-Hesse-Oberschule","50586031",,,"http://www.b.shuttle.de/hhos","2","215"
"03A04",,"Abendgymnasium Prenzlauer Berg","4254218",,,"http://www.abendgymnasium-berlin.de","2","216"
"03A05",,"Volkshochschule Pankow","40048437",,,"http://www.zbw-pankow.de","2","217"
"03B02",,"Berufliche Schule für Sozialwesen Pankow","50019910",,,"http://www.obf-fs-pankow.cidsnet.de","2","218"
"03B03",,"Martin-Wagner-Schule (OSZ Bautechnik II)","912052105",,,"http://www.oszbau2.de","2","219"
"03B04","Mittagessenversorgung","Brillat-Savarin-Schule (OSZ Gastgewerbe)","9142660",,,"http://www.osz-gastgewerbe.de","2","220"
"03B06",,"Konrad-Zuse-Oberschule","9160940",,,"http://www.konradzuseschuleberlin.de","2","221"
"03B07","Mittagessenversorgung","Elinor-Ostrom-Schule (OSZ Bürowirtschaft und Dienstleistungen)","42185411",,,"http://www.oszbwd.de","2","222"
"03B08","Vollverpflegung","Staatliche Ballettschule und Schule für Artistik","40577911",,,"http://www.ballettschule-berlin.de","2","223"
"03B09","Mittagessenversorgung","Marcel-Breuer-Schule (OSZ Holztechnik, Glastechnik und Design)","912052175",,,"http://www.marcel-breuer-schule.de","2","219"
"03E03",,"ARTUR SPEER AKADEMIE GmbH","4208260",,,"http://www.artur-speer-akademie.de","1","224"
"03E04",,"LOGO Sprachenschule","4464852",,,"http://www.logosprachenschule.de","1","225"
"03E07",,"Theaterstudio e.V. Berlin-Brandenburg","4478293",,,"http://www.theaterstudio.de","1","226"
"03E08",,"Education GmbH","4211281",,,"http://www.education-berlin.de","1","227"
"03E10",,"VISAGIO College","94631065",,,"http://www.visagio-college.de","1","228"
"03E11",,"INAC Theaterakademie","41719262",,,"http://www.inac-berlin.de","1","229"
"03E12",,"LOGOS-Institut","4749050",,,,"1","230"
"03E14",,"Art of Acting","39792769",,,"http://www.art-of-acting.de","1","231"
"03E15",,"GLS Sprachenzentrum","78008930",,,"http://www.gls-sprachenzentrum.de","1","232"
"03E16",,"Primus Bildungscentren-Schule für Handwerk und Gestaltung","47474742",,,"http://www.eurotrain-berlin.eso.de","1","233"
"03E17",,"Schule für Bildende Kunst und Gestaltung","23185745",,,"http://www.kunstschuleberlin.de","1","234"
"03E18",,"Starter Schauspielschule für Film und Fernsehen","44043284",,,"http://www.starter-schauspielschule.de","1","235"
"03E19",,"Professional Teachers Academy of Dance","33981122",,,,"1","236"
"03E20",,"Internationale WirtschaftsAkademie Berlin","2901972",,,"http://www.iwa-berlin.de","1","237"
"03G01",,"Schule am Hamburger Platz (Grundschule)","9246762",,,"http://www.schule-am-hamburger-platz.de","2","238"
"03G02","Mittagessenversorgung durch den Anbieter LUNA","Heinrich-Roller-Grundschule","4425674",,,"http://www.Heinrich-Roller-Grundschule.de","2","239"
"03G03","Mittagessenversorgung durch den Anbieter 3 Köche","Grundschule am Kollwitzplatz","44377100",,,"http://www.gs-am-Kollwitzplatz.cidsnet.de","2","240"
"03G04",,"Grundschule an der Marie","40301298",,,"http://www.schule-an-der-Marie.de","2","241"
"03G05","Mittagessenversorgung durch den Anbieter LUNA","Homer-Grundschule","4250575",,,"http://www.homer-grundschule.cidsnet.de","2","242"
"03G06",,"Turnvater Jahn-Grundschule","42851032",,,"http://www.tvj.cidsnet.de ","2","243"
"03G08","Mittagessenversorgung","Grundschule am Planetarium","4250874",,,"http://www.gsap.de","2","244"
"03G09",,"Thomas-Mann-Grundschule","4457761",,,"http://www.thomas-mann-grundschule.de","2","245"
"03G10","Mittagessenversorgung durch den Anbieter Sunshine Catering","Grundschule am Hohen Feld","948006220",,,"http://www.schule-amhohenfeld.de","2","246"
"03G11","Mittagessenversorgung durch den Anbieter LUNA","Schule am Falkplatz (Grundschule)","443875010",,,"http://www.schule-am-falkplatz.de","2","247"
"03G12",,"Paul-Lincke-Grundschule","42850876",,,"http://www.paul-lincke.cidsnet.de","2","248"
"03G13","Mittagessenversorgung durch den Anbieter Sunshine Catering","Rudolf-Dörrier-Grundschule","91699480",,,"http://www.rudolfdoerrier-g.cidsnet.de","2","249"
"03G14","Mittagessenversorgung durch den Anbieter Greens Unlimited","Bornholmer Grundschule","4458763",,,"http://www.bornholmer-gs.cidsnet.de","2","250"
"03G15",,"Schule am Senefelderplatz","4468900",,,"http://www.schule-am-senefelderplatz.de","2","251"
"03G16",,"Grundschule am Teutoburger Platz","44358050",,,"http://www.gatp.cidsnet.de","2","252"
"03G17","Mittagessenversorgung","Grundschule am Weißen See","9269462",,,"http://www.gsaws.cidsnet.de","2","253"
"03G18","Mittagessenversorgung","Picasso-Grundschule","9606660",,,"http://www.picasso-grundschule.cidsnet.de","2","254"
"03G20",,"Grundschule im Moselviertel","9250976",,,"http://www.moselschule.cidsnet.de","2","255"
"03G21","Mittagessenversorgung durch den Anbieter LUNA","Grundschule unter den Bäumen","4743325",,,"http://www.gudbaeumen.cidsnet.de","2","256"
"03G22",,"Grundschule am Wasserturm","4720176",,,"http://www.gsamwasserturm.de","2","257"
"03G23","Mittagessenversorgung durch den Anbieter LUNA","Grundschule Alt-Karow","94794970",,,"http://www.grundschule-alt-karow.de","2","258"
"03G24","Mittagessenversorgung durch den Anbieter Gastronomische Versorgungsleistung GmbH","Grundschule im Panketal","94794920",,,"http://www.grundschuleimpanketal.cidsnet.de","2","259"
"03G25","Mittagessenversorgung durch den Anbieter LUNA","Carl-Humann-Grundschule","4441580",,,"http://www.humann-grundschule.cidsnet.de","2","260"
"03G26",,"Arnold-Zweig-Grundschule","49790970",,,"http://www.arnold-zweig-schule.de","2","261"
"03G27","Essenversorgung über Sunshine","Elizabeth-Shaw-Grundschule","49301190",,,"http://shaw-grundschule.de/","2","262"
"03G28",,"Grundschule im Hasengrund","47402940",,,"http://www.berliner-hasengrundschule.de","2","263"
"03G29",,"Grundschule Am Sandhaus","9490046",,,"http://www.sandhaus-schule.cidsnet.de","2","264"
"03G32","Mittagessenversorgung","Grundschule an den Buchen","91699460",,,"http://www.gs-buchen.de","2","265"
"03G33","Mittagessenversorgung durch den Anbieter Menü-Taxi","Jeanne-Barez-Schule (Grundschule)","47498931",,,"http://www.jeanne-barez-schule.de","2","266"
"03G34",,"Mendel-Grundschule","47607910",,,"http://www.mendel-grundschule.cidsnet.de","2","267"
"03G35","Mittagessenversorgung durch Hanold Menü-Service","Platanengrundschule","9131120",,,"http://www.platanengrundschule.cidsnet.de","2","268"
"03G36",,"Elisabeth-Christinen-Grundschule","40058920",,,"http://www.ecg.cidsnet.de","2","269"
"03G37",,"Klecks-Grundschule","47901920",,,"http://www.klecks-grundschule.de","2","270"
"03G38",,"Grundschule im Blumenviertel","42850870",,,"http://www.grundschule-im-blumenviertel.de ","2","271"
"03G39",,"Grundschule Wolkenstein","47901890",,,"http://www.wolkenstein.cidsnet.de","2","272"
"03G40","Mittagessenversorgung durch den Anbieter Gastronomische Versorgungsleistung GmbH","Schule am Birkenhof","474029100",,,"http://www.schule-birkenhof.de","2","273"
"03G41",,"Trelleborg-Schule (Grundschule)","479018611",,,"http://www.trelleborg-schule.de","2","274"
"03G43","Mittagessenversorgung durch den Anbieter Sunshine Catering","Grundschule Wilhelmsruh","91645320",,,"http://www.grundschule43pankow.cidsnet.de","2","275"
"03G44","Mittagessenversorgung durch den Anbieter Sodexo","Georg-Zacharias-Grundschule","92690892",,,"http://44gspankow.be.schule.de","2","276"
"03G45",,"Grundschule im Hofgarten","40301657",,,,"2","252"
"03G46",,"Grundschule im Eliashof","40504800",,,"http://grundschule-im-eliashof.cidsnet.de","2","277"
"03G47",,"47. Schule (Grundschule)","47607930",,,,"2","278"
"03K01","Mittagessenversorgung durch wechselnde Anbieter","Kurt-Schwitters-Schule","42847841",,,"http://www.k-s-o-berlin.de","2","279"
"03K02","Mittagessenversorgung durch den Anbieter Sodexo","Kurt-Tucholsky-Schule (Integrierte Sekundarschule)","4799000",,,"http://kto.be.schule.de","2","280"
"03K03","Frühstück- und Mittagessenversorgung","Konrad-Duden-Schule (Integrierte Sekundarschule)","4450959",,,"http://www.isskd.de","2","281"
"03K04","Mittagessenversorgung durch Pfefferwerk Stadtkultur gGmbH","Gustave-Eiffel-Schule","40043951",,,"http://www.gustave-eiffel-schule.de/","2","217"
"03K05","Mittagessenversorgung durch den Anbieter Sunshine Catering","Heinz-Brandt-Schule","9251208",,,"http://www.heinz-brandt-os.cidsnet.de","2","282"
"03K06","Mittagessenversorgung","Reinhold-Burger-Schule","49979941",,,"http://www.reinhold-burger.cidsnet.de","2","283"
"03K07","Mittagessenversorgung","Tesla-Schule (Gemeinschaftsschule)","4212230",,,"http://www.tesla-schule.de","2","284"
"03K08","Mittagessenversorgung durch den Anbieter Natürlich essen Berlin-Brandenburg UG","Hagenbeck-Schule","96275050",,,"http://www.hagenbeck-os.cidsnet.de","2","285"
"03K09","Mittagessenversorgung durch den Anbieter Sodexo","Janusz-Korczak-Schule (Integrierte Sekundarschule)","47909940",,,"http://j-korczak.cidsnet.de/Joomla/","2","286"
"03K10","Mittagessenversorgung durch den Anbieter Sunshine Catering","Hufeland-Schule","94800610",,,"http://www.hufeland-os.cidsnet.de","2","287"
"03K11","Mittagessenversorgung durch den Anbieter Willert","Wilhelm-von-Humboldt-Schule (Gemeinschaftsschule)","411983970",,,"http://wvh-gemeinschaftsschule.de/","2","288"
"03P02",,"Klax-Grundschule","66654700",,,"http://www.klax-grundschule.de","1","289"
"03P03",,"Freie Evangelische Schulen Berlin","44312370",,,"http://www.fesb.de","1","290"
"03P04",,"Elisabeth-Schulen","96249450",,,"http://www.elisabeth-schulen.de","1","291"
"03P08","Mittagessenversorgung","Katholisches Schulzentrum Edith Stein","4243930",,,"http://www.kses-berlin.de","1","292"
"03P10",,"Katholische Theresienschule (Gymnasium)","9246425",,,"http://www.Theresienschule.de","1","293"
"03P11",,"Stephanus-Schule","96249751",,,"http://www.stephanus-schule.de","1","294"
"03P12",,"Evangelische Schule Pankow (Grundschule)","47498940",,,"http://www.ev-schule-pankow.de","1","295"
"03P13",,"Freie Schule Pankow (Integrierte Sekundarschule)","4733083",,,"http://www.freie-schule-pankow.de","1","296"
"03P14",,"Freie Grundschule Pfefferwerk","44717305",,,"http://www.freie-grundschule.de","1","297"
"03P15",,"AUCOTEAM GmbH","42188661",,,"http://www.aucoteam-berufsfachschule.de","1","298"
"03P17",,"Akademie der Gesundheit","94030611",,,"http://www.gesundheit-akademie.de","1","299"
"03P18","Mittagessenversorgung","BIP-Kreativitätsgrundschule Berlin Pankow","92092220",,,"http://www.bip-kreativ.de","1","300"
"03P20",,"SchuleEins (Gemeinschaftsschule)","475966930",,,"http://www.pankower-fruechtchen.de","1","301"
"03P21",,"Freie Integrative Montessori Grundschule Pankow","50019130",,,"http://www.montessori-pädagogik-pankow.de","1","302"
"03P22",,"Klax-Schule (Integrierte Sekundarschule)","34745160",,,"http://www.klax-schule.de","1","303"
"03P23",,"Freie Naturschule im StadtGUT (Grundschule)","40058301",,,"http://www.freie-naturschule-pankow.de","1","304"
"03P24",,"Ting-Schule (Integrierte Sekundarschule)","47004506",,,"http://www.ting-schule.de","1","305"
"03P26",,"Lauder Beth-Zion Schule (Gemeinschaftsschule)","440131620",,,"http://www.lauderyeshurun.de/de/grundschule","1","306"
"03P27",,"Klax-Fachschule für Erzieher - Elinor-Goldschmied","47796240",,,"http://www.klax-ausbildung.de","1","307"
"03P28",,"Platanus Schule Berlin","490048800",,,"http://www.platanus-schule.de","1","308"
"03P29",,"meco Akademie GmbH","81005828",,,,"1","309"
"03P30",,"Freie Waldorfschule am Prenzlauer Berg","42082010",,,"http://www.schulemachen.com","1","310"
"03P31",,"Berufsfachschule für Sozialassistenz der Chance BJS gGmbH","35304960",,,"http://www.chance-berlin.com","1","298"
"03P32",,"Montessori-Gemeinschaftsschule Berlin-Buch","91146451",,,"http://www.montessori-berlin-buch.de","1","311"
"03P33",,"Evangelische Schule Berlin Buch - Grundschule","31958200",,,"http://www.ev-schule-buch.de","1","311"
"03P34",,"PepperMont-Sekundarschule für ganzheitliches Lernen","44717305",,,,"1","297"
"03S01",,"Schule am Senefelderplatz","4468900",,,"http://www.schule-am-senefelderplatz.de","2","251"
"03S03","Mittagessenversorgung durch den Anbieter LUNA","Helene-Haeusler-Schule","47377641",,,"http://www.helene-haeusler-schule.de","2","312"
"03S06","Mittagessenversorgung durch den Anbieter Gastronomische Versorgungsleistung GmbH","Schule am Birkenhof","474029100",,,"http://www.schule-birkenhof.de","2","273"
"03S07",,"Schule an der Heide","91699470",,,,"2","313"
"03S08",,"Panke-Schule","47607920",,,"http://www.panke.schule-berlin.net","2","314"
"03S09",,"Schule an der Strauchwiese","47607930",,,"http://www.schuleanderstrauchwiese.de","2","278"
"03S10","Mittagessenversorgung","Marianne-Buggenhagen-Schule","9487880",,,"http://www.buggenhagen.cidsnet.de","2","315"
"03Y03","Mittagessenversorgung","Käthe-Kollwitz-Gymnasium","4447671",,,"http://www.kkos.net","2","316"
"03Y04","Mittagessenversorgung durch den Anbieter Sodexo","Heinrich-Schliemann-Gymnasium","4468950",,,"http://www.hsg-berlin.de","2","317"
"03Y08","Mittagessenversorgung","Carl-von-Ossietzky-Gymnasium","49400390",,,"http://www.ossietzky-gym.cidsnet.de","2","318"
"03Y10","Mittagessenversorgung","Rosa-Luxemburg-Gymnasium","91607730",,,"http://www.rlo-berlin.de","2","319"
"03Y13","Mittagessenversorgung","Felix-Mendelssohn-Bartholdy-Gymnasium","4243850",,,"http://www.mendelssohn-bartholdy-gymnasium.de","2","320"
"03Y14","Mittagessenversorgung durch den Anbieter Gastronomische Versorgungsleistung GmbH","Primo-Levi-Gymnasium","9290168111",,,"http://gymnasium-weissensee.cidsnet.de","2","321"
"03Y15","Mittagessenversorgung durch den Anbieter Sunshine Catering","Max-Delbrück-Gymnasium","47596720",,,"http://www.Max-Delbrueck-Gymnasium.de","2","322"
"03Y16","Mittagessenversorgung durch den Anbieter Gastronomische Versorgungsleistung GmbH","Robert-Havemann-Schule (Gymnasium)","94878511",,,"http://www.rhos.de","2","323"
"04A01",,"1. Schulpraktisches Seminar (S) Charlottenburg-Wilmersdorf","902913280",,,,"2","324"
"04A02",,"2. Schulpraktisches Seminar (S) Charlottenburg-Wilmersdorf","902913280",,,,"2","324"
"04A03",,"3. Schulpraktisches Seminar (L) Charlottenburg-Wilmersdorf","902913290",,,,"2","324"
"04A04",,"Charlotte-Wolff-Kolleg","902928825",,,"http://www.charlotte-wolff-kolleg.de","2","325"
"04A06",,"Peter-A.-Silbermann-Schule","89745160",,,"http://www.abendgymnasium.de","2","326"
"04A07",,"4. Schulpraktisches Seminar (L) Charlottenburg-Wilmersdorf","902913290",,,,"2","324"
"04A08","Sportlergerechte Mittagessenversorgung","Poelchau-Schule","22445400",,,"http://www.poelchau-oberschule.de","2","327"
"04A09",,"5. Schulpraktisches Seminar (S) Charlottenburg-Wilmersdorf","902913280",,,,"2","324"
"04B01",,"Loschmidt-Oberschule","34505810",,,"http://www.loschmidt-oberschule.de","2","328"
"04B02","Mittagessenversorgung","OSZ Recht","3030170",,,"http://www.oszrecht.de","2","329"
"04B03",,"OSZ Kraftfahrzeugtechnik","90198600",,,"http://www.osz-kfz.de","2","330"
"04B04",,"Ruth-Cohn-Schule (OSZ Sozialwesen)","34506714",,,"http://www.osz-ruth-cohn.de","2","331"
"04B05",,"Anna-Freud-Oberschule (OSZ Sozialwesen)","36417810",,,"http://www.anna-freud-osz.de/","2","332"
"04B06",,"Leopold-Ullstein-Schule (OSZ Wirtschaft)","85758532",,,"http://www.oszinddv.de","2","333"
"04B07",,"OSZ Körperpflege","8649700",,,"http://www.osz-koerperpflege.de","2","334"
"04B08","keine Mittagessenversorgung, Cafeteria","Kläre-Bloch-Schule","85758939",,,"http://www.klaere-bloch-schule.de","2","335"
"04E01",,"Lichtenberg-Kolleg e.V.","3138121",,,"http://www.Lichtenberg-Kolleg.de","1","336"
"04E02",,"DIDACTICA GmbH","32900880",,,"http://www.didactica-berufsbildung.de","1","337"
"04E03",,"D.U.T. Wirtschaftsfachschule GmbH & Co","8822200",,,"http://www.dut.de","1","338"
"04E04",,"Kosmetikschule Berlin","3240769",,,"http://www.kosmetikschule-berlin.de","1","339"
"04E05",,"Winkels Akademie GmbH","3124126",,,"http://www.medikos-bln.de","1","340"
"04E07",,"Berlitz Sprachschule Berlin Charlottenburg","3239047",,,"http://www.berlitz.de/berlin","1","341"
"04E09",,"Samuel-Hahnemann-Schule","3233050",,,"http://www.samuelhahnemannschule.de","1","342"
"04E10",,"Heilpraktikerfachschule für Aus- und Weiterbildung","3232042",,,,"1","343"
"04E12",,"Schauspielschule Charlottenburg GmbH","34097731",,,"http://www.schauspiel-schule.de","1","344"
"04E13",,"Ballett Centrum Kurfürstendamm Karree Musical Schule","8831175",,,"http://www.ballettcentrum-berlin.de","1","345"
"04E14",,"Hofmeisterschule, Handels- und Sprachschule","8541929",,,"http://www.Hofmeisterschule.de","1","346"
"04E15",,"Rackow-Schulen GmbH","31504243",,,"http://www.rackow-schulen.de","1","347"
"04E17",,"Akademie für Fremdsprachen GmbH","88663393",,,"http://www.akafremd.de","1","348"
"04E20",,"DIE NEUE SCHULE","8730373",,,"http://www.neueschule.de","1","349"
"04E21",,"Deutsche Paracelsus Schulen für Naturheilverfahren GmbH","89092193",,,"http://www.paracelsus.de","1","350"
"04E22",,"Verein zur Förderung des modernen Tanzes e.V.","8263220",,,,"1","351"
"04E24",,"Japanische Ergänzungsschule in Berlin e.V.","8911787",,,"http://www.berlin-hoshuko.de","1","352"
"04E25",,"Griechisches Lyzeum","8532074",,,,"1","353"
"04E27",,"TRANSform Schauspielschule","3242341",,,"http://www.transform-schauspielschule.de","1","354"
"04E28",,"Cimdata.de Medienakademie Berlin","32799131",,,"http://www.cimdata.de","1","355"
"04E30",,"Berlin School of Dance","86397335",,,"http://www.berlinschoolofdance.de","1","356"
"04E31",,"Filmschauspielschule Berlin","31016571",,,"http://www.filmschauspielschule.de","1","357"
"04E32",,"Berlin British School","35109190",,,"http://www.berlinbritishschool.de","1","358"
"04E33",,"SSB Schwedische Schule in Berlin","86495930",,,"http://www.svenskaskolan-berlin.de","1","359"
"04E34",,"König Fahad Akademie Bonn","36409584",,,"http://www.kfa-bonn","1","360"
"04E36",,"Com Fly German Flight Training Organisation GmbH","8236446",,,"http://www.pilotenausbildung.net/com-fly-german-flight-training-organisation-gmbh/","1","361"
"04E38",,"Photoacademy Urbschat GmbH","88097413",,,,"1","362"
"04E40",,"AMD Akademie Mode & Design Berlin","33099760",,,"http://www.amdnet.de","1","363"
"04E41",,"PRESTIGE Kosmetikakademie","91683249",,,"http://www.prestige-akad.de","1","364"
"04E42",,"tanzloft berlin","3245998",,,"http:/www.tanzloftberlin.de","1","365"
"04E43",,"Berlinek Sprachenzentrum","34787266",,,"http://www.berlinek.de","1","366"
"04E44",,"ZFFA gGmbH Zentrum für fotografische Ausbildung","2043788",,,"http://www.zffa.de","1","367"
"04E45",,"comjob GmbH","4437600",,,"http://www.bsd-berlin.de","1","368"
"04E46",,"Grone-Schule Berlin gGmbH","3999580",,,"http://www.grone.de","1","369"
"04E47",,"MediPoint-Schule für Medizin und Altenpflege","36405666",,,"http://www.medipoint-berlin.de","1","370"
"04E48",,"Berliner Schule für Zen Shiatsu","32662832",,,"http://www.zen-shiatsu-schule.de","1","371"
"04E50",,"BBQ","71202044",,,,"1","372"
"04E51",,"CampusHealth Service GmbH","37592162",,,"http://www.campus-health-service.de","1","373"
"04E52",,"Campus & more GmbH","37592162",,,"http://www.campus-and-more.de","1","373"
"04G01","Mittagessenversorgung","Eichendorff-Grundschule","437272270",,,"http://www.eichendorff-grundschule.cidsnet.de","2","374"
"04G02","Mittagessenversorgung durch den Anbieter abw gGmbH","Lietzensee-Grundschule","30830630",,,"http://www.Lietzensee.cidsnet.de","2","375"
"04G04","Mittagessenversorgung","Joan-Miró-Grundschule","902928100",,,"http://www.joan-miro-grundschule.de","2","376"
"04G05","Mittagessenversorgung","Dietrich-Bonhoeffer-Grundschule","303284510",,,"http://www.dietrichbonhoeffergrundschule.cidsnet.de","2","377"
"04G06","Mittagessenversorgung","Wald-Grundschule","902926900",,,"http://wald-grundschule.de","2","378"
"04G07",,"Ludwig-Cauer-Grundschule","902925700",,,"http://www.lcs.cidsnet.de","2","379"
"04G08","Mittagessenversorgung","Mierendorff-Grundschule","902927508",,,"http://www.mierendorff-grundschule.de","2","380"
"04G09","Mittagessenversorgung","Erwin-von-Witzleben-Grundschule","902925380",,,"http://www.unser-erwin.cidsnet.de","2","381"
"04G11",,"Helmuth-James-von-Moltke-Grundschule","348068910",,,"http://www.moltke-grundschule.de","2","382"
"04G12",,"Schinkel-Grundschule","902924001",,,"http://www.esg.cidsnet.de","2","383"
"04G13",,"Nehring-Grundschule","902924300",,,"http://www.nehring-grundschule.de","2","384"
"04G14","Mittagessenversorgung","Reinhold-Otto-Grundschule","902928031",,,"http://www.reinhold-otto.de","2","385"
"04G15","Mittagessenversorgung durch den Anbieter LUNA","Charles-Dickens-Grundschule","30328680",,,"http://www.charles-dickens-gs.de","2","386"
"04G17","Mittagessenversorgung","Johann-Peter-Hebel-Grundschule","860085210",,,"http://www.hebelschule-berlin.de","2","387"
"04G18","Mittagessenversorgung","Ernst-Habermann-Grundschule","85758945",,,"http://www.ernst-habermann.cidsnet.de","2","388"
"04G19",,"Grundschule am Rüdesheimer Platz","902917010",,,"http://www.garp-schule.de","2","389"
"04G20",,"Katharina-Heinroth-Grundschule","890439510",,,"http://katharina-heinroth-grundschule.de","2","390"
"04G21","Mittagessenversorgung","Halensee-Grundschule","8902860",,,"http://www.Halensee-Grundschule.cidsnet.de","2","352"
"04G22",,"Grunewald-Grundschule","89049690",,,"http://www.grunewald-grundschule.de","2","391"
"04G23",,"Alt-Schmargendorf-Grundschule","810567670",,,"http://www.alt-schmargendorf-grundschule.de","2","392"
"04G24","Mittagessenversorgung durch den Anbieter Sodexo","Carl-Orff-Grundschule","902922809",,,"http://www.carl-orff-grundschule.de","2","393"
"04G25",,"Cecilien-Schule (Grundschule)","8639050",,,"http://www.cecilie.cidsnet.de","2","394"
"04G26","Mittagessenversorgung durch den Anbieter LUNA","Birger-Forell-Grundschule","8577180",,,"http://www.birger-forell-grundschule.de","2","395"
"04G27","Mittagessenversorgung","Judith-Kerr-Grundschule","8979940",,,"http://www.judith-kerr-schule.de","2","396"
"04K02","Mittagessenversorgung","Friedensburg-Schule","902917800",,,"http://www.fosbe.de","2","397"
"04K03","Mittagessenversorgung","Robert-Jungk-Schule","8639280",,,"http://www.Robert-Jungk-Oberschule.de","2","398"
"04K04","Mittagessenversorgung","Nelson-Mandela-Schule","86395370",,,"http://www.nelson-mandela-school.net","2","399"
"04K05","Mittagessenversorgung durch den Sport-Club Charlottenburg (SCC) Berlin e.V.","Paula-Fürst-Schule (Gemeinschaftsschule)","902927220",,,"http://www.reformschule-charlottenburg.de","2","400"
"04K06","Mittagessenversorgung","Schule am Schloss (Integrierte Sekundarschule)","902924110",,,"http://www.schule-am-schloss-berlin.de/http://www. schule-am-schloss-berlin.de","2","401"
"04K07","Mittagessenversorgung","Integrierte Sekundarschule Wilmersdorf","860085310",,,"http://www.sekundarschule-wilmersdorf.de","2","402"
"04K08","Mittagessenversorgung","Peter-Ustinov-Schule","30328660",,,"http://www.peter-ustinov-schule.de","2","403"
"04P01",,"Katholische Schule Herz Jesu (Grundschule)","33007010",,,"http://www.herz-jesu-schule.de","1","404"
"04P02",,"Schele-Schule (Grundschule)","3044990",,,"http://www.Schele-Schule.de","1","405"
"04P03",,"Heinz-Galinski-Schule (Grundschule)","3011940",,,,"1","406"
"04P04",,"Katholische Schule Liebfrauen (Gymnasium)","30613013",,,"http://www.KSLiebfrauen.de","1","407"
"04P05","keine Mittagessenversorgung","Evangelische Schule Charlottenburg (Integrierte Sekundarschule)","343571610",,,"http://www.ev-schule-charlottenburg.de","1","408"
"04P07",,"DIDACTICA private kaufmännische Berufsbildungs GmbH","32900880",,,"http://www.didactica.de","1","337"
"04P08",,"AfIB Akademie für Internationale Bildung GmbH","34708754",,,"http://www.afib-berlin.de","1","409"
"04P09",,"IFAG Institut für angewandte Gerontologie","3415034",,,"http://www.ifag-berlin.de","1","409"
"04P10",,"Katholische Schule Sankt Ludwig (Grundschule)","8824867",,,,"1","410"
"04P11",,"Evangelisches Gymnasium zum Grauen Kloster","8254011",,,"http://www.graues-kloster.de","1","411"
"04P12",,"Annie-Heuser-Schule","86393061",,,"http://www.annie-heuser-schule.de","1","412"
"04P15",,"Freie Schule Charlottenburg (Grundschule)","89409930",,,"http://www.freie-schule-charlottenburg.de","1","413"
"04P18",,"Johannes-Schule Berlin","28833788",,,"http://www.johannes-schule-berlin.de","1","414"
"04P20","Mittagessenversorgung in der Kantine der Industrie- und Handelskammer zu Berlin","Rackow-Schulen Berlin","31504243",,,"http://www.rackow-schulen.de","1","347"
"04P21",,"Evangelische Schule Wilmersdorf (Grundschule)","81826980",,,"http://www.evgruwi.de ","1","415"
"04P22","Mittagessenversorgung","Erste Aktivschule Charlottenburg (Grundschule)","30366968",,,"http://www.aktivschule-charlottenburg.de","1","416"
"04P23",,"Jüdische Traditionsschule","32678897",,,"http://www.jschule.de","1","417"
"04P24","Mittagessenversorgung","Moser-Schule (Gymnasium)","30838282",,,"http://www.moserschule.de","1","418"
"04P25","Mittagessenversorgung","Schulen der ASIG Stiftung e.V.","4690540",,,"http://www.asig-berlin.de","1","419"
"04P27","Mittagessenversorgung","Schule am Westend","30355970",,,"http://www.zspr.de","1","420"
"04P34",,"Freie Schule Wilmersdorf (Grundschule)","78893381",,,"http://www.freie-schule-wilmersdorf.de","1","421"
"04P35",,"Galileo Gymnasium","89580599",,,"http://www.galileo-gymnasium.de","1","422"
"04P36","keine Mittagessenversorgung","AIK Fachschulen gGmbH","93693671",,,"http://www.semperschulen.de","1","423"
"04P37",,"Campus Berufsbildung e.V.","4208279010",,,,"1","424"
"04S01","Mittagessenversorgung","Peter-Jordan-Schule","902924330",,,"http://www.peter-jordan-schule.de","2","425"
"04S02","Mittagessenversorgung","Arno-Fuchs-Schule","902913250",,,"http://www.arno-fuchs-schule.cidsnet.de","2","426"
"04S03",,"Helen-Keller-Schule","902925040",,,"http://www.helen-keller-schule.de","2","427"
"04S04",,"Reinfelder-Schule","902925050",,,"http://www.reinfelder-schule.de","2","428"
"04S05",,"Ernst-Adolf-Eschke-Schule für Gehörlose","902925000",,,"http://www.eaeschule.de","2","429"
"04S06",,"Finkenkrug-Schule","8277060",,,,"2","430"
"04S07","Mittagessenversorgung","Comenius-Schule","8649950",,,"http://www.schule-comenius.de","2","431"
"04Y01","Mittagessenversorgung, Caféteria","Schiller-Oberschule","902925920",,,"http://www.sgym.de","2","432"
"04Y02","Mittagessenversorgung durch den Anbieter LUNA","Wald-Oberschule","902926930",,,"http://www.waldoberschule.de","2","433"
"04Y03","Mittagessenversorgung","Sophie-Charlotte-Oberschule","902928600",,,"http://www.scoberlin.de","2","434"
"04Y04","Mittagessenversorgung durch den Anbieter LUNA","Gottfried-Keller-Oberschule","902927310",,,"http://www.gks-berlin.cidsnet.de/conpresso","2","435"
"04Y05","Mittagessenversorgung","Herder-Oberschule","902927800",,,"http://www.herder-oberschule.de/","2","436"
"04Y06","Mittagessenversorgung durch den Anbieter Thomas Warnhoff GmbH","Heinz-Berggruen-Schule (Gymnasium)","902928702",,,"http://www.hbgym.de","2","437"
"04Y07","Mittagessenversorgung","Friedrich-Ebert-Oberschule","8974510",,,"http://feo.schule.de","2","326"
"04Y08","Mittagessenversorgung durch den Anbieter Thomas Warnhoff GmbH","Hildegard-Wegscheider-Oberschule","897454210",,,"http://www.hwos.de","2","438"
"04Y09","Mittagessenversorgung durch die Kantine des Umweltbundesamtes","Walther-Rathenau-Schule (Gymnasium)","8902990",,,"http://www.walther-rathenau-schule.de","2","439"
"04Y10","Mittagessenversorgung","Marie-Curie-Oberschule","859949710",,,"http://www.mco-berlin.de","2","440"
"04Y11","Mittagessenversorgung","Goethe-Gymnasium","8649960",,,"http://www.goethe-gymnasium-berlin.cidsnet.de","2","441"
"05A01",,"1. Schulpraktisches Seminar (S) Spandau","378990010",,,,"2","442"
"05A02",,"2. Schulpraktisches Seminar (L) Spandau","378990020",,,,"2","442"
"05A03",,"Volkshochschule Spandau","902795007",,,"http://www.vhs.berlin.de ","2","443"
"05A04",,"3. Schulpraktisches Seminar (S) Spandau","378990010",,,,"2","442"
"05B01",,"OSZ TIEM (Technische Informatik, Industrieelektronik und EnergieManagement)","3549460",,,"http://www.osztiem.de","2","444"
"05B02",,"Knobelsdorff-Schule (OSZ Bautechnik I)","335030",,,"http://www.knobelsdorff-schule.de","2","445"
"05E01",,"Berliner Sprachenschule","35304960",,,"http://www.berliner-sprachenschule.de","1","446"
"05E02",,"Artaban Schule für künstlerische Therapie","34633081",,,"http://www.artaban-kunsttherapie.de","1","447"
"05E03","keine Mittagessenversorgung","Wichern-Kolleg, Diakonenausbildungsstätte","33609332",,,"http://www.wichernkolleg.de","1","448"
"05G01","Mittagessenversorgung durch die Kita der Petrus Kirche","Ernst-Ludwig-Heim-Grundschule","3393870",,,"http://www.e-l-heim.cidsnet.de","2","449"
"05G02","Mittagessenversorgung für Hortkinder","Grundschule am Eichenwald","36758110",,,"http://www.eichenwaldgrundschule.cidsnet.de","2","450"
"05G03",,"Birken-Grundschule","30832280",,,"http://www.birken-grundschule.de","2","451"
"05G04",,"Klosterfeld-Grundschule","37899040",,,"http://www.klosterfeld-grundschule.de","2","452"
"05G05",,"Christoph-Földerich-Grundschule","36208530",,,"http://www.foelle.schule-berlin.net","2","453"
"05G06","Mittagessenversorgung durch den Anbieter LUNA","Siegerland-Grundschule","3789110",,,"http://www.siegerland.schule-berlin.net","2","454"
"05G07",,"Lynar-Grundschule","3039850",,,"http://www.lynar-gs.de","2","455"
"05G08","Mittagessenversorgung","Konkordia-Grundschule","33096560",,,"http://www.konkordia-grundschule.de","2","456"
"05G09","Mittagessenversorgung für Hortkinder","Schule am Grüngürtel","3759830",,,"http://www.schule-am-gruenguertel.de","2","457"
"05G10","Mittagessenversorgung durch den Anbieter LUNA","Grundschule am Birkenhain","35193622",,,"http://www.grundschule-am-birkenhain.de.vu","2","458"
"05G11","Mittagessenversorgung durch den Anbieter LUNA","Robert-Reinick-Grundschule","36702460",,,"http://www.rrg.cidsnet.de","2","459"
"05G12","Mittagessenversorgung für Schülerinnen und Schüler in der ergänzenden Betreuung","Grundschule am Weinmeisterhorn","36208520",,,"http://www.gsamweinmeisterhorn.schule-berlin.net","2","460"
"05G13","Mittagessenversorgung für Hortkinder","Bernd-Ryke-Grundschule","3548050",,,"http://www.bernd-ryke-gs.de","2","461"
"05G14","Mittagessenversorgung","Linden-Grundschule","3647290",,,"http://www.linden-g-spandau.cidsnet.de","2","462"
"05G15","Mittagessenversorgung","Askanier-Grundschule","36753860",,,"http://www.askanier-g.cidsnet.de","2","463"
"05G16",,"Zeppelin-Grundschule","36709510",,,"http://www.zeppelin-grundschule-berlin.cidsnet.de","2","464"
"05G17","Mittagessenversorgung durch den Anbieter LUNA","Astrid-Lindgren-Grundschule","3758620",,,"http://www.lindgrenschule.de","2","465"
"05G18",,"Grundschule im Beerwinkel","308322660",,,"http://www.beerwinkel.de","2","466"
"05G19",,"Grundschule am Ritterfeld","36500100",,,"http://www.grundschuleamritterfeld.de","2","467"
"05G20",,"Carl-Schurz-Grundschule","35599010",,,"http://www.carl-schurz-grundschule.de","2","468"
"05G21","Mittagessenversorgung für Kinder in der ergänzenden Betreuung","Paul-Moor-Schule","36992071",,,"http://www.paul-moor-schule.cidsnet.de","2","469"
"05G22","Mittagessenversorgung","Christian-Morgenstern-Grundschule","3647930",,,"http://www.christian-morgenstern-grundschule.de","2","470"
"05G23",,"Grundschule am Brandwerder","36709520",,,"http://www.grundschule-am-brandwerder.de","2","471"
"05G24","Mittagessenversorgung","Grundschule am Windmühlenberg","36208550",,,"http://www.SchuleAmWindmuehlenberg.de","2","472"
"05G25","Mittagessenversorgung durch den Anbieter LUNA","Grundschule am Wasserwerk","3083246",,,"http://www.grundschule-am-wasserwerk.cidsnet.de","2","473"
"05G26",,"Grundschule am Amalienhof","36208510",,,"http://www.amalienhof.cidsnet.de","2","474"
"05G27","Mittagessenversorgung durch den Anbieter LUNA","Charlie-Rivel-Grundschule","3537230",,,"http://www.charlie-rivel-grundschule.de","2","475"
"05G28","Mittagessenversorgung für Kinder in der ergänzenden Betreuung","Grundschule an der Pulvermühle","33776567",,,"http://www.gs-pulvermuehle.de","2","476"
"05G29","Mittagessenversorgung","Mary-Poppins-Grundschule","3699633",,,"http://www.mary-poppins-grundschule.cidsnet.de","2","477"
"05K01","Mittagessenversorgung","Martin-Buber-Oberschule (Integrierte Sekundarschule)","3758640",,,"http://www.martin-buber-oberschule.de","2","478"
"05K02","Mittagessenversorgung, Cafeteria","Carlo-Schmid-Oberschule (Integrierte Sekundarschule)","3519530",,,"http://www.csoonline.de","2","479"
"05K03","Mittagessenversorgung, Mensa","Bertolt-Brecht-Oberschule (Integrierte Sekundarschule)","3308990",,,"http://www.brecht-oberschule.de","2","480"
"05K04","Mittagessenversorgung","Heinrich-Böll-Oberschule (Integrierte Sekundarschule)","3350070",,,"http://www.boell-schule.de","2","481"
"05K05","Mittagessenversorgung","B.-Traven-Oberschule (Gemeinschaftsschule)","3758650",,,"http://www.b-traven-os.de","2","482"
"05K06","Mittagessenversorgung","Wolfgang-Borchert-Schule (Integrierte Sekundarschule)","3559280",,,"http://borchertschule-spandau.de","2","483"
"05K07","Mittagessenversorgung","Schule an der Jungfernheide (Integrierte Sekundarschule)","3839260",,,"http://www.schule-an-der-jungfernheide.de","2","484"
"05K08","Mittagessenversorgung durch den Anbieter Gastronomische Versorgungsleistung GmbH","Schule an der Haveldüne (Integrierte Sekundarschule)","3650973",,,"http://8-ISS-Spandau.de/","2","485"
"05K09","Mittagessenversorgung für die Jahrgangsstufe 7","Schule am Staakener Kleeblatt (Integrierte Sekundarschule)","3640330",,,"http://www.sekundarschule-staaken.schule-berlin.net/","2","486"
"05P01",,"Freie Waldorfschule Havelhöhe - Eugen Kolisko","369924610",,,"http://www.havelhoehe.net","1","487"
"05P02",,"Katholische Schule Bernhard Lichtenberg (Grundschule)","3332010",,,"http://www.ksbl.de","1","488"
"05P03","keine Mittagessenversorgung","Evangelische Schule Spandau im Johannesstift","35599050",,,"http://www.evangelische-schule-spandau.de","1","448"
"05P04","Mittagessenversorgung","August-Hermann-Francke-Schule","33609329",,,"http://www.evangelisches-johannesstift.de/behindertenhilfe/august-hermann-francke-schule","1","448"
"05P05",,"Berufsschule des Rot Kreuz-Instituts","36502192",,,"http://www.DRK-Berlin.de/rkinsitut","1","489"
"05P06","Mittagessenversorgung","Werner-von-Siemens-Werkberufsschule der Siemens AG","38623394",,,,"1","490"
"05P08",,"Technik Akademie Berlin der Siemens AG","38626979",,,"http://www.technik-akademie.de","1","490"
"05P10","keine Mittagessenversorgung","Soziale Fachschulen des Ev. Johannesstifts","33609402",,,"http://www.fachschulen-johannesstift.de","1","491"
"05P13","Mittagessenversorgung","Privatschule TÜDESB Berlin","36289213",,,"http://tuedesb.de","1","492"
"05P15","Mittagessenversorgung","Immanuel-Schule (Grundschule)","4431237230",,,"http://www.fesb.de","1","493"
"05P16",,"Private Berufsschule für Medientechnik an der media academy GmbH","720250210",,,"http://www.media-academy.de","1","494"
"05P17",,"TÜV Rheinland Akademie GmbH - Berufsfachschule für Altenpflege - Spandau","75622174",,,"http://www.tuv.com/de/deutschland/akademie/berlin.jsp","1","495"
"05P18",,"Freie Georgschule (Grundschule)","64834920",,,"http://www.freie-georgschule.de","1","496"
"05P19",,"International School Villa Amalienhof (Integrierte Sekundarschule)","36439820",,,"http://www.is-va.com","1","497"
"05P20",,"TÜDESB Fachoberschule","36298213",,,,"1","492"
"05S01","Mittagessenversorgung für Hortkinder","Schule am Grüngürtel","3759830",,,"http://schule-am-gruenguertel.de/","2","457"
"05S02","Mittagessenversorgung","Paul-Moor-Schule","3699206",,,"http://www.paul-moor-schule.cidsnet.de","2","469"
"05S03",,"Schule am Gartenfeld","303987420",,,"http://05s03.be.lo-net2.de","2","498"
"05S04","Mittagessenversorgung","Schule am Stadtrand","3083246",,,"http://www.zwei-schulen.de","2","473"
"05Y01",,"Freiherr-vom-Stein-Oberschule","33096541",,,"http://www.steingymnasium.de","2","499"
"05Y02","keine Mittagessenversorgung, Cafeteria","Kant-Gymnasium","3539480",,,"http://www.Kant-gymnasium-berlin.de","2","500"
"05Y03","keine Mittagessenversorgung","Hans-Carossa-Gymnasium","36996511",,,"http://www.hans-carossa-gymnasium.de","2","501"
"05Y04","keine Mittagessenversorgung","Carl-Friedrich-von-Siemens-Oberschule","34505680",,,"http://www.c-f-v-siemens-og.de","2","502"
"05Y05","keine Mittagessenversorgung, Cafeteria","Lily-Braun-Gymnasium","3389040",,,"http://www.lily-braun-oberschule.de","2","503"
"06A01",,"1. Schulpraktisches Seminar (S) Steglitz-Zehlendorf","902995810",,,,"2","504"
"06A02",,"2. Schulpraktisches Seminar (S) Steglitz-Zehlendorf","77209524",,,,"2","505"
"06A03",,"3. Schulpraktisches Seminar (S) Steglitz-Zehlendorf","77209524",,,,"2","505"
"06A04",,"4. Schulpraktisches Seminar (S) Steglitz-Zehlendorf","42263429",,,,"2","506"
"06A05",,"Volkshochschule Steglitz-Zehlendorf","902992207",,,"http://www.zbw-berlin.de","2","507"
"06A06",,"6. Schulpraktisches Seminar (S) Steglitz-Zehlendorf","42263422",,,,"2","506"
"06A07",,"7. Schulpraktisches Seminar (S) Steglitz-Zehlendorf","42263423",,,,"2","506"
"06A08",,"8. Schulpraktisches Seminar (L) Steglitz-Zehlendorf","77209524",,,,"2","505"
"06A09",,"5. Schulpraktisches Seminar (S) Steglitz-Zehlendorf","42263420",,,,"2","506"
"06B01","Mittagessenversorgung","Peter-Lenné-Schule (OSZ Agrarwirtschaft)","81490112",,,"http://www.peter-lenne-schule.de","2","508"
"06B02","Mittagessenversorgung","Louise-Schroeder-Schule (OSZ Bürowirtschaft und Verwaltung)","90172501",,,"http://www.oszbueroverw.de","2","509"
"06B03",,"OSZ Bürowirtschaft I","76890011",,,"http://www.osz-buerowirtschaft-eins.de","2","510"
"06B04",,"Wilhelm-Ostwald-Schule (OSZ Farbtechnik und Raumgestaltung)","90166700",,,"http://www.wilhelm-ostwald-schule.de","2","506"
"06E01",,"Schule für Eurythmische Art und Kunst","8026378",,,"http://www-eurythmie-berlin.de","1","511"
"06E02",,"Institut für Psychotherapie e.V. Berlin","84186711",,,,"1","512"
"06E05",,"Berlitz Sprachschule Berlin Steglitz","7911031",,,"http://www.berlitz.de/berlin","1","513"
"06E07",,"idioma privates Fremdsprachen- und Nachhilfeinstitut","8330993",,,"http://www.idioma-sprache.eu","1","514"
"06E08",,"Private Musikschule Johannes Knebel","7721309",,,,"1","515"
"06E13",,"Japanische Internationale Schule zu Berlin","8036830",,,"http://www.jap-schule-berlin.de","1","516"
"06E14",,"MSK Berlin GbR-Schule für Musik, Sprache und Kunst","99545054",,,,"1","517"
"06G01","Mittagessenversorgung für Kinder in der ergänzenden Betreuung","Nord-Grundschule","902995468",,,"http://www.nord-g.cidsnet.de","2","518"
"06G02",,"Süd-Grundschule","84509638",,,"http://www.sued-grundschule.de","2","519"
"06G03",,"Johannes-Tews-Grundschule","8032072",,,"http://www.johannes-tews-grundschule.de","2","520"
"06G04","Mittagessenversorgung durch den Anbieter LUNA","Erich-Kästner-Grundschule","84414860",,,"http://erich-kaestner-schule.org","2","521"
"06G05","Mittagessenversorgung durch den Anbieter LUNA","Conrad-Schule (Grundschule)","902996926",,,"http://www.conrad-schule.de","2","522"
"06G06",,"Mühlenau-Grundschule","8325099",,,"http://www.muehlenau.de","2","523"
"06G07","Mittagessenversorgung","Zinnowwald-Grundschule","902995586",,,"http://www.zinnowwald.cidsnet.de","2","524"
"06G08",,"Schweizerhof-Grundschule","902995475",,,"http://www.schweizerhof-grundschule.de","2","525"
"06G09",,"Dreilinden-Grundschule","8038009",,,"http://www.dreilinden-grundschule.de","2","526"
"06G10",,"Grundschule am Buschgraben","8025018",,,"http://www.grundschuleambuschgraben.de","2","527"
"06G11","Mittagessenversorgung durch den Anbieter Greens Unlimited","Grundschule Am Rohrgarten (Gemeinschaftsschule)","80909984",,,"http://www.grundschule-amrohrgarten.de","2","528"
"06G12",,"Quentin-Blake-Grundschule","902998031",,,"http://www.quentin-blake-europe-school.de","2","529"
"06G14","Mittagessenversorgung","Sachsenwald-Grundschule","79742910",,,"http://www.sachsenwald-grundschule.de","2","530"
"06G15","Mittagessenversorgung für die Kinder in der ergänzenden Betreuung","Dunant-Grundschule","79742160",,,"http://www.dunant-grundschule.de","2","531"
"06G16",,"Rothenburg-Grundschule","902992314",,,"http://www.rothenburg-grundschule.de","2","532"
"06G17",,"Grundschule am Insulaner","79742860",,,"http://www.grundschule-am-insulaner.de","2","533"
"06G18","Mittagessenversorgung","Athene-Grundschule","81009710",,,"http://www.athene-grundschule.de","2","534"
"06G20",,"Alt-Lankwitzer Grundschule","7668790",,,"http://www.alt-lankwitzer-grundschule.de","2","535"
"06G21",,"Paul-Schneider-Grundschule","93951511",,,"http://www.paul-schneider-grundschule.de","2","536"
"06G22",,"Giesensdorfer Grundschule","71097530",,,"http://www.giesensdorfer-grundschule.de","2","537"
"06G23",,"Kronach-Grundschule","84416760",,,"http://www.kronach-grundschule.de","2","538"
"06G24",,"Grundschule unter den Kastanien","93951940",,,"http://www.grundschule-unter-den-kastanien.de","2","539"
"06G25",,"Clemens-Brentano-Grundschule","84416460",,,"http://www.c-brentano-grundschule.de","2","540"
"06G26",,"Käthe-Kruse-Grundschule","84416950",,,"http://www.kaethe-kruse.cidsnet.de","2","541"
"06G27","Mittagessenversorgung","Grundschule am Königsgraben","77206590",,,"http://www.koenigsgraben.cidsnet.de","2","542"
"06G28","Mittagessenversorgung durch den Anbieter LUNA","Ludwig-Bechstein-Grundschule","7668780",,,"http://www.ludwig-bechstein-grundschule.net","2","543"
"06G29",,"Grundschule am Karpfenteich","72006990",,,"http://www.grundschule-am-karpfenteich.de","2","544"
"06G30","Mittagessenversorgung für Kinder in der ergänzenden Betreuung","Mercator-Grundschule","7551086",,,"http://www.mercator-gs.de","2","545"
"06G31",,"Grundschule an der Bäke","84416430",,,"http://www.baeke.net    ","2","546"
"06G32",,"Grundschule am Stadtpark Steglitz","93951947",,,"http://www.grundschule-am-stadtpark-steglitz.de","2","547"
"06K01","Mittagessenversorgung durch den Anbieter Greens Unlimited","John-F.-Kennedy-Schule","902995779",,,"http://www.jfks.de","2","548"
"06K02","Mittagessenversorgung durch den Anbieter Sodexo","Wilma-Rudolph-Schule (Integrierte Sekundarschule)","902996464",,,"http://www.wilma-rudolph.de","2","549"
"06K03","Mittagessenversorgung durch den Anbieter 3 Köche","Kopernikus-Schule","79744260",,,"http://www.kopernikus.be.schule.de","2","550"
"06K04","Mittagessenversorgung","Bröndby-Schule (Integrierte Sekundarschule)","902992010",,,"http://www.broendby-oberschule.de","2","551"
"06K06","Mittagessenversorgung","Nikolaus-August-Otto-Schule (Gemeinschaftsschule)","84416940",,,"http://www.msg.be.schule.de","2","552"
"06K08","Mittagessenversorgung durch den Anbieter 3 Köche","Max-von-Laue-Schule","84414920",,,"http://www.Max-von-Laue-Schule.de","2","553"
"06K09",,"Gail-S.-Halvorsen-Integrierte Sekundarschule","84108184",,,"http://www.aw-or.de","2","554"
"06K10",,"10. Schule (Integrierte Sekundarschule)","902992345",,,,"2","555"
"06P01",,"Katholische Schule Sankt Ursula (Grundschule)","8113555",,,"http://www.st-ursula.schule-berlin.net","1","556"
"06P02",,"Waldschule Gerdes (Grundschule)","8015385",,,"http://www.waldschule-gerdes.de","1","557"
"06P04","Mittagessenversorgung","Rudolf-Steiner-Schule Berlin","8300910",,,"http://dahlem.waldorf.net","1","558"
"06P05",,"Emil Molt Schule","8457060",,,"http://www.emil-molt-schule.de","1","559"
"06P06","Mittagessenversorgung","Königin-Luise-Stiftung","841813",,,"http://www.koenigin-luise-stiftung.de","1","560"
"06P07","Mittagessenversorgung","Parzival-Schule","8181970",,,"http://wwww.parzival-schule-berlin.de","1","561"
"06P08","Mittagessenversorgung","Sancta-Maria-Schule der Hedwigschwestern","80303261",,,"http://www.sancta-maria-schule.de","1","562"
"06P09",,"Caroline-von-Heydebrand-Schule","8016003",,,"http://www.heydebrand.waldorf.net","1","563"
"06P10",,"Private Kant-Schule (Grundschule)","820070900",,,"http://www.private-kant-schule.de","1","564"
"06P11",,"Private Kant-Schule (Integrierte Sekundarschule)","79000360",,,"http://www.kant-oberschule.de/","1","565"
"06P12",,"Evangelische Schule Steglitz (Integrierte Sekundarschule)","7916001",,,"http://www.evangelischeschulesteglitz.de","1","566"
"06P13","Mittagessenversorgung","Gemeinschaftsschule nach der Pädagogik Berthold Ottos","8335090",,,"http://www.berthold-otto-schule.de","1","567"
"06P14",,"Emil-Molt-Akademie","29045561",,,"http://www.emil-molt-akademie.de","1","513"
"06P15",,"Oberlin-Seminar","79701440",,,"http://www.oberlin-seminar.de","1","568"
"06P18",,"Bilinguale Schule Phorms Berlin Süd","91684990",,,"http://www.berlin-sued.phorms.de","1","569"
"06P20","keine Mittagessenversorgung","Freie Schule Anne-Sophie Berlin","8471463910",,,"http://www.freie-schule-anne-sophie.de","1","570"
"06P21","Mittagessenversorgung durch den Anbieter Pro agora Bio-Catering","Internationale Montessorischule Berlin (Grundschule)","80482270",,,"http://www.montessori-friends.de","1","571"
"06S01","Mittagessenversorgung für Schülerinnen und Schüler in der ergänzenden Betreuung","Pestalozzi-Schule","902995760",,,"http://www.pestalozzi-schule-berlin.de","2","572"
"06S02",,"Biesalski-Schule","902996474",,,"http://www.Biesalski-Schule.cidsnet.de","2","529"
"06S03",,"Peter-Frankenfeld-Schule","77206560",,,"http://www.peter-frankenfeld-schule.de","2","573"
"06S04","Mittagessenversorgung im Rahmen der ergänzenden Betreuung","Paul-Braune-Schule","844159541",,,"http://www.paul-braune-schule.cidsnet.de","2","574"
"06S05","Mittagessenversorgung","J.-A.-Zeune-Schule für Blinde und Berufsfachschule Dr. Silex","902992390",,,"http://www.blindenschule-berlin.de","2","575"
"06Y01","Mittagessenversorgung","Schadow-Gymnasium","902995463",,,"http://www.schadow-gymnasium.de","2","576"
"06Y02","Mittagessenversorgung","Droste-Hülshoff-Oberschule","84508466",,,"http://www.droste-gymnasium-berlin.de","2","577"
"06Y03","Mittagessenversorgung durch den Anbieter LUNA","Arndt-Gymnasium Dahlem","8315052",,,"http://www.arndt-gymnasium.de","2","578"
"06Y04","Mittagessenversorgung","Dreilinden-Gymnasium","8031087",,,"http://www.dreilinden-gymnasium.de","2","579"
"06Y05","Mittagessenversorgung","Werner-von-Siemens-Oberschule","8039066",,,"http://www.siemens-gymnasium-berlin.de","2","580"
"06Y06",,"Beethoven-Oberschule","76890530",,,"http://www.beethoven-oberschule.de","2","581"
"06Y07","Mittagessenversorgung","Paulsen-Gymnasium","79742530",,,"http://www.paulsengymnasium.de","2","582"
"06Y08","Mittagessenversorgung durch den Anbieter 3 Köche","Hermann-Ehlers-Oberschule","902992353",,,"http://www.hermann-ehlers-schule.de","2","583"
"06Y09","Mittagessenversorgung, Mensa","Fichtenberg-Oberschule","902992354",,,"http://fichtenberg-os.be.schule.de/","2","532"
"06Y10","Mittagessenversorgung","Lilienthal-Gymnasium","84415360",,,"http://www.lilienthal-gymnasium-berlin.de","2","584"
"06Y11","keine Mittagessenversorgung","Goethe-Oberschule","84416730",,,"http://www.goethe-oberschule-berlin.de","2","585"
"06Y12","Mittagessenversorgung","Willi-Graf-Gymnasium","7729004",,,"http://www.willi-graf-os.de","2","586"
"06Y13","Mittagessenversorgung durch den Anbieter Sodexo","Gymnasium Steglitz","93951937",,,"http://www.gymnasiumsteglitz.de","2","587"
"07A01",,"1. Schulpraktisches Seminar (L) Tempelhof-Schöneberg","705507813",,,,"2","588"
"07A02",,"2. Schulpraktisches Seminar (S) Tempelhof-Schöneberg","705507814",,,,"2","588"
"07A04",,"3. Schulpraktisches Seminar (S) Tempelhof-Schöneberg","705507815",,,,"2","588"
"07A05",,"Kolleg Schöneberg","902774391",,,"http://www.KollegSchoeneberg.de","2","589"
"07A06",,"Volkshochschule Tempelhof-Schöneberg","902774321",,,"http://www.vhs-tempelhof-schoeneberg.de","2","590"
"07B01",,"Friedrich-List-Schule (OSZ Wirtschaftssprachen)","8185350",,,"http://www.friedrich-list-berlin.de","2","591"
"07B02",,"Marie-Elisabeth-Lüders-Oberschule","2639166",,,"http://www.melo-berlin.de","2","592"
"07B03",,"OSZ Logistik, Touristik, Immobilien, Steuern","7860450",,,"http://www.osz-lotis.de","2","593"
"07E01",,"GFS Steuerfachschule in Berlin GmbH","23634999",,,"http://www.gfs.eu","1","594"
"07E02",,"Vital Kosmetikakademie","21478730",,,"http://www.vital-kosmetikakademie.de","1","595"
"07E05",,"Hartnackschule Berlin","2102193",,,"http://www.hartnackschule-berlin.de","1","596"
"07E07",,"GLS Sprachenzentrum","7800890",,,"http://www.gls-berlin.com","1","597"
"07E08",,"Ilse-Middendorf-Institut für den Erfahrbaren Atem","21479530",,,"http://www.Erfahrbarer-Atem.de","1","598"
"07E09",,"arche medica Akademie für Heilpraktiker","8516838",,,"http://www.heilpraktiker-werden.de","1","599"
"07E11",,"Sportschule des Landessportbundes Berlin e.V.","7877240",,,"http://www.LSB-Berlin.org","1","600"
"07E15",,"Tanzakademie balance 1","75446810",,,"http://www.balance1.de","1","601"
"07E16",,"Danceworks Berlin","78892887",,,,"1","602"
"07E17",,"GFS Akademie für Aus- und Weiterbildung","70072250",,,"http://www.gfs-fachschule.de","1","603"
"07E18",,"Heilpraktikerschule Bodammer","6946897",,,"http://www.brigitte-bodammer.de","1","604"
"07E19",,"Shou Zhong Schule für Traditionelle Chinesische Medizin","29044603",,,"http://www.abz-ost.de","1","605"
"07E20",,"BFT-Schule für Tourismus","23629024",,,"http://www.berufsschule-tourismus.de","1","606"
"07E21",,"GFS Steuer- und Wirtschaftsfachschule GmbH","23634949",,,"http://www.gfs.eu","1","594"
"07E24",,"Kosmetikschule und Vertrieb Silvia Günther","2162626",,,"http://www.sg-kosmetik.de","1","607"
"07E25",,"Miami Ad School Berlin","319820000",,,"http://www.miamiadschool.com/de","1","608"
"07E26",,"Internationale Dance Academy Berlin","8738818",,,"http://www.international-dance-academy-berlin.de","1","609"
"07G01","Mittagessenversorgung durch den Anbieter LUNA","Spreewald-Grundschule","902777151",,,"http://www.spreewald-grundschule.de","2","610"
"07G02","Mittagessenversorgung durch den Anbieter Sodexo","Finow-Grundschule","902777175",,,"http://Finow-Grundschule.cidsnet.de","2","611"
"07G03",,"Werbellinsee-Grundschule","902777153",,,"http://www.Werbellinsee-Grundschule.cidsnet.de","2","612"
"07G05",,"Havelland-Grundschule","902777155",,,"http://www.havelland-grundschule.cidsnet.de","2","613"
"07G06",,"Sternberg-Grundschule","902777156",,,"http://www.sternberg-grundschulen.de","2","614"
"07G07","Mittagessenversorgung in Kooperation mit dem Nachbarschaftsheim Schöneberg e.V. für Kinder in der ergänzenden Betreuung","Lindenhof-Grundschule","902777157",,,"http://www.Lindenhof.cidsnet.de","2","615"
"07G10",,"Teltow-Grundschule","902777160",,,"http://www.teltow-grundschule.de","2","616"
"07G12",,"Scharmützelsee-Grundschule","902777162",,,"http://www.scharmuetzelseegrundschule.de","2","617"
"07G13",,"Neumark-Grundschule","902777163",,,,"2","618"
"07G14",,"Löcknitz-Grundschule","902777164",,,"http://www.loecknitz-grundschule.de","2","619"
"07G15",,"Fläming-Grundschule","902777061",,,"http://www.flaeming-grundschule.de","2","620"
"07G16","Mittagessenversorgung durch den Anbieter Sodexo","Ruppin-Grundschule","902777907",,,"http://www.ruppin-grundschule.cidsnet.de","2","590"
"07G17","Mittagessenversorgung","Stechlinsee-Grundschule","902777908",,,"http://www.stechlinsee-grundschule.de/","2","621"
"07G18","Mittagessenversorgung","Grundschule am Barbarossaplatz","902777109",,,"http://www.gs-barbarossaplatz.de/","2","622"
"07G19",,"Paul-Simmel-Grundschule","902772660",,,"http://www.paul-simmel-grundschule.de","2","623"
"07G20",,"Maria-Montessori-Grundschule","902772661",,,"http://www.mmg-online.de","2","624"
"07G21",,"Grundschule auf dem Tempelhofer Feld","902772664",,,"http://www.GS-TempelhoferFeld.cidsnet.de","2","625"
"07G22","Mittagessenversorgung","Paul-Klee-Grundschule","902772662",,,"http://www.paul-klee-schule.de","2","626"
"07G23",,"Schätzelberg-Grundschule","902777462",,,"http://www.schaetzelberg-grundschule.de","2","627"
"07G24",,"Tempelherren-Grundschule","902772665",,,"http://www.tempelherren.cidsnet.de","2","628"
"07G25",,"Ludwig-Heck-Grundschule","902777461",,,"http://www.ludwig-heck-grundschule.de","2","629"
"07G26","Mittagessenversorgung durch den Anbieter 3 Köche","Grundschule im Taunusviertel","902778151",,,"http://www.grundschule-im-taunusviertel.de","2","630"
"07G27","Mittagessenversorgung","Rudolf-Hildebrand-Grundschule","902777456",,,"http://www.rhg.cidsnet.de","2","631"
"07G28",,"Kiepert-Grundschule","902774100",,,"http://www.Kiepert.cidsnet.de","2","632"
"07G29",,"Käthe-Kollwitz-Grundschule","902778241",,,"http://www.kkgs-berlin.de","2","633"
"07G30",,"Annedore-Leber-Grundschule","902778243",,,"http://www.algs.de","2","634"
"07G31",,"Carl-Sonnenschein-Grundschule","700767910",,,"http://www.carl-sonnenschein-gs.de","2","635"
"07G32","Mittagessenversorgung","Bruno-H.-Bürgel-Grundschule","902778250",,,"http://www.bruno-h-buergel.schule-berlin.net","2","636"
"07G34",,"Marienfelder-Schule (Grundschule)","902774104",,,"http://www.marienfelder-gs.de","2","637"
"07G35","Mittagessenversorgung","Nahariya-Grundschule","902778256",,,"http://www.nahariya-schule-berlin.de","2","638"
"07G36",,"Grundschule am Dielingsgrund","902778222",,,"http://www.Grundschule-am-Dielingsgrund.de","2","639"
"07G37","Mittagessenversorgung durch den Anbieter 3 Köche","Ikarus-Grundschule","902777459",,,"http://www.ikarus-grundschule.de","2","640"
"07K01","Mittagessenversorgung","Sophie-Scholl-Schule","902777171",,,"http://sophie-scholl-schule.eu","2","641"
"07K02","Mittagessenversorgung","Carl-Zeiss-Schule","902778206",,,"http://www.carl-zeiss-oberschule.de","2","642"
"07K03","Mittagessenversorgung","Gustav-Heinemann-Schule","902774132",,,"http://www.gho-berlin.cidsnet.de","2","643"
"07K04","keine Mittagessenversorgung; Cafeteria","Theodor-Haubach-Schule","902778245",,,"http://www.ths-berlin.de","2","644"
"07K05","keine Mittagessenversorgung","Solling-Schule","902777453",,,"http://www.solling-schule.de/","2","645"
"07K06","Mittagessenversorgung","Georg-von-Giesche-Schule","902777169",,,"http://www.giesche-schule.de","2","646"
"07K07","Mittagessenversorgung","7. Schule (Integrierte Sekundarschule)","902772676",,,"http://iss-ringstrasse.de/","2","647"
"07K09","Mittagessenversorgung","Gustav-Langenscheidt-Schule","902777165",,,"http://www.g-l-s.cidsnet.de","2","648"
"07K10","keine Mittagessenversorgung, Cafeteria","Friedrich-Bergius-Schule","902777910",,,"http://www.Friedrich-Bergius-Schule.de","2","649"
"07K11","Mittagessenversorgung","Hugo-Gaudig-Schule","902772666",,,"http://www.hugo-gaudig-schule.de","2","628"
"07K12",,"1. Gemeinschaftsschule Schöneberg","902777904",,,"http://gemeinschaftsschule-am-grazer-platz.de","2","650"
"07K13",,"13. Schule (Integrierte Sekundarschule)","902772641",,,,"2","651"
"07P01",,"Katholische Schule Sankt Franziskus (Integrierte Sekundarschule)","2163565",,,"http://www.franziskusschule-berlin.de","1","652"
"07P02",,"Pestalozzi-Fröbel-Haus","21730242",,,"http://www.pfh-berlin.de","1","653"
"07P03",,"Lette-Verein-Stiftung des öffentlichen Rechts","219940",,,"http://www.lette-verein.de","1","654"
"07P04",,"Katholische Schule Sankt Alfons (Grundschule)","7111075",,,"http://www.kssa.de","1","655"
"07P05",,"Freie Schule in Berlin (Grundschule)","7520771",,,"http://www.freie-schule-in-berlin.cidsnet.de","1","656"
"07P06",,"Katholische Schule Sankt Hildegard","7213090",,,"http://www.kssh.cidsnet.de","1","657"
"07P07",,"BFT Berufsschule für Tourismus","23629024",,,"http://www.berufsschule-tourismus.de","1","658"
"07P10","keine Mittagessenversorgung","Campus Berufsbildung e.V.","7551210011",,,"http://www.campus-berlin.de","1","659"
"07P11",,"Privates Europa-Gymnasium Berlin","74073717",,,,"1","266"
"07P12",,"SPI Fachschule für Sozialpädagogik","25937390",,,,"1","660"
"07P13",,"Bilinguale Deutsch-Skandinavische Gemeinschaftsschule","33848783",,,"http://www.dsg-schule.de","1","661"
"07S01","Mittagessenversorgung durch den Anbieter Sodexo","Prignitz-Schule","902776932",,,"http://www.prignitz.cidsnet.de","2","662"
"07S03",,"Steinwald-Schule","902774139",,,"http://www.steinwald-schule.de","2","663"
"07S04","Mittagessenversorgung durch den Anbieter Sodexo","Marianne-Cohn-Schule","902772555",,,"http://www.marianne-cohn.cidsnet.de","2","664"
"07Y01","Mittagessenversorgung","Robert-Blum-Gymnasium","902777172",,,"http://www.robert-blum-schule.de","2","665"
"07Y02","keine Mittagessenversorgung","Rückert-Gymnasium","902777173",,,"http://www.rueckert-oberschule.de","2","614"
"07Y03","keine Mittagessenversorgung, Cafeteria","Rheingau-Gymnasium","902777920",,,"http://www.rheingau-gymnasium.de","2","666"
"07Y04","keine Mittagessenversorgung, Cafeteria","Paul-Natorp-Gymnasium","902777921",,,"http://www.paul-natorp-oberschule.de","2","667"
"07Y05","Mittagessenversorgung","Luise-Henriette-Oberschule","902772678",,,"http://www.luise-henriette-schule.de","2","668"
"07Y06","keine Mittagessenversorgung","Askanisches-Gymnasium","902772679",,,"http://www.askanische-oberschule.de","2","669"
"07Y07","Mittagessenversorgung durch eigene Cafeteria","Eckener-Gymnasium","902777448",,,"http://www.eckener-gymnasium.de","2","670"
"07Y08","keine Mittagessenversorgung","Ulrich-von-Hutten-Gymnasium","902778244",,,"http://www.uvh-online.de","2","671"
"07Y09","Mittagessenversorgung","Georg-Büchner-Gymnasium","902778208",,,"http://www.gbo-berlin.de","2","672"
"08A01",,"1. Schulpraktisches Seminar (S) Neukölln","6706663127",,,,"2","673"
"08A02",,"2. Schulpraktisches Seminar (S) Neukölln","6706663123",,,,"2","673"
"08A04",,"3. Schulpraktisches Seminar (L) Neukölln","689773990",,,,"2","674"
"08A05",,"4. Schulpraktisches Seminar (S) Neukölln","6706663125",,,,"2","673"
"08B01",,"Annedore-Leber-Oberschule","66588361",,,"http://www.aloberlin.de","2","675"
"08B02",,"Lise-Meitner-Schule (OSZ Chemie, Physik und Biologie)","6606890",,,"http://osz-lise-meitner.eu","2","676"
"08B04","Mittagessenversorgung","OSZ Informations- und Medizintechnik","225027800",,,"http://www.oszimt.de","2","677"
"08B05","Mittagessenversorgung im Rahmen eines Schülerprojekts","Carl-Legien-Schule","8146540",,,"http://www.Carl-Legien-Schule.de","2","678"
"08E02",,"BSI  Private Sprachenschule","6936001",,,"http://www.bsiberlin.de","1","679"
"08E04",,"Kosmetikcollege-Inspiration","81493664",,,"http://www.inspiration-kosmetikcollege.de","1","680"
"08G01",,"Rixdorfer Schule (Grundschule)","6139260",,,"http://www.die-rixdorfer.de","2","681"
"08G02","keine Mittagessenversorgung","Theodor-Storm-Schule (Grundschule)","60690180",,,"http://www.Theodor-Storm-Grundschule.de","2","682"
"08G03","Mittagessenversorgung durch den Anbieter Sunshine Catering","Hans-Fallada-Schule (Grundschule)","632250670",,,"http://www.hans-fallada-schule.de","2","683"
"08G05","Mittagessenversorgung durch den Anbieter Apetito","Elbe-Schule (Grundschule)","632250880",,,"http://www.elbeschule.de","2","684"
"08G06","Mittagessenversorgung durch den Anbieter LUNA","Karl-Weise-Schule (Grundschule)","634130280",,,"http://www.karl-weise-gs.cidsnet.de","2","685"
"08G07",,"Hermann-Boddin-Schule (Grundschule)","68874410",,,"http://www.boddinschule.cidsnet.de","2","686"
"08G08","Mittagessenversorgung, Cafeteria","Karlsgarten-Schule (Grundschule)","62791420",,,"http://www.karlsgarten.de","2","687"
"08G09","Mittagessenversorgung","Regenbogen-Schule (Grundschule)","6898030",,,"http://www.regenbogen-grundschule.de","2","688"
"08G10","Mittagessenversorgung","Walt-Disney-Schule (Gemeinschaftsschule)","66690418",,,"http://www.walt-disney-gs.cidsnet.de","2","689"
"08G11","Mittagessenversorgung durch den Anbieter LUNA","Schliemann-Schule (Grundschule)","6636053",,,"http://www.schliemann-gs.de","2","690"
"08G12","keine Mittagessenversorgung","Peter-Petersen-Schule (Grundschule)","6322506821",,,"http://www.pps.cidsnet.de","2","691"
"08G13",,"Bruno-Taut-Schule (Grundschule)","60972490",,,"http://www.bruno-taut.de","2","692"
"08G14",,"Konrad-Agahd-Schule (Grundschule)","632250680",,,"http://www.agahd.de","2","693"
"08G15",,"Hermann-Sander-Schule (Grundschule)","290276350",,,"http://www.hermann-sander-schule.de","2","694"
"08G16","Mittagessenversorgung","Hugo-Heimann-Schule (Grundschule)","6679230",,,"http://www.hugoheimannschule.de","2","695"
"08G17","Mittagessenversorgung durch den Anbieter LUNA","Richard-Schule (Grundschule)","290283100",,,"http://www.richard-grundschule.de","2","696"
"08G18","Mittagessenversorgung","Eduard-Mörike-Schule (Grundschule)","680856890",,,"http://eduard-moerike-schule.cidsnet.de","2","697"
"08G19",,"Herman-Nohl-Schule (Grundschule)","62008330",,,"http://www.HNS.cidsnet.de","2","698"
"08G20","Mittagessenversorgung","Sonnen-Schule (Grundschule)","68975090",,,"http://www.sonnen-g.cidsnet.de","2","699"
"08G21","keine Mittagessenversorgung","Silberstein-Schule (Grundschule)","62008922",,,"http://www.silberstein-grundschule.cidsnet.de","2","700"
"08G22",,"Schule am Regenweiher (Grundschule)","6044012",,,"http://www.Grundschule-am-Regenweiher.de","2","701"
"08G23","Mittagessenversorgung","Zürich-Schule (Grundschule)","60902970",,,"http://www.zuerich-gs.cidsnet.de","2","702"
"08G24","Mittagessenversorgung durch den Anbieter LUNA","Schule am Teltowkanal (Grundschule)","627397990",,,"http://www.teltowkanal.cidsnet.de","2","703"
"08G25","Mittagessenversorgung durch den Anbieter Apetito, für Kinder in der ergänzenden Betreuung","Michael-Ende-Schule (Grundschule)","74075580",,,"http://www.meg.cidsnet.de","2","704"
"08G26",,"Christoph-Ruden-Schule (Grundschule)","7421014",,,"http://www.christoph-ruden-schule.de","2","705"
"08G27","Mittagessenversorgung für Hortkinder","Oskar-Heinroth-Schule (Grundschule)","6021042",,,"http://www.oskar-heinroth-gs.cidsnet.de","2","706"
"08G28","Mittagessenversorgung für Kinder in der ergänzenden Betreuung durch den Anbieter Apetito","Matthias-Claudius-Schule (Grundschule)","60972130",,,"http://www.mcg.cidsnet.de","2","707"
"08G29",,"Wetzlar-Schule (Grundschule)","6051007",,,"http://www.wetzlar.schule-berlin.net","2","708"
"08G30",,"Schule am Sandsteinweg (Grundschule)","762860",,,"http://www.sams.gs","2","709"
"08G31",,"Janusz-Korczak-Schule (Grundschule)","67066630",,,"http://www.jkgs.schule-berlin.net","2","673"
"08G32","Mittagessenversorgung","Martin-Lichtenstein-Schule (Grundschule)","6616630",,,"http://www.martin-lichtenstein-schule.de","2","710"
"08G33","Mittagessenversorgung durch den Anbieter LUNA","Schule am Fliederbusch (Grundschule)","60972260",,,"http://www.schule-am-fliederbusch.de","2","711"
"08G34","Mittagessenversorgung","Lisa-Tetzner-Schule (Grundschule)","6045065",,,"http://www.Lisa-Tetzner.de","2","712"
"08G35","Mittagessenversorgung durch den Anbieter Apetito","Schule in der Köllnischen Heide (Grundschule)","68296013",,,"http://www.grundheide.cidsnet.de","2","713"
"08G36",,"Löwenzahn-Schule (Grundschule)","68390500",,,"http://www.drory.de","2","714"
"08G37","Mittagessenversorgung","Rose-Oehmichen-Schule (Grundschule)","6698810",,,"http://www.rog.cidsnet.de","2","715"
"08K01","Mittagessenversorgung durch den Anbieter Menütaxi","Walter-Gropius-Schule (Gemeinschaftsschule)","6009080",,,"http://www.walter-gropius-schule-berlin.de","2","716"
"08K02","Mittagessenversorgung, Cafeteria","Hermann-von-Helmholtz-Schule","6097170",,,"http://www.hermann-von-helmholtz-schule.de","2","717"
"08K03","keine Mittagessenversorgung, Cafeteria","Otto-Hahn-Schule","62739790",,,"http://www.oho-berlin.de","2","718"
"08K04","Mittagessenversorgung","Heinrich-Mann-Schule","742080",,,"http://hms.be.schule.de","2","719"
"08K05","Mittagessenversorgung","Clay-Schule","660040",,,"http://www.clay-schule.de","2","720"
"08K06","Mittagessenversorgung durch den Anbieter LUNA, Cafeteria","Fritz-Karsen-Schule (Gemeinschaftsschule)","6090010",,,"http://www.fritz-karsen.de","2","721"
"08K07","Mittagessenversorgung","Liebig-Schule (Gemeinschaftsschule)","6669040",,,"http://www.liebig-schule.cidsnet.de","2","689"
"08K08","Mittagessenversorgung durch die Kindertagestätten Südost Eigenbetrieb von Berlin","1. Schule (Gemeinschaftsschule)","600347620",,,"http://www.campusruetli.de","2","722"
"08K09","Mittagessenversorgung","Röntgen-Schule","29027640",,,"http://www.loewe.cidsnet.de/","2","723"
"08K10","keine Mittagessenversorgung, Cafeteria","Zuckmayer-Schule","6887475",,,"http://www.zuckmayer-or.cidsnet.de","2","724"
"08K11","Mittagessenversorgung","Alfred-Nobel-Schule","6064032",,,"http://www.alfred-nobel-schule.de","2","725"
"08K12","Mittagessenversorgung durch die  Akademie Schmöckwitz (Ausbildungsbetrieb)","Kepler-Schule","902392064",,,"http://www.kepler.cidsnet.de","2","726"
"08P01",,"Johann-Georg-Elser-Schule (Integrierte Sekundarschule)","60975622",,,"http://www.nc-init.de","1","727"
"08P02",,"Katholische Schule Sankt Marien (Grundschule)","6052032",,,"http://www.marien-grund.cidsnet.de","1","728"
"08P03","Cafeteria-Angebot; Mittagstisch im Hort","Evangelische Schule Neukölln (Integrierte Sekundarschule)","6242027",,,"http://www.evangelische-schule-neukoelln.de","1","729"
"08P04","Mittagessenversorgung","Katholische Schule Sankt Marien","39881620",,,"http://www.marienschule-berlin.de","1","730"
"08P06",,"Vivantes-Berufsfachschule für Sozialassistenz","130142707",,,"http://www.vivantes.de/karriere-testing/ausbildung-bei-vivantes/","1","731"
"08P08",,"acenta-Ausbildungszentrum für Altenpflege","667767970",,,"http://www.acenta-berlin.de","1","732"
"08P09",,"MeineSchuleBerlin (Gemeinschaftsschule)","017670032952",,,"http://www.MeineSchuleBerlin.de","1","733"
"08P10",,"Akademie Seehof GmbH - Private Berufsfachschule für Altenpflege","804091050",,,"http://www.akademie-seehof.de","1","734"
"08P12",,"DAA - Deutsche Angestellten-Akademie GmbH","63226136",,,,"1","735"
"08S01","Mittagessenversorgung","Adolf-Reichwein-Schule","63225111",,,"http://www.adolf-reichwein-schule.com","2","736"
"08S03",,"Herman-Nohl-Schule","62008335",,,"http://www.HNS.cidsnet.de","2","698"
"08S04","Mittagessenversorgung durch den Anbieter LUNA","Schule am Zwickauer Damm","6616079",,,"http://www.schule-am-zwickauer-damm.de","2","737"
"08S05","Mittagessenversorgung für Kinder in der ergänzenden Betreuung","Schule am Hasenhegerweg","6045066",,,"http://www.Hasenheger.cidsnet.de","2","712"
"08S06",,"Hans-Fallada-Schule","6322506724",,,"http://www.hans-fallada-schule.de","2","738"
"08S07",,"Schule am Bienwaldring","7430100",,,"http://www.bienwaldring.cidsnet.de","2","739"
"08S08","Cafeteria und Mittagessen","Schilling-Schule","6000272",,,"http://online.schillingschule.de","2","740"
"08S09","Mittagessenversorgung für Kinder in der ergänzenden Betreuung","Schule an der Windmühle","609724020",,,"http://www.windmuehle.cidsnet.de","2","741"
"08Y01","Mittagessenversorgung, Cafeteria","Albrecht-Dürer-Schule (Gymnasium)","902392421",,,"http://www.albrecht-duerer-gymnasium.de","2","742"
"08Y02","Mittagessenversorgung","Albert-Schweitzer-Schule (Gymnasium)","902392422",,,"http://www.albert-schweitzer-schule-berlin.de","2","743"
"08Y03","Mittagessenversorgung","Albert-Einstein-Schule (Gymnasium)","6009020",,,"http://www.aeo.de","2","744"
"08Y04","keine Mittagessenversorgung, Cafeteria","Ernst-Abbe-Schule (Gymnasium)","902392423",,,"http://www.ernst-abbe.de","2","745"
"08Y05","keine Mittagessenversorgung, Cafeteria","Leonardo-da-Vinci-Schule (Gymnasium)","742010",,,"http://Leonardo-da-Vinci-Gymnasium.de","2","746"
"08Y06","Mittagessenversorgung","Hannah-Arendt-Schule (Gymnasium)","6097180",,,"http://www.hannah-arendt-os.de","2","747"
"09A01",,"1. Schulpraktisches Seminar (L) Treptow-Köpenick","347450920",,,,"2","748"
"09A02",,"2. Schulpraktisches Seminar (S) Treptow-Köpenick","347450910",,,,"2","748"
"09A03",,"3. Schulpraktisches Seminar (L) Treptow-Köpenick","347450920",,,,"2","748"
"09A04",,"4. Schulpraktisches Seminar (S) Treptow-Köpenick","347450910",,,,"2","748"
"09A05",,"Treptow-Kolleg","5329141",,,"http://www.treptow-kolleg.de","2","749"
"09A06",,"Volkshochschule Treptow-Köpenick","53699510",,,,"2","750"
"09A07","Mittagessenversorgung durch den Anbieter Sodexo","Flatow-Oberschule","65486630",,,"http://www.flatow-os.de","2","751"
"09B03","Mittagessenversorgung, Kantine","OSZ Wirtschaft und Sozialversicherung","5389580",,,"http://www.osz-wiso.de","2","752"
"09E01",,"Elop training engineering Berlin","6777000",,,"http://www.elop.de","1","753"
"09E05",,"Akademie Berlin Schmöckwitz","675030",,,"http://www.akademie-schmoeckwitz.de","1","754"
"09E06",,"arts and stage academy","67044851",,,,"1","755"
"09E07",,"Informationstechnik Internationale Schule Berlin","65762018",,,"http://www.itisberlin.com","1","756"
"09G01","Mittagessenversorgung durch den Anbieter LUNA","Bouché-Schule (Grundschule)","5337745",,,"http://www.bouche-grundschule.cidsnet.de","2","757"
"09G03",,"Schule am Heidekampgraben (Grundschule)","5328424",,,"http://www.grundschuleamheidekampgraben.de","2","758"
"09G04","Mittagessenversorgung durch den Anbieter 3 Köche","Sonnenblumen-Schule (Grundschule)","5328413",,,"http://www.sonnenblumen-grundschule.de","2","759"
"09G05","Mittagessenversorgung","Schule am Ginkobaum (Grundschule)","6363317",,,"http://www.g-am-ginkobaum.cidsnet.de","2","760"
"09G06","Mittagessenversorgung","Melli-Beese-Schule (Grundschule)","6361390",,,"http://www.melli-beese-g.cidsnet.de","2","761"
"09G07",,"Schule an der alten Feuerwache (Grundschule)","6361331",,,"http://G-anderaltenFeuerwache.de","2","762"
"09G09",,"Heide-Schule (Grundschule)","67822789   ",,,"http://www.heideschule-berlin.de","2","763"
"09G10","Mittagessenversorgung durch den Anbieter Sodexo","Schule am Berg (Grundschule)","6728350",,,"http://www.grundschule-am-berg.de","2","764"
"09G11","Mittagessenversorgung","Schule am Pegasuseck (Grundschule)","6733032",,,"http://pegasus.cidsnet.de/homepage","2","765"
"09G13","Mittagessenversorgung","Schule am Altglienicker Wasserturm (Grundschule)","6728913",,,"http://www.saawt.de","2","766"
"09G14","Mittagessenversorgung durch den Anbieter Sodexo","Schule am Buntzelberg (Grundschule)","6763943",,,"http://www.schule-am-buntzelberg.de","2","767"
"09G15","Mittagessenversorgung durch den Anbieter Detlef Giermann","Schule am Mohnweg (Grundschule)","6797490",,,"http://www.gsammohnweg.cidsnet.de","2","768"
"09G16","Mittagessenversorgung","Wendenschloß-Schule (Grundschule)","6519703",,,"http://www.wendenschloss-g.cidsnet.de","2","769"
"09G17","Mittagessenversorgung durch den Anbieter Sodexo","Uhlenhorst-Grundschule","6504144",,,"http://www.uhlenhorst-grundschule.de","2","770"
"09G18","Mittagessenversorgung","Schule in der Köllnischen Vorstadt (Grundschule)","64326715",,,"http://www.gs-kvstd.cidsnet.de","2","771"
"09G19",,"Amtsfeld-Schule (Grundschule)","6540192",,,"http://www.amtsfeld-schule.de","2","772"
"09G20","Mittagessenversorgung","Müggelheimer Schule (Grundschule)","6598590",,,"http://www.mueggelheimer-grundschule.cidsnet.de","2","773"
"09G21","Mittagessenversorgung durch den Anbieter Sodexo","Edison-Grundschule","5350657",,,"http://www.edison-grundschule.de","2","774"
"09G22","Mittagessenversorgung durch den Anbieter 3 Köche","Schule an der Wuhlheide (Grundschule)","5350178",,,"http://www.grundschule-an-der-wuhlheide.cidsnet.de","2","775"
"09G23",,"Hauptmann-von-Köpenick-Schule (Grundschule)","6571426",,,"http://www.hvkschule.de","2","776"
"09G24","Mittagessenversorgung","Müggelsee-Schule (Grundschule)","6458806",,,"http://www.mueggelsee-grundschule.de","2","777"
"09G25","Mittagessenversorgung durch den Anbieter Alex Menü","Müggelschlößchen-Schule (Grundschule)","6543102",,,"http://www.ms-schule.de","2","778"
"09G26",,"Schule an den Püttbergen (Grundschule)","6489278",,,"http://www.puettbergen.cidsnet.de","2","779"
"09G27","Mittagessenversorgung","Friedrichshagener Schule (Grundschule)","6455411",,,"http://www.friedrichshagener-grundschule.cidsnet.de","2","780"
"09G29",,"Schmöckwitzer Insel-Schule (Grundschule)","6758444",,,"http://www.schmoeckwitzer-gs.cidsnet.de","2","781"
"09K01","Mittagessenversorgung","Merian-Schule (Integrierte Sekundarschule)","6571249",,,"http://www.merian-schule-berlin.de","2","782"
"09K02","Mittagessenversorgung","Anna-Seghers-Schule (Gemeinschaftsschule)","6774766",,,"http://www.anna-seghers-os.de","2","783"
"09K03","Mittagessenversorgung","Fritz-Kühn-Schule (Integrierte Sekundarschule)","6764243",,,"http://www.fritz-kuehn-schule.de","2","784"
"09K04","Mittagessenversorgung","Isaac-Newton-Schule (Integrierte Sekundarschule)","5350708",,,"http://www.isaac-newton-schule.de","2","750"
"09K05","Mittagessenversorgung","Wilhelm-Bölsche-Schule (Integrierte Sekundarschule)","6455089",,,"http://www.wbs.schule-berlin.net","2","785"
"09K06","Mittagessenversorgung","Hans-Grade-Schule (Integrierte Sekundarschule)","6360961",,,"http://www.hans-grade-schule.de","2","786"
"09K07","Mittagessenversorgung durch die Anbieter Detlef Giermann und Gastronomische Versorgungsleistung GmbH","Sophie-Brahe-Schule (Gemeinschaftsschule)","53633950",,,"http://www.sophie-brahe-schule.de","2","787"
"09K08","Mittagessenversorgung","Schule an der Dahme (Integrierte Sekundarschule)","6744572",,,"http://www.oadd.de.vu","2","788"
"09K09","Mittagessenversorgung","Grünauer Schule (Gemeinschaftsschule)","6744540",,,"http://www.gruenauer-schule.de","2","789"
"09P01","Mittagessenversorgung","Freie Waldorfschule Berlin-Südost","6779800",,,"http://www.waldorfsuedost.de","1","790"
"09P05","Mittagessenversorgung","INPA Innovative Privat-Akademie GmbH Berlin","53621540",,,"http://www.inpa-berlin.de","1","791"
"09P06",,"Freie Montessori Schule (Gemeinschaftsschule)","330999001",,,"http://www.montessorischule-berlin.de","1","792"
"09P07",,"Evangelische Schule Köpenick (Gymnasium)","32532401",,,"http://www.ev-schule-koepenick.de","1","793"
"09P08","Mittagessenversorgung","BEST-Sabel-Berufsfachschule für Design","6566100",,,"http://www.best-sabel.de ","1","794"
"09P09","Mittagessenversorgung","BEST-Sabel-Oberschule","280360970",,,"http://www.best-sabel.de","1","795"
"09P10","Mittagessenversorgung","Bewegte Schule (Grundschule)","65015495",,,"http://www.bewegte-schule-berlin.de","1","796"
"09P11",,"Berufsbildungszentrum Chemie","6700040",,,"http://www.bbz-chemie.de","1","797"
"09P12",,"TÜDESB Grundschule Berlin","41766859",,,,"1","798"
"09P13","Mittagessenversorgung durch den Anbieter 3 Köche","Evangelische Grundschule Friedrichshagen","67122512",,,"http://www.ev-schule-friedrichshagen.de","1","799"
"09P15",,"W-I-R-Grundschule Pfefferwerk","32527379",,,"http://www.w-i-r-grundschule.de","1","800"
"09P16",,"BIP-Kreativitätsgrundschule Berlin Treptow","225027733",,,"http://www.krea-schulzentrum.de","1","801"
"09S03","Mittagessenversorgung","Albatros-Schule","53002990",,,"http://www.albatros-schule-berlin.de","2","802"
"09S04",,"Ahorn-Schule","6455031",,,"http://www.ahorn-schule.de","2","803"
"09S05","Mittagessenversorgung","Schule am Altglienicker Wasserturm","6728913",,,"http://www.saawt.de","2","766"
"09S06",,"6. Schule","5328067",,,,"2","804"
"09Y03","Mittagessenversorgung, Cafeteria","Archenhold-Gymnasium","6360195",,,"http://www.archenhold.de","2","805"
"09Y04","Mittagessenversorgung durch den Anbieter Sodexo","Anne-Frank-Gymnasium","51653360",,,"http://www.anne-frank-schule-berlin.de","2","806"
"09Y05","Mittagessenversorgung durch den Anbieter Sunshine Catering","Alexander-von-Humboldt-Gymnasium","6519788",,,"http://www.avh-schule.de","2","807"
"09Y06","Mittagessenversrogung in der Cafeteria","Gerhart-Hauptmann-Gymnasium","6451839",,,"http://www.ghs-berlin.de","2","808"
"09Y10","Mittagessenversorgung","Gebrüder-Montgolfier-Gymnasium","6316677",,,"http://www.gemont.de","2","809"
"09Y11","Mittagessenversorgung durch den Anbieter Gastronomische Versorgungsleistung GmbH","Emmy-Noether-Gymnasium","6542160",,,"http://www.09y11.de","2","810"
"10A04",,"Victor-Klemperer-Kolleg","5426086",,,"http://www.abi-vkk.de","2","811"
"10A06",,"1. Schulpraktisches Seminar (S) Marzahn-Hellersdorf","94395924",,,,"2","812"
"10A07",,"2. Schulpraktisches Seminar (L) Marzahn-Hellersdorf","94395924",,,,"2","812"
"10A08",,"3. Schulpraktisches Seminar (S) Marzahn-Hellersdorf","94395924",,,,"2","812"
"10A09",,"4. Schulpraktisches Seminar (L) Marzahn-Hellersdorf","94395924",,,,"2","812"
"10B01",,"Oscar-Tietz-Schule (OSZ Handel II)","54987112",,,"http://www.oscar-tietz-schule.de","2","813"
"10B02","Mittagessenversorgung","Rahel-Hirsch-Schule (OSZ Gesundheit/Medizin)","99289030",,,"http://www.osz-gesundheit2.de","2","814"
"10E01",,"Private Weiterbildungsakademie für Wirtschaft und Verwaltung GmbH","5146930",,,"http://www.wwv-online.de","1","815"
"10E02",,"Berlin-Brandenburgische Fortbildungsakademie","93026490",,,"http://www.bbfa.de","1","815"
"10E04",,"bbw Akademie für Betriebswirtschaftliche Weiterbildung GmbH","54000743",,,"http://www.bbw-gruppe.de","1","816"
"10G01","Mittagessenversorgung durch den Anbieter Sodexo","Paavo-Nurmi-Grundschule","9320057",,,"http://www.paavo-nurmi-grundschule.cidsnet.de","2","817"
"10G03","Mittagessenversorgung durch den Anbieter Sodexo","Selma-Lagerlöf-Grundschule","9309544",,,"http://www.slgs.de","2","818"
"10G04","Mittagessenversorgung durch den Anbieter Gastronomische Versorgungsleistung GmbH","Falken-Grundschule","93022319",,,"http://www.falken-grundschule.cidsnet.de","2","819"
"10G05","Mittagessenversorgung durch den Anbieter Sodexo","Ebereschen-Grundschule","9309511",,,"http://ebereschengs.sharepoint.com","2","820"
"10G06","Mittagessenversorgung","Bruno-Bettelheim-Grundschule (Gemeinschaftsschule)","9321102",,,"http://www.bruno-bettelheim-grundschule.cidsnet.de","2","821"
"10G07",,"Karl-Friedrich-Friesen-Grundschule","9328095",,,,"2","822"
"10G08","Mittagessenversorgung durch den Anbieter Sunshine Catering","Wilhelm-Busch-Grundschule","9309587",,,,"2","823"
"10G09","Mittagessenversorgung durch den Anbieter Sodexo","Grundschule am Bürgerpark","9309864",,,"http://www.gs-am-buergerpark.cidsnet.de","2","824"
"10G10","Mittagessenversorgung durch den Anbieter Sunshine Catering","Peter-Pan-Grundschule","9358038",,,"http://www.peter-pan-grundschule.de","2","825"
"10G11","Mittagessenversorgung","Grundschule an der Mühle","5416028",,,,"2","826"
"10G12",,"Grundschule an der Geißenweide","5429057",,,"http://www.geissenweide.cidsnet.de","2","827"
"10G13","Mittagessenversorgung durch den Anbieter Gastronomische Versorgungsleistung GmbH","Johann-Strauss-Grundschule","5418166",,,"http://www.strauss.cidsnet.de","2","828"
"10G14",,"Grundschule unter dem Regenbogen","54989880",,,"http://www.grundschule-unterm-regenbogen.de","2","829"
"10G16","Mittagessenversorgung durch den Anbieter Sunshine Catering","Grundschule am Fuchsberg","5142954",,,"http://www.g-am-fuchsberg.cidsnet.de/","2","830"
"10G17","Mittagessenversorgung durch den Anbieter LUNA","Beatrix-Potter-Grundschule","9939018",,,"http://www.beatrix-potter-grundschule.cidsnet.de","2","831"
"10G18","Mittagessenversorgung","Pusteblume-Grundschule","9951872",,,"http://www.pusteblume.cidsnet.de","2","832"
"10G19","Mittagessenversorgung durch den Anbieter Sodexo","Bücherwurm-Schule am Weiher (Grundschule)","9918148",,,"http://www.buecherwurm-grundschule.de","2","833"
"10G22",,"Kolibri-Grundschule","9989232",,,"http://www.kolibri-grundschule.de","2","834"
"10G25",,"Grundschule am Schleipfuhl","9917101",,,"http://www.Grundschule-am-Schleipfuhl.de","2","835"
"10G26",,"Friedrich-Schiller-Grundschule","5668913",,,,"2","836"
"10G28",,"Grundschule am Hollerbusch","5615085",,,"http://www.hollerbusch.cidsnet.de","2","837"
"10G29","Mittagessenversorgung durch den Anbieter Sunshine Catering","Grundschule an der Wuhle","5612127",,,"http://www.grundschuleanderwuhle.cidsnet.de","2","838"
"10G30","Mittagessenversorgung","Mahlsdorfer Grundschule","5627059",,,"http://www.mahlsdorfer-g.cidsnet.de","2","839"
"10G31",,"Franz-Carl-Achard-Grundschule","5677339",,,"http://www.achard-grundschule.org","2","840"
"10G32",,"Kiekemal-Schule (Grundschule)","56597840",,,,"2","841"
"10G33","Mittagessenversorgung durch den Anbieter LUNA","Ulmen-Grundschule","5677052",,,"http://www.ulmen-g.cidsnet.de","2","842"
"10K01","Mittagessenversorgung","Rudolf-Virchow-Schule","930298180",,,"http://www.rvo-berlin.de","2","843"
"10K02","Mittagessenversorgung, Cafeteria","Ernst-Haeckel-Schule","9909332",,,"http://www.haeckel-os.cidsnet.de","2","844"
"10K03","Mittagessenversorgung durch Schülerfirma","Kerschensteiner-Schule","93449920",,,"http://www.k-iss.de","2","845"
"10K04","Mittagessenversorgung","Thüringen-Schule (Gemeinschaftsschule)","9327177",,,"http://www.thueringen-os.cidsnet.de","2","846"
"10K05","Mittagessenversorgung durch externe Anbieter sowie durch Schülerfirma \"Happy Food\"","Jean-Piaget-Schule","9980793",,,"http://www.piaget-schule-berlin.de/","2","847"
"10K06","Mittagessenversorgung durch den Anbieter Sunshine Catering","Klingenberg-Schule","5143537",,,"http://www.klingenberg.cidsnet.de","2","848"
"10K07","Mittagessenversorgung durch den Anbieter Sodexo","Caspar-David-Friedrich-Schule","5634354",,,"http://cdf-oberschule.de","2","849"
"10K08","Mittagessenversorgung durch den Anbieter Gastronomische Versorgungsleistung GmbH","Johann-Julius-Hecker-Schule","93020910",,,"http://www.hecker-or.cidsnet.de","2","850"
"10K09","Mittagessenversorgung durch den Anbieter Sunshine Catering","Konrad-Wachsmann-Schule","9918101",,,"http://www.kwo.cidsnet.de","2","851"
"10K10","Mittagessenversorgung durch den Anbieter Sodexo","Wolfgang-Amadeus-Mozart-Schule (Gemeinschaftsschule)","5612026",,,"http://www.wam-schule.cidsnet.de","2","852"
"10P03",,"Gesellschaft für Pflege- und Sozialberufe gGmbH","9302070",,,"http://www.gfp-berlin.de","1","815"
"10P05","Mittagessenversorgung","BEST-Sabel-Grundschule Mahlsdorf","99283520",,,"http://www.best-sabel.de","1","853"
"10P09","Mittagessenversorgung durch den Anbieter Die Arche-Christliches Kinder- und Jugendwerk e.V.","Arche-Schule (Grundschule)","4431237200",,,"http://www.fesb.de ","1","854"
"10P10",,"Private deutsch-russische Lomonossow-Grundschule zu Berlin Marzahn","31172185",,,"http://www.lomonossow-grundschule.de","1","855"
"10P12",,"Freie Schule am Elsengrund (Integrierte Sekundarschule)","97891077",,,"http://www.waldorf-mahlsdorf.de","1","856"
"10P13",,"BEST-Sabel-Grundschule Kaulsdorf","56594668",,,"http://www.best-sabel.de","1","857"
"10P14",,"BIP Kreativitätsgrundschule Berlin Kaulsdorf","92092220",,,"http://www.bip-kreativ.de","1","858"
"10P15",,"Bildungsinstitut Brückner","9366740",,,,"1","859"
"10S04","Mittagessenversorgung durch den Anbieter LUNA","Schule am Pappelhof","54979590",,,"http://schule-am-pappelhof.be.schule.de","2","860"
"10S07","Mittagessenversorgung durch den Anbieter LUNA","Schule am Rosenhain","9989181",,,"http://www.rosenhain.cidsnet.de","2","861"
"10S08",,"Schule am Mummelsoll","99286382",,,"http://www.mummelsoll.de","2","862"
"10S10","Mittagessenversorgung durch den Anbieter LUNA","Schule am grünen Stadtrand","93668090",,,,"2","863"
"10S11","Mittagessenversorgung","Marcana-Schule","9366870",,,,"2","864"
"10Y01","Mittagessenversorgung","Tagore-Gymnasium","9321069",,,"http://www.tagore-schule.de","2","865"
"10Y02","Mittagessenversorgung","Otto-Nagel-Gymnasium","5143864",,,"http://www.otto-nagel-gymnasium.de","2","866"
"10Y03",,"Wilhelm-von-Siemens-Gymnasium","549791340",,,"http://www.Siemens-Gymnasium.de","2","867"
"10Y08","Mittagessenversorgung durch den Anbieter Sodexo","Sartre-Gymnasium","99281416",,,"http://www.sartre.cidsnet.de","2","868"
"10Y11","Mittagessenversorgung","Melanchthon-Gymnasium","9918008",,,"http://www.melanchthon-schule-berlin.de","2","869"
"11A02",,"2. Schulpraktisches Seminar (S) Lichtenberg","557797870",,,,"2","870"
"11A06",,"3. Schulpraktisches Seminar (L) Lichtenberg","557797870",,,,"2","870"
"11A07",,"Schul- und Leistungssportzentrum Berlin (Sportforum)","983185205",,,"http://www.slzb.de/","2","871"
"11A08",,"1. Schulpraktisches Seminar (S) Lichtenberg","557797870",,,,"2","870"
"11B01","Mittagessenversorgung","Hein-Moeller-Schule (OSZ Energietechnik II)","549330",,,"http://www.Hein-Moeller-Schule.de","2","872"
"11B02",,"Max-Taut-Schule (OSZ Gebäude, Umwelt, Technik)","52280148",,,,"2","873"
"11B03",,"OSZ Bürowirtschaft II","55779060",,,"http://www.oszbuerozwei.de","2","874"
"11E05",,"D&B Dienstleistung & Bildung gGmbH","9860090",,,"http://www.dub-berlin.de","1","875"
"11E06",,"bbw Akademie für Betriebswirtschaftliche Weiterbildung GmbH","50292921",,,"http://www.bbw-gruppe.de","1","876"
"11E08",,"Berliner Berufsfachschule für Kosmetikerinnen GmbH","4723148",,,"http://www.kosmetikfachschule-berlin.de","1","877"
"11E09",,"Institut Buhara e.V.","50014677",,,"http://institutbuhara.com","1","878"
"11E11",,"DatenKlang-Schule für Musik und audiovisuelle Technik","91206996",,,"http://www.datenklang.de","1","879"
"11E12",,"Lichtenberger Sprachinstitut","54376529",,,"http://www.lichtenberger-sprachinstitut.de","1","880"
"11E13",,"BmU-Wirtschafts- und Steuerfachschule für den Mittelstand","97608679",,,"http://www.bmu-wirtschafts-und-steuerfachschule.de","1","881"
"11E14",,"Ausbildungszentrum OTA GmbH","557560",,,"http://www.ausbildung-ota.de","1","882"
"11G01","Mittagessenversorgung durch den Anbieter Sodexo","Sonnenuhr-Grundschule","9752028",,,"http://www.sonnenuhr-schule.de","2","883"
"11G02",,"Grundschule am Roederplatz","9721419",,,"http://www.gs-am-roederplatz.cidsnet.de","2","884"
"11G03","Mittagessenversorgung","Grundschule im Gutspark","5588170",,,"http://www.grundschule-im-gutspark.de","2","885"
"11G05",,"Grundschule auf dem lichten Berg","5558219",,,"http://www.gs-lichtenberg-berlin.de","2","886"
"11G06","Mittagessenversorgung","Adam-Ries-Grundschule","5135123",,,"http://www.riesg.cidsnet.de","2","887"
"11G07",,"Hermann-Gmeiner-Grundschule","5598291",,,"http://www.gmeinergs.cidsnet.de","2","888"
"11G08","Mittagessenversorgung durch den Anbieter Sunshine Catering","Robinson-Grundschule","5228089811",,,"http://robinson-grundschule-berlin.de","2","889"
"11G09",,"Bürgermeister-Ziethen-Grundschule","5251434",,,"http://www.ziethen-g.cidsnet.de","2","890"
"11G10","Mittagessenversorgung durch den Anbieter Sodexo","Schule im Ostseekarree (Grundschule)","92403000",,,"http://www.schuleimostseekarree.cidsnet.de","2","891"
"11G11","Mittagessenversorgung durch den Anbieter Sodexo","Bernhard-Grzimek-Grundschule","5120097",,,"http://www.grzimek.schule-berlin.net","2","892"
"11G12",,"Lew-Tolstoi-Grundschule","5090147",,,"http://www.lew-tolstoi-g.cidsnet.de","2","893"
"11G13",,"Karlshorster Grundschule","5090011",,,"http://www.karlshorster-grundschule.de","2","894"
"11G14","Mittagessenversorgung","Richard-Wagner-Grundschule","5099078",,,"http://www.wagner.cidsnet.de","2","895"
"11G15",,"Paul-und-Charlotte-Kniese-Schule","51659714",,,"http://www.kniese-schule-berlin.de","2","896"
"11G16","Mittagessenversorgung","Schule an der Victoriastadt","5107047",,,"http://www.schule-an-der-victoriastadt.cidsnet.de","2","897"
"11G17","Mittagessenversorgung","Brodowin-Grundschule","9864058",,,"http://www.brodowinschule.de","2","898"
"11G18",,"Grundschule am Wilhelmsberg","9711566",,,"http://www.wilhelmsberg.cidsnet.de","2","899"
"11G19","Mittagessenversorgung","Obersee-Grundschule","9865038",,,"http://www.obersee-grundschule.cidsnet.de","2","900"
"11G21",,"Schule Am Faulen See","9830610",,,"http://www.schule-am-faulen-see.schule-berlin.net","2","901"
"11G22","Mittagessenversorgung","Martin-Niemöller-Grundschule","9294089",,,"http://www.niemoeller-gs.cidsnet.de/conpresso4","2","902"
"11G23",,"Friedrichsfelder Grundschule","5251639",,,"http://www.friedrichsfelder.cidsnet.de","2","903"
"11G25","Mittagessenversorgung","Grundschule am Wäldchen","92403080",,,"http://www.schule-am-waeldchen.de","2","904"
"11G26",,"Randow-Grundschule","96066800",,,,"2","905"
"11G28","Mittagessenversorgung","Feldmark-Schule (Grundschule)","92403710",,,"http://www.Feldmark-Schule.de","2","906"
"11G29","Mittagessenversorgung","Matibi-Grundschule","9627640",,,"http://www.matibi-grundschule.de","2","907"
"11K01","Mittagessenversorgung","Alexander-Puschkin-Schule","5251429",,,"http://www.puschkinschule.eu","2","908"
"11K02","Mittagessenversorgung durch den Anbieter Menütaxi","Mildred-Harnack-Schule","5594105",,,"http://www.mildredharnack.cidsnet.de","2","909"
"11K04","Mittagessenversorgung","Gutenberg-Schule","9711565",,,"http://www.gutenberg-os.de","2","910"
"11K05","Mittagessenversorgung durch den Anbieter Sodexo","Fritz-Reuter-Schule","9627630",,,"http://www.Fritz-Reuter-Oberschule.de","2","911"
"11K06","Mittagessenversorgung durch den Anbieter Sunshine Catering","Schule am Rathaus","5597668",,,"http://www.rathaus.schule-berlin.net","2","912"
"11K07","Mittagessenversorgung durch den Anbieter Sunshine Catering","Vincent-van-Gogh-Schule (Integrierte Sekundarschule)","92403020",,,"http://www.vincent-van-gogh.cidsnet.de","2","913"
"11K08","Mittagessenversorgung durch den Anbieter Sodexo","George-Orwell-Schule","5125027",,,"http://www.george-orwell-oberschule.de","2","914"
"11K09","Mittagessenversorgung durch den Anbieter Sunshine Catering","Philipp-Reis-Schule (Integrierte Sekundarschule)","97104911",,,"http://www.philipp-reis-oberschule.de","2","915"
"11K10",,"Grüner Campus Malchow (Gemeinschaftsschule)","96248595 ",,,"http://www.grundschule-im-gruenen.de","2","916"
"11K11",,"Paul-Schmidt-Schule (Integrierte Sekundarschule)","9864885",,,"http://www.iss-malchower-weg.de/","2","917"
"11P01",,"Katholische Schule Sankt Mauritius (Grundschule)","55151821",,,"http://www.st-mauritius-grundschule.de","1","918"
"11P02","Mittagessenversorgung","bbw Akademie für Betriebswirtschaftliche Weiterbildung GmbH","50929222",,,"http://www.bbw-ausbildung-berlin.de","1","876"
"11P03","Mittagessenversorgung durch den Anbieter 3 Köche","Evangelische Schule Lichtenberg (Grundschule)","54718014",,,"http://www.ev-schule-lichtenberg.de","1","919"
"11P04","Mittagessenversorgung durch den Anbieter Natürlich essen Berlin-Brandenburg UG","BIP-Kreativitätsgrundschule Berlin Lichtenberg","34665524",,,"http://www.krea-schulzentrum.de","1","920"
"11P06",,"D&B Dienstleistung & Bildung gGmbH","9860090",,,"http://www.dub-berlin.de","1","875"
"11P08",,"ESB mediencollege Berlin gGmbH","44737135",,,"http://www.mediencollege-berlin.de","1","921"
"11P09","Mittagessenversorgung durch den Anbieter Natürlich essen Berlin-Brandenburg UG","BIP-Kreativitätsgymnasium Berlin","22196630",,,"http://www.krea-schulzentrum.de","1","922"
"11P14",,"Schulen der BAWI GmbH","27593888",,,"http://www.bawi-bernau.de","1","923"
"11P15",,"Donner+Kern gGmbH Berufsfachschule für Sozialassistenz","27591090",,,"http://www.donner-partner.de","1","877"
"11S01","Mittagessenversorgung","Schule an der Victoriastadt","5107047",,,"http://www.schule-an-der-victoriastadt.cidsnet.de","2","897"
"11S02","Mittagessenversorgung durch den Anbieter Sodexo","Schule am Fennpfuhl","9720416",,,,"2","924"
"11S04",,"Paul-und-Charlotte-Kniese-Schule","51659714",,,"http://www.kniese-schule-berlin.de","2","896"
"11S05","Mittagessenversorgung","Schule am grünen Grund","5436709",,,"http://home.t-online.de/home/schule-am-gruenen-grund.cids/","2","925"
"11S06",,"Selma-Lagerlöf-Schule","9721409",,,,"2","926"
"11S07",,"Carl-von-Linné-Schule","5050960",,,"http://www.linne-schule.cidsnet.de","2","927"
"11S08","Mittagessenversorgung","Schule Am Breiten Luch","9295080",,,"http://www.schule-am-breiten-luch.de.vu","2","928"
"11S10",,"Schule an der Malchower Aue","9209040",,,"http://www.sadma.de/","2","929"
"11S12",,"Nils-Holgersson-Schule","5139676",,,"http://www.nils-holgersson-schule-berlin.de","2","930"
"11Y02","Mittagessenversorgung","Johann-Gottfried-Herder-Oberschule","97609567",,,"http://www.jgherder.de","2","931"
"11Y05","Mittagessenversorgung durch den Anbieter Sodexo","Hans-und-Hilde-Coppi-Oberschule","5098116",,,"http://www.coppi-gym.de","2","932"
"11Y09","Mittagessenversorgung, Cafeteria","Barnim-Oberschule","9366690",,,"http://www.barnim-gym.de","2","933"
"11Y10",,"Manfred-von-Ardenne-Schule (Gymnasium)","9865002",,,"http://www.ardenne-schule.de/","2","934"
"11Y11","Mittagessenversorgung","Immanuel-Kant-Schule (Gymnasium)","5139748",,,"http://kant.be.schule.de","2","935"
"12A01",,"1. Schulpraktisches Seminar (S) Reinickendorf","498575969",,,,"2","936"
"12A02",,"2. Schulpraktisches Seminar (L) Reinickendorf","498575960",,,"http://www.nord-sem.de","2","936"
"12A05",,"5. Schulpraktisches Seminar (L) Reinickendorf","498575960",,,,"2","936"
"12A06",,"6. Schulpraktisches Seminar (S) Reinickendorf","498575969",,,,"2","936"
"12A07",,"4. Schulpraktisches Seminar (L) Reinickendorf","498575960",,,,"2","936"
"12A08",,"3. Schulpraktisches Seminar (S) Reinickendorf","498575969",,,,"2","936"
"12A09",,"7. Schulpraktisches Seminar (S) Reinickendorf","498575969",,,,"2","936"
"12B01",,"Georg-Schlesinger-Schule (OSZ Maschinen- und Fertigungstechnik)","4979060",,,"http://www.gs-schule.de","2","937"
"12B02","Mittagessenversorgung","Emil-Fischer-Schule (OSZ Ernährung und Lebensmitteltechnik)","4147210-11",,,"http://www.emilfischerschule.de","2","938"
"12B03",,"Ernst-Litfaß-Schule (OSZ Druck- und Medientechnik)","4147920",,,"http://www.ernst-litfass-schule.de","2","938"
"12E01",,"Kosmetik-Institut Margit Berenyi","4013765",,,,"1","939"
"12E03",,"SAE Institute Berlin","43094470",,,"http://www.sae.edu","1","940"
"12E04",,"Berlitz Sprachschule Berlin Tegel","4651011",,,"http://www.berlitz.de/berlin","1","941"
"12E05",,"Bibelschule Gemeinde auf dem Weg","857919222",,,"http://www.berlinerbibelschulen.org","1","942"
"12E06",,"ESO - Euro Akademie Berlin-Fachakademie für Übersetzer und Dolmetscher","43557030",,,"http://www.euroakademie.de","1","257"
"12G01",,"Havelmüller-Grundschule","4322101",,,"http://havelmueller-grundschule.de/","2","943"
"12G02","Mittagessenversorgung durch den Anbieter Verein für Aufsuchende Erziehungshilfen e.V.","Grundschule am Schäfersee","4567474",,,"http://www.schaefersee-grundschule.de","2","944"
"12G03","Mittagessenversorgung für Kinder der ergänzenden Betreuung","Reginhard-Grundschule","48096363",,,"http://www.reginhard.cidsnet.de","2","945"
"12G04",,"Till-Eulenspiegel-Grundschule","4953050",,,"http://www.eulenspiegel-schule-berlin.de","2","946"
"12G05","Mittagessenversorgung","Kolumbus-Grundschule","4963041",,,"http://www.kolumbus.schule-berlin.net","2","947"
"12G06",,"Hausotter-Grundschule","4915012",,,"http://www.hausotter-grundschule.cidsnet.de","2","948"
"12G07",,"Mark-Twain-Grundschule","41709571",,,"http://www.twainweb.de","2","949"
"12G09",,"Grundschule an der Peckwisch","41508006",,,"http://www.peckwisch.de","2","950"
"12G10",,"Peter-Witte-Grundschule","4118966",,,"http://www.pws.cidsnet.de","2","951"
"12G11","Mittagessenversorgung","Ringelnatz-Grundschule","4148700",,,"http://www.ringelnatz.cidsnet.de","2","952"
"12G12",,"Borsigwalder Grundschule","4322051",,,"http://borsigwaldergs.de","2","953"
"12G13",,"Franz-Marc-Grundschule","4339792",,,"http://www.fmg-tegel.de","2","954"
"12G14","Mittagessenversorgung","Alfred-Brehm-Grundschule","4322408",,,"http://www.alfred-brehm-schule.cidsnet.de","2","955"
"12G15","Mittagessenversorgung","Hoffmann-von-Fallersleben-Grundschule","4339343",,,"http://www.fallersleben.cidsnet.de","2","956"
"12G17","Mittagessenversorgung","Ellef-Ringnes-Grundschule","417440780",,,"http://www.ellef-ringnes-grundschule.cidsnet.de","2","957"
"12G18","Mittagessenversorgung durch den Anbieter Sodexo","Grundschule am Tegelschen Ort","4311786",,,"http://www.grundschule-tegelort.de","2","958"
"12G19",,"Münchhausen-Grundschule","4111630",,,"http://www.muenchhausen-gs.cidsnet.de","2","959"
"12G20","Mittagessenversorgung durch den Anbieter Sodexo","Grundschule am Vierrutenberg","4026518",,,"http://www.be.schule.de/schulen/vierrutenberg","2","960"
"12G21","Mittagessenversorgung durch den Anbieter Gastronomische Versorgungsleistung GmbH","Grundschule am Fließtal","4045827",,,"http://www.fliesstal.cidsnet.de","2","961"
"12G22",,"Gustav-Dreyer-Grundschule","4050860",,,"http://www.gustav-dreyer-schule.de","2","962"
"12G23","Mittagessenversorgung durch den Anbieter Sodexo","Victor-Gollancz-Grundschule","4014659",,,"http://www.victor-gollancz-grundschule.com","2","963"
"12G24","Mittagessenversorgung im Rahmen der ergänzenden Betreuung","Renée-Sintenis-Grundschule","40605910",,,"http://www.renee-sintenis.cidsnet.de","2","964"
"12G26",,"Märkische Grundschule","4165057",,,"http://www.staatliche-europa-schule.de","2","965"
"12G27","Mittagessen durch den Anbieter 3 Köche","Chamisso-Grundschule","40716257",,,"http://www.chamisso-grundschule.de","2","966"
"12G28",,"Grundschule in den Rollbergen","4023059",,,"http://www.rollberge.de","2","967"
"12G29","Mittagessenversorgung","Hermann-Schulz-Grundschule","4132008",,,"www.hermann-schulz-grund.schule-berlin.net/ http://www.hsg.cidsnet.de","2","968"
"12G30","Mittagessenversorgung","Reineke-Fuchs-Grundschule","4132055",,,"http://www.reineke-fuchs-gs.cidsnet.de","2","969"
"12G31",,"Hannah-Höch-Grundschule (Gemeinschaftsschule)","40899960",,,"http://www.hannah-hoech-schule.de","2","970"
"12G32","Mittagessenversorgung für Hortkinder","Charlie-Chaplin-Grundschule","4167676",,,"http://www.chaplin.cidsnet.de","2","971"
"12G33",,"Lauterbach-Grundschule","4021088",,,"http://www.lauterbach-grundschule.de","2","972"
"12G34","Mittagessenversorgung durch den Anbieter Gastronomische Versorgungsleistung GmbH","Otfried-Preußler-Grundschule","43660380",,,"http://www.ops-berlin.de","2","973"
"12K01","Mittagessenversorgung durch den Anbieter ABRAXAS","Julius-Leber-Schule","43557090",,,"http://www.julius-leber-os.cidsnet.de","2","954"
"12K02","Mittagessenversorgung","Bettina-von-Arnim-Schule","403050",,,"http://www.bettina.cidsnet.de","2","974"
"12K03","Mittagessenversorgung","Max-Beckmann-Schule (Integrierte Sekundarschule)","4134081",,,"http://www.m-b-o.net","2","975"
"12K04","Mittagessenversorgung","Paul-Löbe-Schule","4957026",,,"http://www.plo.cidsnet.de ","2","936"
"12K05","Mittagessenversorgung","Gustav-Freytag-Schule (Integrierte Sekundarschule)","4958031",,,"http://www.gustav-freytag-schule.de/","2","976"
"12K06",,"Benjamin-Franklin-Schule (Integrierte Sekundarschule)","43983810",,,"http://www.franklin.cidsnet.de","2","977"
"12K07","Mittagessenversorgung durch den Anbieter Warnhoff","Jean-Krämer-Schule (Integrierte Sekundarschule) Wittenau","41109152",,,"http://www.jeankraemerschule.de","2","978"
"12K08","Mittagessenversorgung","Greenwich-Schule (Gemeinschaftsschule)","4174963",,,"http://www.greenwich-oberschule.de","2","979"
"12K09","Mittagessenversorgung durch den Anbieter Sodexo","Carl-Benz-Schule (Integrierte Sekundarschule)","4046097",,,"http://www.cbo.de.vu","2","980"
"12K10","Mittagessenversorgung durch den Anbieter 3 Köche","Carl-Bosch-Schule","40584149",,,"http://www.carl-bosch-oberschule.de","2","981"
"12K11","Mittagessenversorgung","Albrecht-Haushofer-Schule","4319072",,,"http://www.albrecht-haushofer-schule.de","2","982"
"12P01",,"Katholische Schule Salvator (Grundschule)","41408180",,,"http://www.salvator-grundschule.de","1","983"
"12P02",,"Waldorfschule Märkisches Viertel Berlin","4072830",,,"http://www.waldorfschule-mv.de","1","984"
"12P03",,"Evangelische Schule Frohnau","40632149",,,"http://www.ev-frohnau.de","1","985"
"12P04",,"Katholische Schule Salvator","4111198",,,"http://salvator.net","1","983"
"12P06",,"Elisabethstift-Schule","688343870",,,"http://www.elisabethstift-schule.de","1","986"
"12P07",,"Private Goethe-Schulen","40399849",,,"http://www.goethegrundschule-berlin.de","1","987"
"12P10",,"Demokratische Schule X (Gemeinschaftsschule)","60922621",,,"http://www.demokratische-schule-x.de","1","988"
"12P11",,"Alternativschule Berlin (Integrierte Sekundarschule)","4174860",,,"http://www.alternativschule-berlin.de","1","989"
"12P13",,"Euro Akademie","43557030",,,"http://www.eso.de/berlin","1","257"
"12P14",,"Montessori-Schule Heiligensee (Grundschule)","4306436",,,"http://www.montessori-heiligensee.de","1","990"
"12S01","Mittagessenversorgung durch den Anbieter Schildkröte GmbH Berlin","Stötzner-Schule","4328011",,,"http://www.stoetznerschule-berlin.de","2","991"
"12S02",,"Richard-Keller-Schule","4048933",,,"http://www.rks.cidsnet.de","2","992"
"12S03","Mittagessenversorgung für Kinder in der ergänzenden Betreuung","Lauterbach-Schule","4021089",,,"http://www.lauterbach-schule.de","2","972"
"12S04",,"Schule am Park","4145034 ",,,"http://www.schule-am-park.schule-berlin.net/","2","993"
"12S05","Mittagessenversorgung","Wiesengrund-Schule","40009145",,,"http://www.wiesengrund-schule.cidsnet.de","2","981"
"12S06","Mittagessenversorgung durch die Lankwitzer Werkstätten gemeinnützige GmbH","Toulouse-Lautrec-Schule","4332097",,,"http://www.tls.cidsnet.de","2","994"
"12S07",,"Martin-Luther-King-Schule","4048933",,,,"2","992"
"12Y01","Mittagessenversorgung","Friedrich-Engels-Gymnasium","4955056",,,"http://www.feg-berlin.de","2","995"
"12Y02",,"Europäisches Gymnasium Bertha-von-Suttner","4916057",,,"http://www.bertha-von-suttner.de","2","996"
"12Y03","keine Mittagessenversorgung, Cafeteria","Humboldt-Gymnasium","4337008",,,"http://www.humboldtschule-berlin.de","2","997"
"12Y04","Cafeteria","Gabriele-von-Bülow-Gymnasium","210052460",,,"http://www.gvb-berlin.de","2","998"
"12Y05","Mittagessenversorgung, Cafeteria, Mensa","Georg-Herwegh-Gymnasium","4042070",,,"http://www.herwegh-gymnasium.de","2","999"
"12Y06","Mittagessenversorgung","Schulfarm Insel Scharfenberg","430944330",,,"http://www.insel-scharfenberg.de","2","1000"
"12Y07","keine Mittagessenversorgung, Cafeteria","Romain-Rolland-Gymnasium","4140170",,,"http://www.romain-rolland-gymnasium.eu","2","1001"
"12Y08","Mittagessenversorgung","Thomas-Mann-Gymnasium","414763670",,,"http://www.tmo-berlin.info","2","1002"
